"DitchReservoirCompanyName","OWF_ID","OWF_ID_Flag","BusinessEntity_ID","BusinessEntity_ID_Flag","DARCAMember","EntityStartDate","EntityStartDate_Flag","EntityEndDate","EntityEndDate_Flag","Ditch_WDID_CSV","Ditch_WDID_CSV_Flag","Reservoir_WDID_CSV","Reservoir_WDID_CSV_Flag","Latitude","Longitude","Lat_Long_Flag","Municipality","Municipality_Flag","IBCC_Basin","IBCC_Basin_Flag","Website","Website_Flag","Comment"
"""C"" Ditch Company",CDC,G,20101274666,G,N,2010-05-12,G,,N,,x,,x,38.743510,-107.626063,G2,Crawford,G,Gunnison,G1,,x,
1900 Road Irrigators Lateral Ditch Company,1900RdIrrigatorsLDC,G,20121549891,G,N,2012-10-01,G,,N,,x,,x,38.718231,-108.008938,G2,Delta,G,Gunnison,G1,,x,
A J I Irrigation Company,AJIIC,G,19871737026,G,N,1987-08-07,G,,N,,x,,x,39.820476,-104.975284,G2,Denver,G,Metro,G1,,x,
Abrams Lateral Ditch Company,AbramsLDC,G,19871083421,G,N,1926-03-27,G,,N,,x,,x,,,x,,x,,x,,x,
Acme Ditch Company,AcmeDC,G,19871053880,G,N,1911-03-13,G,,N,,x,,x,,,x,,x,,x,,x,
Adams-Phillips Ditch Nonprofit Corporation,AdamsPhillipsDC,G,20001135095,G,N,2000-07-11,G,,N,,x,,x,38.588744,-105.230586,G2,Canyon City,G,Arkansas,G1,,x,
Adobe Creek Canal And Reservoir Company,AdobeCrkCRC,G,19871011147,G,N,1890-09-29,G,,N,,x,,x,,,x,,x,,x,,x,
Adobe Creek Falls Irrigation Company,AdobeCrkFallsIC,G,20051261222,G,N,2005-07-08,G,,N,,x,,x,39.155251,-108.684820,G2,Fruita,G,Colorado,G1,,x,
Adobe Creek Irrigating Company,AdobeCrkIC,G,19871124013,G,N,1953-07-08,G,,N,,x,,x,,,x,,x,,x,,x,
Agitator Ditch Company,AgitatorDC,G,19871049121,G,N,1909-03-30,G,,N,,x,,x,,,x,,x,,x,,x,
Agricultural Ditch And Reservoir Company,AgDRC,G,19871485638,G,N,1982-07-22,G,,N,,x,,x,39.754825,-105.141023,G2,Lakewood,G,Metro,G1,http://agditch.com/?q=node/1,G,
Alamo Ditch Company,AlamoDC,G,19871032711,G,N,1901-05-24,G,,N,,x,,x,,,x,,x,,x,,x,
"Alexander Ditch Company, Inc.",AlexanderDC,G,19871470508,G,N,1982-04-05,G,,N,,x,,x,39.141753,-108.678951,G2,Fruita,G,Colorado,G1,,x,
Alexis Arbaney Ditch Company,AlexisArbaneyDC,G,20001102133,G,N,2000-05-19,G,,N,,x,,x,39.368658,-107.031414,G2,Basalt,G,Colorado,G1,,x,
Alfalfa Ditch Company,AlfalfaDC,G,19871006633,G,N,1884-12-01,G,,N,,x,,x,,,x,,x,,x,,x,
Alkali Ditch No. 2 Inc.,AlkaliNo2DC,G,20031035229,G,N,2003-01-31,G,,N,,x,,x,39.610000,-105.020000,G2,Littleton,G,Metro,G1,,x,
Alkali No. 1 Ditch Company,AlkaliNo1DC,G,19871119096,G,N,1950-11-27,G,,N,,x,,x,,,x,,x,,x,,x,
Allen And Reno Park Lateral Ditch Company,AllenRenoParkLDC,G,19871972530,G,N,1920-09-02,G,,N,,x,,x,,,x,,x,,x,,x,
"Allen Basin Reservoir Company, Inc.",AllenBasinRC,G,19871131752,G,N,1956-03-01,G,,N,,x,,x,40.157560,-106.908531,G2,Yampa,G,Yampa,,,x,
Allen Ditch Company,AllenDC,G,19871077877,G,N,1923-06-27,G,,N,,x,,x,,,x,,x,,x,,x,
Allen Mesa Ditch And Reservoir Company,AllenMesaDRC,G,19871046036,G,N,1907-11-29,G,,N,,x,,x,,,x,,x,,x,,x,
"Alpine Lakes Ditch And Reservoir Company, Inc.",AlpineLakesDRC,G,19951153013,G,N,1995-12-14,G,,N,,x,,x,37.096171,-106.854573,G2,Pagosa Springs,G,Southwest,G1,,x,
Amity Mutual Irrigation Company,AmityMutualIC,G,19871100491,G,N,1936-04-22,G,,N,,x,,x,38.051691,-102.122950,G2,Holly,G,Arkansas,G1,http://www.amitymutual.com/,G,
"Anaconda Ditch Co., Incorporated",AnacondaDC,G,19871584703,G,N,1984-08-23,G,2001-06-01,G,,x,,x,,,x,,x,,x,,x,
Anderson Ditch Company,AndersonDC,G,19961125049,G,N,1996-09-24,G,,N,,x,,x,40.020159,-105.275782,G2,Boulder,G,South Platte,G1,,x,
Andrews-Farwell Ditch Company,AndrewsFarwellDC,G,19871026600,G,N,1898-04-21,G,2004-09-30,G,,x,,x,40.035664,-105.162504,G2,Boulder,G,South Platte,G1,,x,
Animas Consolidated Ditch Company,AnimasConsolidatedDC,G,19871929230,G,Y,1899-11-10,G,,N,,x,,x,37.242703,-107.821944,G2,Durango,G,Southwest,G1,,x,
"Animas River Water Users, Inc.",AnimasRiverWU,G,19871122336,G,N,1952-08-15,G,,N,,x,,x,,,x,,x,,x,,x,
Animas Valley Ditch And Water Company,AnimasVlyDWC,G,19871002646,G,N,1880-04-26,G,,N,,x,,x,37.374849,-107.843400,G2,Durango,G,Southwest,G1,,x,
Animas View Ditch Company,AnimasViewDC,G,19931031406,G,N,1993-03-24,G,,N,,x,,x,37.173431,-107.874731,G2,Durango,G,Southwest,G1,,x,
Animas-Bear Creek Ditch Company,AnimasBearCrkDC,G,19951104491,G,N,1995-08-21,G,1998-06-01,G,,x,,x,,,x,,x,,x,,x,
"Antonio Lopez Ditch Company, Inc.",AntonioLopezDC,G,19871233718,G,N,1971-09-03,G,,N,,x,,x,37.164519,-104.521512,G2,Trinidad,G,Arkansas,G1,,x,
Antonito Ditch Company,AntonitoDC,G,19871113687,G,N,1947-12-12,G,,N,,x,,x,,,x,,x,,x,,x,
Apple Blossom Heights/Leslee Minor Subdivision Irrigation Company,AppleBlossomHeightsIC,G,19981092492,G,N,1998-05-19,G,2001-03-03,G,,x,,x,,,x,,x,,x,,x,
Applecrest Irrigation Company,ApplecrestIC,G,19951023469,G,N,1995-02-24,G,,N,,x,,x,39.104301,-108.536963,G2,Grand Junction,G,Colorado,G1,,x,
Appleton Lateral Ditch Company,AppletonLDC,G,19871067211,G,N,1918-04-15,G,,N,,x,,x,,,x,,x,,x,,x,
"Appleton ML350 Ditch Company, Inc.",AppletonML350DC,G,19941020337,G,N,1994-02-22,G,,N,,x,,x,39.122090,-108.617897,G2,Grand Junction,G,Colorado,G1,,x,
Arch Ditch Association,ArchDA,G,20131241429,G,N,2013-04-21,G,,N,,x,,x,38.428960,-106.571176,G2,Gunnison,G,Gunnison,G1,,x,
Arkansas Ditch & Drainage Corporation,ArkansasDitchDrainageCorp,G,20111465245,G,N,2011-08-16,G,,N,,x,,x,39.157246,-108.155950,G2,Mesa,G,Colorado,G1,,x,
Arkansas Groundwater Users Association,ArkansasGroundwaterUA,G,,x,Y,,x,,N,,x,,x,,,x,Pueblo,G,,x,,x,
Arkansas River Mutual Irrigation Company,ArkansasRiverMutualIC,G,19871174727,G,N,1921-11-30,G,,N,,x,,x,,,x,,x,,x,,x,
Arlian Ranch Ditch Company,ArlianRanchDC,G,19881059304,G,N,1988-06-06,G,,N,,x,,x,39.398476,-107.111569,G2,Carbondale,G,Colorado,G1,,x,
Arroyo Springs Ditch Company,ArroyoSpgsDC,G,19871069230,G,N,1919-04-19,G,,N,,x,,x,,,x,,x,,x,,x,
Arthur Irrigation Company,ArthurIC,G,19871007486,G,N,1886-07-29,G,,N,,x,,x,38.674700,-108.039000,G2,Delta,G,Gunnison,G1,,x,
Aspen Meadows Ditch Company,AspenMeadowsDC,G,19961060280,G,N,1996-05-02,G,,N,,x,,x,39.199951,-106.828065,G2,Aspen,G,Colorado,G1,,x,
Aspen Preserve Ditch & Reservoir Company,AspenPreserveDRC,G,20041226335,G,N,2004-06-30,G,,N,,x,,x,39.177096,-106.799065,G2,Aspen,G,Colorado,G1,,x,
Autrey-McCammon Ditch Company,AutreyMcCammonDC,G,19871090644,G,N,1929-10-04,G,,N,,x,,x,,,x,,x,,x,,x,
B. H. Eaton Ditch Company,BHEatonDC,G,19871052181,G,N,1910-06-09,G,,N,,x,,x,40.456130,-104.898604,G2,Windsor,G,South Platte,G1,,x,
Baca Irrigating Ditch Company,BacaIrrigatingDC,G,19871962398,G,N,1916-03-17,G,,N,,x,,x,,,x,,x,,x,,x,
"Bagwell Ditch Company, Inc.",BagwellDC,G,19961143964,G,N,1996-11-04,G,,N,,x,,x,,,x,,x,,x,,x,
Bailey Extension Reservoir Company,BaileyExtensionRC,G,19871060739,G,N,1915-03-04,G,,N,,x,,x,,,x,,x,,x,,x,
Bailey Lateral Ditch Company,BaileyLDC,G,19871967503,G,N,1918-05-27,G,,N,,x,,x,,,x,,x,,x,,x,
Baker Lateral Ditch Company,BakerLDC,G,19871068570,G,N,1919-01-10,G,,N,,x,,x,,,x,,x,,x,,x,
Baker-Ott Lateral Company,BakerOttLC,G,19871040142,G,N,1905-03-06,G,,N,,x,,x,,,x,,x,,x,,x,
Bane And Thomas Ditch Company,BaneThomasDC,G,20111251191,G,N,2011-04-27,G,,N,,x,,x,39.181949,-106.855332,G2,Aspen,G,Colorado,G1,,x,
Banks/Tyner Ditch Co.,,x,20061448328,G,N,2006-11-01,G,,N,,x,,x,37.205580,-107.752648,G2,Durango,G,Southwest,G1,,x,
Banks-Tyner Ditch Company,,x,20131694455,G,N,2013-12-02,G,,N,,x,,x,37.205580,-107.752648,G2,Durango,G,Southwest,G1,,x,
Bar Nothing Ranch Mutual Ditch And Reservoir Company,BarNothingRanchMutualDRC,G,19891088103,G,N,1989-08-22,G,,N,,x,,x,38.038663,-104.447772,G2,Avondale,G,Arkansas,G1,,x,
Barnett Irrigation Pipeline Company,BarnettIrrigationPC,G,19971166913,G,N,1997-10-17,G,2005-03-31,G,,x,,x,39.048839,-108.496935,G2,Grand Junction,G,Colorado,G1,,x,
Barrows Lateral Ditch Company,BarrowsLDC,G,19871095448,G,N,1932-07-21,G,,N,,x,,x,,,x,,x,,x,,x,
Base Line Land And Reservoir Company,BaseLineLandRC,G,19871038948,G,N,1904-07-08,G,,N,,x,,x,39.987457,-105.089983,G2,Lafayette,G,South Platte,,,x,
Basin Ditch Company,BasinDC,G,20071346275,G,N,2007-07-27,G,,N,,x,,x,39.432216,-107.181561,G2,Carbondale,G,Colorado,G1,,x,
Battlement Mesa Ditch And Reservoir Company,BattlementMesaDRC,G,19871038367,G,N,1904-03-18,G,,N,,x,,x,,,x,,x,,x,,x,
Baugh Lateral Ditch And Reservoir Company,BaughLDRC,G,19871059377,G,N,1914-03-16,G,,N,,x,,x,40.204439,-104.974084,G2,Longmont,G,South Platte,G1,,x,
Baxter Ditch Association,BaxterDA,G,20151519192,G,Y,2015-08-12,G,,N,,x,,x,40.487541,-106.835356,G2,Steamboat Springs,G,Yampa,G1,,x,
Bayou Ditch Association,BayouDA,G,19871308054,G,Y,1976-07-22,G,,N,,x,,x,39.780329,-105.126464,G2,Wheat Ridge,G,Metro,G1,,x,
Bear Creek Ditch Company,BearCrkDC,G,19891076644,G,N,1989-07-03,G,,N,,x,,x,37.212117,-106.798888,G2,Pagosa Springs,G,Southwest,G1,,x,
Bear Creek Ridge Ditch Company,BearCrkRidgeDC,G,20001026993,G,N,2000-02-08,G,2006-06-14,G,,x,,x,37.676304,-106.640614,G2,South Fork,G,Rio Grande,G1,,x,
Beaver Creek Ditch Company,BeaverCrkDC,G,19871009248,G,N,1889-02-06,G,,N,,x,,x,40.169842,-103.584670,G2,Rush,G,South Platte,G1,,x,
Beaver Ditch Company,,x,19871004702,G,N,1882-03-08,G,,N,,x,,x,,,x,,x,,x,,x,
Beaver Ditch Company,,x,19871075440,G,N,1922-04-03,G,,N,,x,,x,,,x,,x,,x,,x,
Beaver Farmers Canal And Ditch Company,BeaverFarmersCDC,G,19871009941,G,N,1889-10-11,G,,N,,x,,x,,,x,,x,,x,,x,
"Beaver Park Water, Inc.",BeaverParkWater,G,,x,Y,,x,,N,,x,,x,,,x,Penrose,G,,x,,x,
Beckwith Ditch And Reservoir Company,BeckwithDRC,G,19871055750,G,N,1912-02-16,G,,N,,x,,x,40.146397,-105.114470,G2,Longmont,G,South Platte,G1,,x,
Bee Line Ditch Company,BeeLineDC,G,19871008017,G,N,1887-06-02,G,,N,,x,,x,40.329427,-104.855250,G2,Milliken,G,South Platte,G1,,x,
Beeman Irrigating Ditch And Milling Company,BeemanIDC,G,19871070943,G,N,1878-05-10,G,,N,,x,,x,39.751282,-104.994437,G2,Denver,G,Metro,G1,,x,
Bell Court Lateral Ditch Company,BellCourtLDC,G,19871114295,G,N,1948-03-24,G,,N,,x,,x,,,x,,x,,x,,x,
Bennett And Kerr Extension Ditch Company,BennettKerrExtensionDC,G,19871067580,G,N,1918-06-10,G,,N,,x,,x,,,x,,x,,x,,x,
Bent County Reservoir Company,BentCountyRC,G,19871043594,G,N,1906-11-09,G,,N,,x,,x,,,x,,x,,x,,x,
Bergen Ditch & Reservoir Company,BergenDRC,G,19871006928,G,N,1885-06-09,G,,N,,x,,x,39.547317,-104.939304,G2,Highlands Ranch,G,Metro,G1,,x,
Berkeley Mutual Ditch Company,BerkeleyMutualDC,G,19871079125,G,N,1924-03-06,G,,N,,x,,x,,,x,,x,,x,,x,
Berthoud-Gateway Park Irrigation Company,BerthoudGatewayParkIC,G,20041208285,G,N,2004-06-09,G,,N,,x,,x,40.407920,-104.796063,G2,Greeley,G,South Platte,G1,,x,
Bess Girl Ditch Company,BessGirlDC,G,19871429905,G,Y,1981-03-25,G,,N,,x,,x,37.449868,-107.194989,G2,Pagosa Springs,G,Southwest,G1,,x,
Bessemer Ditch Lateral 20 Users' Association,BessemerDitchLateral20UA,G,19961044227,G,N,1996-04-01,G,,N,,x,,x,38.264964,-104.611360,G2,Pueblo,G,Arkansas,G1,,x,
Bessemer Irrigating Ditch Company,BessemerIDC,G,19871017330,G,Y,1894-07-25,G,,N,,x,,x,,,x,,x,,x,,x,
Beverly Heights Mutual Ditch And Reservoir Company,BeverlyHeightsMutualDRC,G,19871089960,G,N,1929-05-27,G,,N,,x,,x,,,x,,x,,x,,x,
Big Beaver Reservoir Company,BigBeaverRC,G,19871040416,G,N,1905-04-20,G,,N,,x,,x,,,x,,x,,x,,x,
Big Blue Ditch Company,BigBlueDC,G,19871098930,G,N,1935-02-16,G,,N,,x,,x,,,x,,x,,x,,x,
Big Bottom Ditch Company,BigBottomDC,G,19871000035,G,N,1964-02-13,G,,N,,x,,x,,,x,,x,,x,,x,
Big Cut Lateral And Reservoir Company,BigCutLRC,G,19871011342,G,N,1890-11-28,G,,N,,x,,x,40.428449,-104.924632,G2,Windsor,G,South Platte,,,x,
Big Ditch Company,,x,20121021822,G,N,2012-01-11,G,,N,,x,,x,38.741800,-108.072000,G2,Delta,G,Gunnison,G1,,x,
Big Ditch Company,,x,19871122020,G,N,1952-06-23,G,,N,,x,,x,,,x,,x,,x,,x,
Big Dry Creek Ditch & Reservoir Company,BigDryCrkDRC,G,19871010290,G,N,1890-02-04,G,,N,,x,,x,,,x,,x,,x,,x,
Big Gulch Ditch Company,BigGulchDC,G,19871114126,G,N,1948-02-25,G,,N,,x,,x,,,x,,x,,x,,x,
Big Lateral Ditch Co.,BigLDC,G,19871006712,G,N,1885-02-02,G,,N,,x,,x,40.426653,-105.058410,G2,Loveland,G,South Platte,G1,,x,
Big Stick Ditch Company,BigStickDC,G,19871049594,G,N,1909-05-26,G,,N,,x,,x,,,x,,x,,x,,x,
Big Thompson And Platte River Ditch Company,BigThompsonPlatteRiverDC,G,19871000162,G,Y,1865-11-30,G,,N,,x,,x,40.334887,-104.853179,G2,Milliken,G,South Platte,G1,,x,
Big Thompson Ditch And Manufacturing Company,BigThompsonDMC,G,19871007283,G,N,1886-03-16,G,,N,,x,,x,40.421434,-105.074088,G2,Loveland,G,South Platte,G1,,x,
Bijou Irrigation Company,BijouIC,G,19871029704,G,N,1900-01-26,G,,N,,x,,x,40.248948,-103.798625,G2,Fort Morgan,G,South Platte,G1,,x,
Bijou Lateral #5 Ditch Company,BijouLateralNo5DC,G,19871048776,G,N,1909-02-13,G,,N,,x,,x,40.248948,-103.798625,G2,Fort Morgan,G,South Platte,G1,,x,
Bijou Lateral Ditch Company,BijouLDC,G,19871934043,G,N,1902-02-03,G,,N,,x,,x,40.248948,-103.798625,G2,Fort Morgan,G,South Platte,G1,,x,
Biles Lateral Ditch Company,BilesLDC,G,19871010120,G,N,1900-03-17,G,,N,,x,,x,,,x,,x,,x,,x,
Billings Ditch Company,BillingsDC,G,19871006674,G,N,1884-12-31,G,,N,,x,,x,37.603519,-106.024838,G2,Alamosa,G,Rio Grande,G1,,x,
Bliss Lateral & Irrigation Company,BlissLIC,G,19871948895,G,N,1909-03-04,G,,N,,x,,x,40.615116,-104.749142,G2,Pierce,G,South Platte,G1,,x,
Blue Lake Reservoir Company,BlueLakeRC,G,20081630155,G,N,2008-12-04,G,,N,,x,,x,40.019611,-105.278885,G2,Boulder,G,South Platte,,,x,
Blue Stone Ditch Association,BlueStoneDA,G,19871101023,G,N,1936-09-18,G,,N,,x,,x,39.334423,-108.215082,G2,De Beque,G,Colorado,G1,,x,
Bluff Ditch Association,BluffDA,G,19871109340,G,N,1945-04-27,G,,N,,x,,x,,,x,,x,,x,,x,
Bob Creek Reservoir Lateral Association,BobCrkResLA,G,19871059531,G,N,1914-04-20,G,,N,,x,,x,,,x,,x,,x,,x,
Bohlender Lateral Company,BohlenderLC,G,19871068341,G,N,1918-12-04,G,,N,,x,,x,,,x,,x,,x,,x,
Bollinger And Nelson Ditch Company,BollingerNelsonDC,G,19871118285,G,N,1950-06-01,G,,N,,x,,x,,,x,,x,,x,,x,
Bona Fide Ditch Company,BonaFideDC,G,19871052580,G,Y,1910-08-25,G,,N,,x,,x,38.766616,-108.038411,G2,Delta,G,Gunnison,G1,,x,
Bond Lateral Ditch Company,BondLDC,G,19871002717,G,N,1880-05-17,G,,N,,x,,x,,,x,,x,,x,,x,
Bonus Ditch Company,BonusDC,G,19871048053,G,N,1908-10-16,G,,N,,x,,x,40.173812,-105.169588,G2,Longmont,G,South Platte,G1,,x,
Bord Ditch Company,BordDC,G,19871471142,G,N,1982-04-09,G,,N,,x,,x,37.372138,-108.593041,G2,Cortez,G,Southwest,G1,,x,
Borrego Ditch Company,,x,19871100621,G,N,1936-05-26,G,,N,,x,,x,,,x,,x,,x,,x,
Borrego Ditch Company,,x,19871191842,G,N,1967-02-27,G,,N,,x,,x,,,x,,x,,x,,x,
Boss Ditch Company Inc.,BossDC,G,19901006881,G,N,1990-02-07,G,2006-04-25,G,,x,,x,37.332915,-108.334414,G2,Mancos,G,Southwest,G1,,x,
Boston Farm Lateral Association,BostonFarmLA,G,19871059444,G,N,1914-03-31,G,,N,,x,,x,,,x,,x,,x,,x,
Boulder & Larimer County Irrigation and Manufacturing Ditch,BoulderLarimerCountyIMD,G,,x,Y,,x,,N,,x,,x,,,x,Boulder,G,,x,,x,
Boulder & Left Hand Irrigation Company,,x,19871073587,G,N,1921-03-21,G,,N,,x,,x,39.685592,-104.971324,G2,Denver,G,Metro,G1,,x,
Boulder And Left Hand Irrigation Company,,x,19871000899,G,Y,1973-12-04,G,,N,,x,,x,39.685592,-104.971324,G2,Denver,G,Metro,G1,,x,
Boulder And Weld County Ditch Company,BoulderWeldCountyDC,G,19871055908,G,Y,1912-03-02,G,,N,,x,,x,39.685592,-104.971324,G2,Denver,G,Metro,G1,,x,
Boulder And White Rock Ditch And Reservoir Company,BoulderWhiteRockDRC,G,19871058891,G,N,1913-12-09,G,,N,,x,,x,39.685592,-104.971324,G2,Denver,G,Metro,G1,,x,
"Boulder Land, Irrigation And Power Company",BoulderLandIrrigationPower,G,19871051310,G,N,1910-02-23,G,2009-07-01,G,,x,,x,40.015331,-105.279756,G2,Boulder,G,South Platte,G1,,x,
Bountiful Lateral Ditch Company,BountifulLDC,G,19871045107,G,N,1907-06-15,G,,N,,x,,x,,,x,,x,,x,,x,
"Bowen Ditch Company, Inc.",BowenDC,G,19871107877,G,Y,1943-06-14,G,,N,,x,,x,38.673248,-106.098918,G2,Salida,G,Arkansas,G1,,x,
Box Elder Ditch Company,BoxElderDC,G,19871000913,G,N,1873-12-25,G,,N,,x,,x,38.674700,-108.039000,G2,Delta,G,Gunnison,G1,,x,
Box Elder Lateral Ditch Company,BoxElderLDC,G,19871076020,G,N,1922-07-21,G,,N,,x,,x,,,x,,x,,x,,x,
Box Springs Canal And Reservoir Company,BoxSpgsCRC,G,19871002688,G,N,1901-05-22,G,,N,,x,,x,,,x,,x,,x,,x,
Boxwell Lateral Company,BoxwellLC,G,19871069418,G,N,1919-05-14,G,,N,,x,,x,,,x,,x,,x,,x,
Boyd Irrigation Company,BoydIC,G,19871599277,G,N,1984-12-20,G,,N,,x,,x,40.422378,-104.697284,G2,Greeley,G,South Platte,G1,,x,
Bravo Ditch Company,BravoDC,G,19871015703,G,N,1893-06-01,G,,N,,x,,x,40.711615,-103.099112,G2,Sterling,G,South Platte,G1,,x,
Bright And Brown Lateral Ditch Company,BrightBrownLDC,G,19871007767,G,N,1887-02-08,G,,N,,x,,x,,,x,,x,,x,,x,
Brighton Ditch Company,BrightonDC,G,19871002441,G,Y,1880-02-26,G,,N,,x,,x,40.029507,-104.837565,G2,Fort Lupton,G,South Platte,G1,,x,
Brighton Gardens Reservoir And Ditch Company,BrightonGardensRDC,G,19871038824,G,N,1904-06-09,G,,N,,x,,x,,,x,,x,,x,,x,
Brighton Lateral Ditch Company,BrightonLDC,G,19871951438,G,N,1910-03-08,G,,N,,x,,x,39.978889,-104.817115,G2,Brighton,G,Metro,G1,,x,
Briscoe Irrigation Company,BriscoeIC,G,19871093196,G,N,1931-03-02,G,,N,,x,,x,40.428724,-104.538756,G2,Greeley,G,South Platte,G1,,x,
Brookside Ditch Co.,BrooksideDC,G,19871241934,G,N,1972-05-05,G,,N,,x,,x,39.770034,-105.126393,G2,Wheat Ridge,G,Metro,G1,,x,
Broomfield High Line Ditch Company,BroomfieldHighLineDC,G,19871010367,G,N,1890-02-21,G,,N,,x,,x,,,x,,x,,x,,x,
Broomfield Reservoir And Ditch Company,BroomfieldRDC,G,19871073614,G,N,1921-03-25,G,,N,,x,,x,,,x,,x,,x,,x,
Brown And Baugh Ditch Company,BrownBaughDC,G,19871052014,G,N,1910-05-16,G,,N,,x,,x,39.780371,-105.129966,G2,Wheat Ridge,G,Metro,G1,,x,
Brown Drain Ditch Company,BrownDrainDC,G,19871064690,G,N,1917-04-21,G,,N,,x,,x,,,x,,x,,x,,x,
Brush Lateral Ditch Company,BrushLDC,G,19871010767,G,N,1890-05-31,G,,N,,x,,x,,,x,,x,,x,,x,
Brush Lateral Extension Ditch Company,BrushExtensionLDC,G,19871085756,G,N,1927-05-24,G,,N,,x,,x,,,x,,x,,x,,x,
Buckeye Lateral Ditch Company,BuckeyeLDC,G,19871066688,G,N,1918-02-08,G,,N,,x,,x,,,x,,x,,x,,x,
Buckhorn Highline Ditch Company,BuckhornHighlineDC,G,19871073711,G,N,1921-04-14,G,,N,,x,,x,,,x,,x,,x,,x,
Buckingham Irrigation Company,BuckinghamIC,G,19871133784,G,N,1956-10-05,G,,N,,x,,x,40.376033,-105.125649,G2,Loveland,G,South Platte,G1,,x,
Buffalo Mutual Irrigation Company,BuffaloMutualIC,G,19871117605,G,N,1950-01-27,G,,N,,x,,x,38.051691,-102.122950,G2,Holly,G,Arkansas,G1,,x,
Bull Basin Reservoir Company,BullBasinRC,G,19871071744,G,N,1920-04-23,G,,N,,x,,x,,,x,,x,,x,,x,
Bull Creek Reservoir Canal & Power Company,BullCrkResCanalPower,G,19871034325,G,N,1895-03-07,G,,N,,x,,x,39.175054,-108.075053,G2,Molina,G,Colorado,,,x,
Bull Creek Reservoir Company,BullCrkRC,G,,x,Y,,x,,N,,x,,x,,,x,Molina,G,,x,,x,
Bunyan Lateral Ditch Company,BunyanLDC,G,20121077674,G,N,2012-02-02,G,,N,,x,,x,39.685592,-104.971324,G2,Denver,G,Metro,G1,,x,
Burlington Ditch Reservoir And Land Company,BurlingtonDRC,G,19871007103,G,N,1885-11-12,G,,N,,x,,x,39.985791,-104.790846,G2,Brighton,G,Metro,G1,,x,
Burlington Extension Ditch Company,BurlingtonExtensionDC,G,19871016960,G,N,1894-04-24,G,2001-02-01,G,,x,,x,,,x,,x,,x,,x,
Bushman Ditch Company,BushmanDC,G,19871031711,G,N,1900-12-26,G,,N,,x,,x,,,x,,x,,x,,x,
Butte Ditch Company,ButteDC,G,19871060679,G,N,1915-02-25,G,,N,,x,,x,,,x,,x,,x,,x,
Butte Irrigating And Milling Company,ButteIC,G,19871002518,G,N,1880-03-20,G,,N,,x,,x,40.163019,-105.105514,G2,Longmont,G,South Platte,G1,,x,
Cache A La Poudre Irrigating Ditch Company,CacheLaPoudreIDC,G,19871015380,G,N,1893-03-27,G,,N,,x,,x,,,x,,x,,x,,x,
Cache La Poudre Reservoir Company,CacheLaPoudreRC,G,19871013307,G,N,1892-03-17,G,,N,,x,,x,40.482582,-104.698750,G2,Lucerne,G,South Platte,,,x,
Cactus Ditch LLC,CactusDC,G,20081089048,G,N,2008-02-12,G,,N,,x,,x,39.546035,-107.322938,G2,Glenwood Springs,G,Colorado,G1,,x,
Caddoa Reservoir Association,CaddoaRA,G,19871097274,G,N,1933-12-19,G,,N,,x,,x,,,x,,x,,x,,x,
Cadez Lateral Ditch Association,CadezLDA,G,20011166672,G,N,2001-08-24,G,2003-06-01,G,,x,,x,,,x,,x,,x,,x,
Camelot Subdivision Drainage And Irrigation Company,CamelotSubdivisionDrainageIC,G,19951032696,G,N,1995-03-13,G,2000-01-01,G,,x,,x,,,x,,x,,x,,x,
Canon City And Oil Creek Ditch Company,CanonCityOilCrkDC,G,19871001603,G,Y,1878-01-24,G,,N,,x,,x,38.443296,-105.223560,G2,Canyon City,G,Arkansas,G1,,x,
Canon City Hydraulic And Irrigating Ditch Company,,x,19871001639,G,Y,1878-02-28,G,,N,,x,,x,38.450507,-105.226962,G2,Canyon City,G,Arkansas,G1,,x,
Canon Ditch Company,,x,19871096729,G,N,1933-07-05,G,,N,,x,,x,,,x,,x,,x,,x,
Canon Heights Irrigation And Reservoir Company,,x,19871069907,G,Y,1919-08-06,G,,N,,x,,x,38.475630,-105.242745,G2,Canon City,G,Arkansas,G1,,x,
Canyon Creek Irrigation Company,,x,19871350254,G,N,1978-06-19,G,1988-01-01,G,,x,,x,39.103349,-108.679182,G2,Grand Junction,G,Colorado,G1,,x,
Canyon Creek Number Two Irrigation Company,,x,19871397168,G,N,1980-04-04,G,,N,,x,,x,39.105998,-108.678294,G2,Grand Junction,G,Colorado,G1,,x,
Capitol Hill Lateral Ditch Association,,x,19871038946,G,N,1904-07-07,G,,N,,x,,x,,,x,,x,,x,,x,
Capulin Ditch Company,,x,20081545527,G,N,2008-10-14,G,,N,,x,,x,37.259890,-105.903715,G2,Sanford,G,Rio Grande,G1,,x,
Carl Smith Reservoir Company,,x,19871112819,G,N,1947-06-09,G,,N,,x,,x,,,x,,x,,x,,x,
Carlson Ditch Co.,,x,19871275163,G,N,1974-07-05,G,2003-05-01,G,,x,,x,,,x,,x,,x,,x,
Carmel Drainage Ditch Users Association,,x,19871618200,G,N,1985-04-29,G,,N,,x,,x,37.412862,-105.946928,G2,Alamosa,G,Rio Grande,G1,,x,
Carmel Reservoir Company,,x,19871136214,G,N,1957-06-17,G,,N,,x,,x,,,x,,x,,x,,x,
"Carpenter And Mitchell Ditch Company, Inc.",,x,20041375228,G,N,2004-10-26,G,,N,,x,,x,37.386214,-108.352735,G2,Mancos,G,Southwest,G1,,x,
Carson Lateral Ditch Company,,x,19871112357,G,N,1902-03-20,G,,N,,x,,x,,,x,,x,,x,,x,
Castle Ditch Company,,x,19901104059,G,N,1990-11-29,G,,N,,x,,x,39.681430,-106.842556,G2,Eagle,G,Colorado,G1,,x,
Catholic Lateral Ditch Company,,x,19871030121,G,N,1961-08-10,G,,N,,x,,x,,,x,,x,,x,,x,
C-C Ditch Company,,x,19871016011,G,N,1949-03-03,G,,N,,x,,x,,,x,,x,,x,,x,
Cedar Avenue Ditch Company,,x,19871329933,G,N,1977-07-25,G,,N,,x,,x,39.087221,-108.563811,G2,Grand Junction,G,Colorado,G1,,x,
"Cedar Canon, Iron Springs Ditch And Reservoir Comp",,x,19871079985,G,N,1924-08-18,G,,N,,x,,x,38.643607,-107.570015,G2,Crawford,G,Gunnison,G1,,x,
Cedar Hill Lateral Ditch And Pipe Line Company,,x,19871094869,G,N,1932-03-02,G,,N,,x,,x,38.862147,-107.595371,G2,Paonia,G,Gunnison,G1,,x,
Cedar Mesa Ditch Company,,x,19901078043,G,N,1990-07-31,G,,N,,x,,x,38.848841,-107.901984,G2,Eckert,G,Gunnison,G1,,x,
Cedar Mesa Reservoir Company,,x,19871027260,G,N,1898-10-13,G,,N,,x,,x,38.900829,-107.933949,G2,Cedaredge,G,Gunnison,,,x,
Celadon Ii Ditch Company,,x,20011035838,G,N,2001-02-20,G,2015-08-31,G,,x,,x,37.276285,-107.878676,G2,Durango,G,Southwest,G1,,x,
"Cement Lateral Of Prairie Ditch, Inc.",,x,19871119928,G,N,1951-04-13,G,,N,,x,,x,,,x,,x,,x,,x,
Centenial Irrigating Ditch Company,,x,19871005546,G,N,1883-03-19,G,,N,,x,,x,,,x,,x,,x,,x,
Centennial Irrigating Ditch Company,,x,20171075914,G,N,2017-01-26,G,,N,,x,,x,37.524416,-105.965716,G2,Alamosa,G,Rio Grande,G1,,x,
Cerro Ditch Company,,x,20011229777,G,N,2001-12-05,G,,N,,x,,x,37.162481,-105.376802,G2,Chama,G,Rio Grande,G1,,x,
Chace Lateral Ditch Company,,x,19871047724,G,N,1908-08-14,G,,N,,x,,x,,,x,,x,,x,,x,
Charlo Mutual Ditch Company,,x,20031310433,G,N,2003-09-29,G,,N,,x,,x,39.234027,-108.754809,G2,Loma,G,Colorado,G1,,x,
"Cheap Ditch Company, LLC",,x,20051425529,G,N,2005-11-14,G,,N,,x,,x,39.086599,-108.575667,G2,Grand Junction,G,Colorado,G1,,x,
Chenowith Lateral Ditch Company,,x,19871074071,G,N,1921-06-27,G,,N,,x,,x,,,x,,x,,x,,x,
Cherry Creek Mutual Irrigation Company,,x,19871081454,G,N,1925-04-21,G,,N,,x,,x,,,x,,x,,x,,x,
Chilcott Ditch Company,,x,19871000942,G,N,1874-02-14,G,,N,,x,,x,39.097829,-104.860681,G2,Monument,G,Arkansas,G1,,x,
Childs Ditch Company,,x,19871073908,G,N,1921-05-19,G,,N,,x,,x,,,x,,x,,x,,x,
Chilili Ditch Company,,x,19871084674,G,N,1926-12-06,G,,N,,x,,x,,,x,,x,,x,,x,
Chipperfield Lane Ditch Incorporated,,x,19971039104,G,N,1997-03-13,G,,N,,x,,x,39.489148,-107.645767,G2,Silt,G,Colorado,G1,,x,
Chivington Irrigation Company,,x,19871062491,G,N,1916-04-04,G,,N,,x,,x,,,x,,x,,x,,x,
Church Ditch Company,ChurchDC,G,19871374701,G,Y,1979-06-04,G,2005-03-25,G,,x,,x,39.909588,-104.988389,G2,Northglenn,G,Metro,G1,,x,
Cimarron Canal And Reservoir Company,,x,19871345297,G,Y,1978-04-13,G,,N,,x,,x,38.477184,-107.873757,G2,Montrose,G,Gunnison,,,x,
Citizens Animas Irrigation Company,,x,20161368767,G,N,2016-05-25,G,,N,,x,,x,37.065800,-107.883037,G2,Durango,G,Southwest,G1,,x,
City View Irrigation Company,,x,19871079493,G,N,1924-05-03,G,,N,,x,,x,,,x,,x,,x,,x,
Clark Lateral Ditch Company,,x,19871052707,G,N,1910-09-19,G,,N,,x,,x,,,x,,x,,x,,x,
"Clayton Ditch Company, Inc.",,x,20031128913,G,N,2003-04-22,G,,N,,x,,x,37.272497,-107.101199,G2,Pagosa Springs,G,Southwest,G1,,x,
Clear Lake Reservoir And Lateral Irrigation Compan,,x,19871053649,G,N,1911-02-07,G,,N,,x,,x,,,x,,x,,x,,x,
Clennon Lateral Ditch Company,ClennonLDC,G,19871051792,G,N,1910-04-16,G,,N,,x,,x,40.245829,-104.953079,G2,Platteville,G,South Platte,G1,,x,
Clinton Ditch & Reservoir Company,ClintonDRC,G,19921052130,G,N,1992-05-21,G,,N,,x,,x,39.925399,-105.115113,G2,Broomfield,G,South Platte,G1,,x,
Clover Basin Irrigation Company,CloverBasinIC,G,19871083835,G,N,1926-06-03,G,,N,,x,,x,40.146397,-105.114470,G2,Longmont,G,South Platte,G1,,x,
Clover Meadow Lateral Ditch Company,,x,20031319328,G,N,2003-10-08,G,,N,,x,,x,38.170378,-102.650547,G2,Lamar,G,Arkansas,G1,,x,
Club View Estates Irrigation Company,,x,19871168370,G,N,1963-08-21,G,,N,,x,,x,,,x,,x,,x,,x,
Coal Creek Irrigation Company,,x,19871066644,G,N,1918-02-01,G,,N,,x,,x,,,x,,x,,x,,x,
Cole Ditch Company,ColeDC,G,19871018299,G,N,1895-03-09,G,,N,,x,,x,40.393013,-104.730679,G2,Greeley,G,South Platte,G1,,x,
Cole Reservoir Company,,x,19871149881,G,N,1960-09-07,G,,N,,x,,x,38.845800,-107.978000,G2,Eckert,G,Gunnison,,,x,
Coleman Ditch And Reservoir Company,,x,19871039305,G,N,1904-09-27,G,,N,,x,,x,,,x,,x,,x,,x,
Collier Ditch Company,,x,19871024675,G,N,1897-05-20,G,,N,,x,,x,38.234005,-104.327245,G2,Boone,G,Arkansas,G1,,x,
Collier Ditch Company,,x,20071164429,G,N,2007-04-03,G,,N,,x,,x,39.089552,-108.535020,G2,Grand Junction,G,Colorado,G1,,x,
Collins Ditch Company,,x,19871930739,G,N,1900-06-18,G,,N,,x,,x,,,x,,x,,x,,x,
Colorado Agricultural Ditch Company,ColoradoAgDC,G,19871000841,G,Y,1873-06-06,G,,N,,x,,x,39.921906,-104.977299,G2,Thornton,G,Metro,G1,,x,
Colorado And Kansas Canal And Reservoir Company,,x,19871011415,G,N,1890-12-13,G,,N,,x,,x,,,x,,x,,x,,x,
Colorado Canal Company,,x,,x,Y,,x,,N,,x,,x,,,x,Ordway,G,,x,,x,
Colorado Eastern Irrigation Land And Reservoir,,x,19871010458,G,N,1890-03-10,G,,N,,x,,x,,,x,,x,,x,,x,
Colorado High Country Irrigation Company,,x,20011140246,G,N,2001-07-16,G,2004-12-31,G,,x,,x,39.829320,-107.956039,G2,Meeker,G,Yampa,G1,,x,
Colorado Water Protective and Development Association,,x,,x,Y,,x,,N,,x,,x,,,x,La Junta,G,,x,,x,
"Columbine East Irrigation Company, LLC",,x,20011235747,G,N,2001-12-13,G,,N,,x,,x,38.481001,-107.841592,G2,Montrose,G,Gunnison,G1,,x,
Columbine Lateral Ditch Company,,x,19871038546,G,N,1904-04-18,G,,N,,x,,x,,,x,,x,,x,,x,
Commonwealth Irrigation Company,,x,19871390617,G,N,1980-01-28,G,,N,,x,,x,37.468962,-105.867117,G2,Alamosa,G,Rio Grande,G1,,x,
Community Ditch And Reservoir Company,,x,19871039494,G,N,1885-06-06,G,,N,,x,,x,,,x,,x,,x,,x,
Conejos And San Rafael Ditch Company,,x,19871040534,G,N,1905-05-09,G,,N,,x,,x,,,x,,x,,x,,x,
Consolidated Christian-Connors Lateral Ditch Company,,x,20031125163,G,N,2003-04-18,G,,N,,x,,x,,,x,,x,,x,,x,
Consolidated Ditch And Headgate Company,,x,19871051686,G,N,1910-04-04,G,,N,,x,,x,,,x,,x,,x,,x,
Consolidated Ditches Company Of Water District No.,,x,19871034307,G,N,1902-03-13,G,,N,,x,,x,,,x,,x,,x,,x,
Consolidated Hillsborough Ditch Company,ConsolidatedHillsboroughDC,G,19871027361,G,N,1898-11-12,G,,N,,x,,x,40.335838,-104.913300,G2,Johnstown,G,South Platte,G1,,x,
Consolidated Home Supply Ditch,,x,,x,Y,,x,,N,,x,,x,,,x,Berthoud,G,,x,,x,
Consolidated Home Supply Ditch And Reservoir Company,ConsolidatedHomeSupplyDRC,G,19871004185,G,N,1882-09-15,G,,N,,x,,x,40.308317,-105.081092,G2,Berthoud,G,South Platte,G1,,x,
Consolidated Juchem Ditch And Reservoir Company,ConsolidatedJuchemDRC,G,19871097361,G,Y,1934-01-05,G,,N,,x,,x,39.817809,-105.054800,G2,Arvada,G,Metro,G1,,x,
Consolidated Lateral Ditch Company,,x,19871035918,G,N,1903-01-08,G,,N,,x,,x,,,x,,x,,x,,x,
Consolidated Mutual Water Company,,x,,x,Y,,x,,N,,x,,x,,,x,Lakewood,G,,x,,x,
Consolidated Reservoir II Inc.,,x,,x,Y,,x,,N,,x,,x,,,x,Aspen,G,,x,,x,
Continental Reservoir Company,,x,19871109613,G,N,1945-08-07,G,,N,,x,,x,,,x,,x,,x,,x,
Cooke Irrigation Company,CookeIC,G,19871040014,G,N,1905-02-15,G,,N,,x,,x,40.482582,-104.698750,G2,Lucerne,G,South Platte,G1,,x,
Coon Creek Reservoir And Ditch Company,,x,19871078878,G,N,1924-01-29,G,,N,,x,,x,39.086051,-108.588949,G2,Grand Junction,G,Colorado,G1,,x,
Costilla Ditch Company,,x,19871007345,G,N,1916-04-18,G,,N,,x,,x,,,x,,x,,x,,x,
Cottage Place Lateral Ditch Company,,x,19871062528,G,N,1916-04-18,G,,N,,x,,x,,,x,,x,,x,,x,
Cottonwood Ditch Company,,x,19871000646,G,N,1870-11-01,G,,N,,x,,x,,,x,,x,,x,,x,
Cottonwood Lakes Reservoir Company,,x,19871018079,G,N,1895-02-02,G,,N,,x,,x,,,x,,x,,x,,x,
Crater Reservoir Company,,x,19871067605,G,N,1918-06-14,G,,N,,x,,x,,,x,,x,,x,,x,
Crawford Clipper Ditch Company,,x,19871007116,G,N,1885-11-23,G,,N,,x,,x,38.722817,-107.650932,G2,Crawford,G,Gunnison,G1,,x,
Crawford Lateral Ditch Company,,x,19871080162,G,N,1924-09-17,G,,N,,x,,x,,,x,,x,,x,,x,
Crowley Lateral Ditch Company,,x,19871028727,G,N,1899-08-18,G,,N,,x,,x,,,x,,x,,x,,x,
"Crystal Creek Ditch Company, Inc.",,x,19931113471,G,N,1993-10-12,G,,N,,x,,x,37.379641,-108.271002,G2,Mancos,G,Southwest,G1,,x,
"Crystal Spring, Ditch And Pipeline Corp.",,x,19671195797,G,N,1967-08-31,G,,N,,x,,x,39.562650,-107.345139,G2,Glenwood Springs,G,Colorado,G1,,x,
Cuchara River Ditch Company,,x,20051067747,G,N,2005-02-24,G,,N,,x,,x,37.428290,-105.045951,G2,La Veta,G,Arkansas,G1,,x,
Culver Irrigation Company,CulverIC,G,19871049720,G,N,1909-06-16,G,,N,,x,,x,39.685592,-104.971324,G2,Denver,G,Metro,G1,,x,
Culver Lateral Ditch Company,CulverLDC,G,19871072841,G,N,1920-11-12,G,,N,,x,,x,39.685592,-104.971324,G2,Denver,G,Metro,G1,,x,
Currant Creek Ditch And Reservoir Company,,x,19871041102,G,N,1905-09-14,G,,N,,x,,x,,,x,,x,,x,,x,
D Road Mutual Irrigation Company,,x,19971011469,G,Y,1997-01-24,G,,N,,x,,x,39.055098,-108.537880,G2,Grand Junction,G,Colorado,G1,,x,
Daisy Ditch Company,,x,19871153954,G,N,1961-05-10,G,,N,,x,,x,,,x,,x,,x,,x,
Dallas Ditch Company,,x,19871133065,G,N,1956-07-11,G,,N,,x,,x,38.156521,-107.783129,G2,Ridgway,G,Gunnison,G1,,x,
Darlington Ditch Company,,x,19871018124,G,N,1950-05-02,G,,N,,x,,x,,,x,,x,,x,,x,
Darnell Lateral Ditch Company,DarnellLDC,G,20111021920,G,N,2011-01-12,G,,N,,x,,x,40.493100,-104.881834,G2,Windsor,G,South Platte,G1,,x,
Dave Miller Ditch Company,,x,,x,Y,,x,,N,,x,,x,,,x,Lyons,G,,x,,x,
Dave Miller Mutual Ditch Company,DaveMillerMutualDC,G,19871331264,G,N,1977-08-18,G,,N,,x,,x,40.244971,-105.289931,G2,Lyons,G,South Platte,G1,,x,
Davidson Ditch & Reservoir Company,DavidsonDRC,G,19871070153,G,N,1919-09-17,G,,N,,x,,x,39.685592,-104.971324,G2,Denver,G,Metro,G1,,x,
Davidson Ditch Company,,x,19871001177,G,N,1875-08-10,G,,N,,x,,x,,,x,,x,,x,,x,
Davidson High Line Lateral Ditch Company,DavidsonHighLineLDC,G,19871018289,G,N,1895-03-08,G,,N,,x,,x,39.685592,-104.971324,G2,Denver,G,Metro,G1,,x,
Davis Brothers Ditch Company,,x,19871019236,G,N,1895-10-28,G,,N,,x,,x,,,x,,x,,x,,x,
Davis Ditch LLC,,x,20151074720,G,N,2015-01-30,G,2016-05-12,G,,x,,x,37.497913,-108.705810,G2,Lewis,G,Southwest,G1,,x,
"Davis Ditching, Inc.",,x,19951107057,G,N,1995-08-28,G,2002-06-01,G,,x,,x,,,x,,x,,x,,x,
Davy Ditch And Reservoir Company,,x,19871067265,G,N,1918-04-20,G,,N,,x,,x,,,x,,x,,x,,x,
De Weese-Dye Ditch And Reservoir Company,,x,19871019508,G,N,1895-12-03,G,,N,,x,,x,38.420173,-105.199185,G2,Canyon City,G,Arkansas,G1,,x,
Deep Creek Reservoir Company,,x,19871001089,G,N,1909-03-15,G,,N,,x,,x,,,x,,x,,x,,x,
"Deep Cut Irrigating Ditch, Inc.",,x,19871132059,G,N,1956-04-02,G,,N,,x,,x,,,x,,x,,x,,x,
"Deer Foot Land, Stock And Ditch Company",,x,19871009646,G,N,1889-06-15,G,,N,,x,,x,,,x,,x,,x,,x,
Deer Trail Ditch Company,DeerTrailDC,G,19871118077,G,N,1950-04-24,G,,N,,x,,x,39.747956,-104.989046,G2,Denver,G,Metro,G1,,x,
Defranco Ditch Co.,,x,20041354512,G,N,2004-10-12,G,,N,,x,,x,39.164238,-108.685402,G2,Fruita,G,Colorado,G1,,x,
Del Rio Irrigating Ditch Company,,x,19871963823,G,N,1916-12-16,G,,N,,x,,x,,,x,,x,,x,,x,
Delta Canal Company,,x,19871010147,G,N,1889-12-26,G,,N,,x,,x,,,x,,x,,x,,x,
Delta Chief Ditch Company,,x,19871006517,G,N,1884-08-23,G,,N,,x,,x,,,x,,x,,x,,x,
Delta Irrigation Company,DeltaIC,G,19871012242,G,N,1891-06-27,G,,N,,x,,x,40.398730,-104.639515,G2,Greeley,G,South Platte,G1,,x,
"Demmel Lake Estates Homeowners Irrigation Association, LLC",DemmelLakeEstatesHomeownersIA,G,20151674894,G,N,2015-10-22,G,,N,,x,,x,40.708380,-105.038512,G2,Wellington,G,South Platte,G1,,x,
Denio & Taylor Mill Ditch Company,DenioTaylorMillDC,G,19871071481,G,N,1920-03-18,G,,N,,x,,x,39.685592,-104.971324,G2,Denver,G,Metro,G1,,x,
Denver-View Reservoir And Irrigation Company,,x,19871032502,G,N,1901-04-22,G,,N,,x,,x,,,x,,x,,x,,x,
Desert Land Reservoir & Canal Company,,x,19871046726,G,N,1908-03-13,G,,N,,x,,x,,,x,,x,,x,,x,
Desert Reservoir Company,DesertRC,G,19871090477,G,N,1929-08-30,G,,N,,x,,x,40.017567,-105.277373,G2,Boulder,G,South Platte,,,x,
DeWeese-Dye Ditch and Reservoir Company,,x,,x,Y,,x,,N,,x,,x,,,x,Canon City,G,,x,,x,
Dirty Ditch Farm LLC,,x,20151150298,G,N,2015-02-28,G,,N,,x,,x,38.575091,-106.036859,G2,Salida,G,Arkansas,G1,,x,
District 64 Reservoir Company,Distric64RC,G,20061477924,G,N,2006-11-22,G,,N,,x,,x,40.633146,-103.200973,G2,Sterling,G,South Platte,,,x,
Ditch On 40 LLC,,x,20131197593,G,N,2013-03-27,G,,N,,x,,x,39.917818,-105.784704,G2,Winter Park,G,Colorado,G1,,x,
Divide Canal And Reservoir Company,DivideCRC,G,19871038175,G,N,1904-02-16,G,,N,,x,,x,40.526291,-104.712969,G2,Eaton,G,South Platte,,,x,
Divide Creek High Line Ditch Company,,x,19871031226,G,N,1900-09-17,G,,N,,x,,x,,,x,,x,,x,,x,
Divide Drainage And Irrigation Company,,x,19871009832,G,N,1889-08-30,G,,N,,x,,x,,,x,,x,,x,,x,
Divide Lateral Ditch Company,,x,19871081939,G,N,1925-07-13,G,,N,,x,,x,,,x,,x,,x,,x,
Divide South Water Users Association And Ditch Company,DivideSouthWUADC,G,19871257741,G,N,1973-05-15,G,,N,,x,,x,38.909609,-105.154352,G2,Divide,G,Metro,G1,,x,
Dixon Canon Ditch And Reservoir Company,DixonCanonDRC,G,19871579574,G,N,1984-07-12,G,,N,,x,,x,40.582935,-105.106730,G2,Fort Collins,G,South Platte,G1,,x,
Dog Fish Lake Reservoir Company,,x,19871036116,G,N,1903-02-04,G,,N,,x,,x,,,x,,x,,x,,x,
Dominquez Reservoir Company LLC,DominquezRC,G,19961141567,G,N,1996-10-30,G,2003-04-17,G,,x,,x,39.658494,-104.870367,G2,Denver,G,Metro,,,x,
Don Quixote Ditch Company,,x,19871020633,G,N,1924-12-17,G,,N,,x,,x,,,x,,x,,x,,x,
Dry Creek Lateral Ditch Company,,x,19871003008,G,N,1880-10-01,G,,N,,x,,x,40.304108,-105.146758,G2,Berthoud,G,South Platte,G1,,x,
Dry Creek Lateral Ditch Company,,x,20021302173,G,N,2002-10-30,G,2007-12-24,G,,x,,x,40.304108,-105.146758,G2,Berthoud,G,South Platte,G1,,x,
Dry Creek No. 2. Ditch Company,DryCrkNo2DC,G,19871017472,G,N,1894-09-08,G,,N,,x,,x,39.959845,-105.119544,G2,Louisville,G,South Platte,G1,,x,
Dry Creek Valley Ditch Company,,x,19871008907,G,N,1885-05-29,G,,N,,x,,x,,,x,,x,,x,,x,
Dry Creek-Davidson Ditch Company,DryCrkDavidsonDC,G,19871184098,G,N,1965-12-28,G,,N,,x,,x,39.977763,-105.131930,G2,Louisville,G,South Platte,G1,,x,
Duke Ditch Company,,x,19871071560,G,N,1920-03-29,G,,N,,x,,x,38.799707,-107.719503,G3,Hotchkiss,G,Gunnison,G1,,x,
Dulton Extension Ditch And Reservoir Company,,x,19871064379,G,N,1917-03-13,G,,N,,x,,x,,,x,,x,,x,,x,
Durkee Ditch Company,,x,19871034933,G,N,1902-07-03,G,,N,,x,,x,,,x,,x,,x,,x,
Duroux Ditch Company,,x,19901069419,G,N,1990-06-21,G,,N,,x,,x,39.545969,-107.325551,G2,Glenwood Springs,G,Colorado,G1,,x,
Dyer Fork Ditch Company,,x,19871973198,G,N,1921-01-19,G,,N,,x,,x,,,x,,x,,x,,x,
Eagle Ditch & Reservoir Company,,x,19871048117,G,N,1908-10-29,G,,N,,x,,x,,,x,,x,,x,,x,
Eagle Ditch Company,,x,19871001450,G,N,1877-04-18,G,,N,,x,,x,,,x,,x,,x,,x,
Eagle Park Reservoir Company,,x,19981086031,G,N,1998-05-08,G,,N,,x,,x,39.504829,-106.052253,G2,Breckenridge,G,Colorado,,,x,
Eagle Reservoirs Water Company LLC,EagleReservoirsWC,G,19981190759,G,N,1998-10-26,G,2005-06-30,G,,x,,x,39.812092,-105.003416,G2,Denver,G,Metro,,,x,
"Eaklor Ditch, Co.",EaklorDC,G,20171126962,G,N,2017-04-30,G,,N,,x,,x,39.589607,-104.952675,G2,Centennial,G,Metro,G1,,x,
"Earl Adams Ditch Co., Inc.",,x,19871759004,G,N,1987-11-09,G,1996-09-01,G,,x,,x,37.265264,-106.991681,G2,Pagosa Springs,G,Southwest,G1,,x,
East Boulder Ditch Company,EastBoulderDC,G,19871000125,G,Y,1865-06-30,G,,N,,x,,x,39.751282,-104.994437,G2,Denver,G,Metro,G1,,x,
East Ditch Company,,x,19871128228,G,N,1955-03-04,G,,N,,x,,x,,,x,,x,,x,,x,
East Excelsior Irrigation Company,,x,20031240849,G,N,2003-07-28,G,,N,,x,,x,38.266599,-104.399880,G2,Pueblo,G,Arkansas,G1,,x,
East Fork Mutual Irrigation Company,,x,19871330713,G,N,1977-08-08,G,,N,,x,,x,40.171037,-106.301452,G2,Kremmling,G,Colorado,G1,,x,
East Fruita Lateral Ditch Company,,x,19871079408,G,N,1924-04-23,G,,N,,x,,x,,,x,,x,,x,,x,
East Huff Ditch Lca,,x,20131014900,G,N,2013-01-07,G,,N,,x,,x,38.737200,-108.043000,G2,Delta,G,Gunnison,G1,,x,
East Lateral Ditch Company,,x,19871082932,G,N,1926-01-11,G,,N,,x,,x,,,x,,x,,x,,x,
East Mancos Highline Ditch Company,,x,20041017890,G,N,2004-01-15,G,,N,,x,,x,37.340317,-108.267896,G2,Mancos,G,Southwest,G1,,x,
East Marble Extension Of The Clarence Ditch Company,EastMarbleExtensionClarenceDC,G,19871464315,G,N,1982-02-08,G,,N,,x,,x,39.250089,-104.971990,G2,Larkspur,G,Metro,G1,,x,
East Mesa Ditch Company,,x,19871045087,G,N,1907-06-13,G,,N,,x,,x,,,x,,x,,x,,x,
East Otto Ditch Company,,x,19871163328,G,N,1962-10-24,G,,N,,x,,x,,,x,,x,,x,,x,
East Side Lateral Ditch Company,,x,19871046306,G,N,1908-01-18,G,,N,,x,,x,,,x,,x,,x,,x,
East Twin Lakes Ditches And Water Works,,x,19991010001,G,N,1999-01-19,G,,N,,x,,x,39.077204,-106.289536,G2,Twin Lakes,G,Arkansas,G1,,x,
Eastbury Subdivision Irrigation Company,,x,19871332662,G,N,1977-09-15,G,,N,,x,,x,39.085852,-108.498228,G2,Grand Junction,G,Colorado,G1,,x,
Eastdale Mutual Ditch And Reservoir Company,,x,19871150173,G,Y,1960-09-27,G,,N,,x,,x,,,x,,x,,x,,x,
Eaton-Law Reservoir Company,EatonLawRC,G,19871395316,G,N,1980-03-17,G,,N,,x,,x,40.523564,-104.862083,G2,Windsor,G,South Platte,,,x,
Eby Creek - Eagle River Ditch Company,,x,20031057087,G,N,2003-02-20,G,,N,,x,,x,39.655036,-106.850944,G2,Eagle,G,Colorado,G1,,x,
Echo Ditch Company,,x,19871234101,G,N,1971-09-21,G,,N,,x,,x,37.198890,-106.961114,G2,Pagosa Springs,G,Southwest,G1,,x,
Eisele Lateral Ditch Company,EiseleLDC,G,19871199028,G,N,1968-03-11,G,,N,,x,,x,39.685592,-104.971324,G2,Denver,G,Metro,G1,,x,
El Coda Ditch Company,,x,19871099094,G,N,1935-03-23,G,,N,,x,,x,,,x,,x,,x,,x,
Elk Creek Ditch Company,,x,19961163859,G,N,1996-12-17,G,,N,,x,,x,39.165644,-107.247337,G2,Redstone,G,Colorado,G1,,x,
"Elk Creek Ditch No. 2, LLC",,x,20171570745,G,N,2017-07-26,G,,N,,x,,x,39.249549,-106.868704,G2,Snowmass,G,Colorado,G1,,x,
Elk Ridge Estates Irrigation Company,,x,20091281885,G,N,2009-05-22,G,,N,,x,,x,38.526436,-107.721149,G2,Montrose,G,Gunnison,G1,,x,
Ellington Ditch Company,,x,19871063609,G,N,1916-11-03,G,,N,,x,,x,,,x,,x,,x,,x,
"Elliott Creek Irrigation Company, LLC",,x,19981053026,G,N,1998-03-20,G,,N,,x,,x,40.046941,-106.331245,G2,Kremmling,G,Colorado,G1,,x,
Elm Avenue Lateral Ditch Company,,x,19871112904,G,N,1947-06-24,G,,N,,x,,x,,,x,,x,,x,,x,
Elmwood Lateral Ditch Company,,x,19871165725,G,N,1963-04-01,G,,N,,x,,x,,,x,,x,,x,,x,
Elsie Lateral Ditch Company,,x,19871086129,G,N,1927-08-09,G,,N,,x,,x,,,x,,x,,x,,x,
Em Reservoir LLC,EmRes,G,20031286542,G,N,2003-09-05,G,2004-12-23,G,,x,,x,39.650096,-104.882182,G2,Denver,G,Metro,,,x,
Emigh Lateral Ditch Company,EmighLDC,G,19871073860,G,N,1921-05-07,G,,N,,x,,x,40.586038,-105.081107,G2,Fort Collins,G,South Platte,G1,,x,
Encanto Ditch Company,,x,19901048265,G,N,1990-05-14,G,,N,,x,,x,39.161201,-108.722318,G2,Fruita,G,Colorado,G1,,x,
Enlarged Southside Irrigation Ditch Company,,x,19871078742,G,N,1924-01-07,G,,N,,x,,x,37.183366,-104.487337,G2,Trinidad,G,Arkansas,G1,,x,
Enterprise Ditch Company,,x,19871165271,G,N,1963-03-05,G,,N,,x,,x,,,x,,x,,x,,x,
Enterprise Irrigating Ditch Company,EnterpriseIDC,G,19871075417,G,Y,1898-12-20,G,,N,,x,,x,39.751282,-104.994437,G2,Denver,G,Metro,G1,,x,
Ephraim Ditch Company,,x,19871005487,G,N,1883-02-27,G,,N,,x,,x,,,x,,x,,x,,x,
Erie Coal Creek Ditch & Reservoir Company,ErieCoalCrkDRC,G,19871016745,G,Y,1894-03-06,G,,N,,x,,x,39.685592,-104.971324,G2,Denver,G,Metro,G1,,x,
Erkenbeck Lateral Ditch Company,ErkenbeckLDC,G,19871053858,G,N,1911-03-09,G,,N,,x,,x,40.248118,-104.912298,G2,Platteville,G,South Platte,G1,,x,
Evergreen Heights Ditch & Reservoir Company,,x,19871075586,G,N,1922-04-29,G,,N,,x,,x,39.111535,-108.560197,G2,Grand Junction,G,Colorado,G1,,x,
Evett Lateral Ditch Company,,x,19871058250,G,N,1913-06-12,G,,N,,x,,x,,,x,,x,,x,,x,
Excelsior Ditch Company,,x,19871035844,G,N,1902-12-30,G,,N,,x,,x,37.579885,-106.147714,G2,Monte Vista,G,Rio Grande,G1,,x,
Excelsior Irrigating Company,,x,19871063071,G,N,1916-07-17,G,,N,,x,,x,,,x,,x,,x,,x,
Excelsior Irrigation Company,,x,19871001095,G,N,1875-02-15,G,,N,,x,,x,,,x,,x,,x,,x,
Extension Irrigation Company,ExtensionIC,G,19871060888,G,N,1915-04-03,G,,N,,x,,x,40.335838,-104.913300,G2,Johnstown,G,South Platte,G1,,x,
F.H.M.Q. Ditch Company,,x,19871109956,G,N,1945-12-03,G,,N,,x,,x,,,x,,x,,x,,x,
Fairport Reservoir And Ditch Company,,x,19871038411,G,N,1904-03-26,G,,N,,x,,x,,,x,,x,,x,,x,
Farmers 110 Lateral Ditch Company,,x,19871108860,G,N,1944-10-16,G,,N,,x,,x,,,x,,x,,x,,x,
Farmer's Ditch Company,FarmersDC,G,19871002667,G,N,1872-08-10,G,,N,,x,,x,40.155136,-105.104968,G2,Longmont,G,South Platte,G1,,x,
Farmers Extension Ditch Company,FarmersExtensionDC,G,19871009381,G,N,1889-03-13,G,,N,,x,,x,40.336927,-104.912197,G2,Johnstown,G,South Platte,G1,,x,
Farmers High Line Canal And Reservoir Company,FarmersHighLineCRC,G,19871007142,G,Y,1885-12-12,G,,N,,x,,x,39.858881,-105.090928,G2,Westminster,G,Metro,,,x,
Farmers High Line Lateral Ditch Company,FarmersHighLineLDC,G,19871093153,G,N,1931-02-24,G,,N,,x,,x,39.881987,-104.983130,G2,Thornton,G,Metro,G1,,x,
Farmers Independent Ditch Co,FarmersIndependentDC,G,19871001377,G,Y,1876-11-11,G,,N,,x,,x,40.389487,-104.727947,G2,Greeley,G,South Platte,G1,,x,
Farmers Irrigating Ditch & Reservoir Company,FarmersIDRC,G,19871011949,G,N,1878-11-23,G,,N,,x,,x,40.421434,-105.074088,G2,Loveland,G,South Platte,G1,,x,
Farmers Irrigation Company,,x,19871073892,G,N,1921-05-16,G,,N,,x,,x,,,x,,x,,x,,x,
Farmers Reservoir And Irrigation Company,FRICO,G,19871035397,G,Y,1902-10-04,G,,N,,x,,x,39.985791,-104.790846,G2,Brighton,G,Metro,G1,http://www.farmersres.com/,G,
Feeder Ditch Company,,x,19871076236,G,N,1922-09-13,G,,N,,x,,x,,,x,,x,,x,,x,
Feldman Ditch Company,,x,19871149110,G,N,1960-07-13,G,,N,,x,,x,38.872100,-107.604000,G2,Paonia,G,Gunnison,G1,,x,
Ferran Ditch Company,,x,19951130387,G,N,1995-10-23,G,,N,,x,,x,37.210608,-107.788737,G2,Durango,G,Southwest,G1,,x,
Finley Lateral Ditch Company,FinleyLDC,G,19871121756,G,N,1952-05-02,G,,N,,x,,x,40.512559,-104.883777,G2,Windsor,G,South Platte,G1,,x,
Fire Mountain Canal And Reservoir Company,,x,19871078997,G,Y,1924-02-15,G,,N,,x,,x,38.798979,-107.724624,G2,Hotchkiss,G,Gunnison,,,x,
First & Independent Lateral Ditch Company,,x,20041078498,G,N,2004-03-03,G,2007-12-06,G,,x,,x,39.082013,-108.573075,G2,Grand Junction,G,Colorado,G1,,x,
First Avenue Pipe Line Company,,x,19871072243,G,N,1920-07-06,G,,N,,x,,x,,,x,,x,,x,,x,
First Reservoir LLC,,x,20141407943,G,N,2014-07-02,G,,N,,x,,x,39.110581,-104.909387,G2,Palmer Lake,G,Arkansas,,,x,
Fisher Ditch Company,FisherDC,G,19871073544,G,Y,1921-03-14,G,,N,,x,,x,39.751282,-104.994437,G2,Denver,G,Metro,G1,,x,
Florida Consolidated Ditch Company,,x,19871009520,G,Y,1889-05-04,G,,N,,x,,x,37.275147,-107.880474,G2,Durango,G,Southwest,G1,,x,
Florida Mesa Reservoir Company,,x,19871047240,G,N,1908-05-25,G,,N,,x,,x,,,x,,x,,x,,x,
Fogg Ditch Company,,x,19871060878,G,N,1915-04-01,G,,N,,x,,x,,,x,,x,,x,,x,
Forked Tongue/Holman Ditch Company,,x,20111251063,G,N,2011-04-27,G,,N,,x,,x,38.740025,-108.072811,G2,Delta,G,Gunnison,G1,,x,
Forrest Ditch Company,,x,19871110642,G,N,1946-04-25,G,,N,,x,,x,,,x,,x,,x,,x,
Fort Bent Ditch Company,,x,20091085502,G,N,2009-02-09,G,,N,,x,,x,38.081637,-102.626476,G2,Lamar,G,Arkansas,G1,,x,
Fort Logan Lateral Ditch Company,FtLoganLDC,G,19881020819,G,N,1988-03-23,G,,N,,x,,x,39.641059,-105.068064,G2,Denver,G,Metro,G1,,x,
Fort Morgan Reservoir and Irrigation Company,FtMorganRIC,G,19871505749,G,N,1983-01-21,G,,N,,x,,x,40.249755,-103.798785,G2,Fort Morgan,G,South Platte,G1,,x,
Four Creek Ditch Company,FourCrkDC,G,19961152100,G,N,1996-11-21,G,,N,,x,,x,39.743633,-104.985467,G2,Denver,G,Metro,G1,,x,
Foxhill Estate Ditch Company,,x,,x,Y,,x,,N,,x,,x,,,x,Denver,G,,x,,x,
Foxtail Estates Ditch Co.,FoxtailEstatesDC,G,19931002570,G,N,1993-01-11,G,,N,,x,,x,39.745509,-104.989543,G2,Denver,G,Metro,G1,,x,
Foy & Tomlinson/L.L. Hall Mutual Ditch Company,,x,19991199399,G,N,1999-10-25,G,2008-03-06,G,,x,,x,38.778444,-108.838506,G2,Whitewater,G,Southwest,G1,,x,
Franklin Pipe Line Company,,x,19871109700,G,N,1945-09-11,G,,N,,x,,x,,,x,,x,,x,,x,
Free Church Lateral Ditch Company,,x,19871109409,G,N,1945-05-22,G,,N,,x,,x,,,x,,x,,x,,x,
Fremont County Irrigating Ditch Company,,x,19871006449,G,N,1884-06-30,G,,N,,x,,x,38.393906,-105.117496,G2,Florence,G,Arkansas,G1,,x,
Fremont Pass Ditch Company,,x,20091386265,G,N,2009-07-21,G,2009-07-21,G,,x,,x,39.710773,-104.812497,G2,Aurora,G,Metro,G1,,x,
Fremont Pass Ditch Company,,x,20091387469,G,N,2009-07-21,G,,N,,x,,x,39.710773,-104.812497,G2,Aurora,G,Metro,G1,,x,
Fruit Growers Ditch And Reservoir Company,,x,19871027412,G,N,1898-11-23,G,,N,,x,,x,,,x,,x,,x,,x,
Fruit Ridge Ditch Company,,x,19871060763,G,N,1915-03-08,G,,N,,x,,x,,,x,,x,,x,,x,
Fruitland Irrigation Company,,x,19871045895,G,Y,1901-09-04,G,,N,,x,,x,38.798979,-107.724624,G2,Hotchkiss,G,Gunnison,G1,,x,
Fruitland Water Company,,x,,x,Y,,x,,N,,x,,x,,,x,Canon City,G,,x,,x,
Fruitvale Lateral And Waste Ditch Association,,x,19871051851,G,N,1910-04-23,G,,N,,x,,x,39.082159,-108.528540,G2,Grand Junction,G,Colorado,G1,,x,
Fulton Extension Ditch Company,FultonExtensionDC,G,20021258139,G,N,2002-09-18,G,,N,,x,,x,39.716905,-104.949571,G2,Denver,G,Metro,G1,,x,
Fulton Irrigating Ditch Company,,x,19871001316,G,N,1876-05-19,G,,N,,x,,x,,,x,,x,,x,,x,
Fulton Seepage Ditch Company,,x,19871051858,G,N,1910-04-25,G,,N,,x,,x,,,x,,x,,x,,x,
Garcia Ditch Company,,x,19871118340,G,N,1950-06-10,G,,N,,x,,x,,,x,,x,,x,,x,
Gard Lateral Ditch Company,,x,19871038827,G,N,1904-06-10,G,,N,,x,,x,,,x,,x,,x,,x,
Gardeners Ditch Land Development Company,GardenersDC,G,19871754813,G,N,1987-10-06,G,2005-03-31,G,,x,,x,39.620009,-104.925961,G2,Greenwood Village,G,Metro,G1,,x,
Gardeners' Mutual Ditch Company,GardenersMutualDC,G,19871061084,G,N,1915-05-17,G,,N,,x,,x,39.751282,-104.994437,G2,Denver,G,Metro,G1,,x,
Garfield Heights Mutual Ditch & Reservoir Company,,x,19871077269,G,N,1923-03-08,G,,N,,x,,x,,,x,,x,,x,,x,
Garnet Ditch And Reservoir Company,,x,19871034873,G,N,1902-06-18,G,,N,,x,,x,,,x,,x,,x,,x,
Garnet Lateral Ditch,,x,19871077968,G,N,1923-07-16,G,,N,,x,,x,,,x,,x,,x,,x,
Garrigues Lateral Company,,x,19871075022,G,N,1922-01-21,G,,N,,x,,x,,,x,,x,,x,,x,
Geneva Creek Reservoir Company,,x,19901087954,G,N,1990-09-17,G,2003-07-01,G,,x,,x,,,x,,x,,x,,x,
Geoff's Ditch LLC,GeoffsDC,G,20091439984,G,N,2009-08-17,G,,N,,x,,x,40.439491,-104.729998,G2,Greeley,G,South Platte,G1,,x,
German Ditch And Reservoir Company,,x,19871007282,G,N,1886-03-13,G,,N,,x,,x,,,x,,x,,x,,x,
Gianinetti Subdivision Ditch Company,,x,19901035932,G,N,1990-04-26,G,,N,,x,,x,39.408761,-107.215680,G2,Carbondale,G,Colorado,G1,,x,
Gibralter Ditch Company,,x,19871137077,G,N,1955-12-27,G,,N,,x,,x,,,x,,x,,x,,x,
Gilcrest Lateral Company,,x,19871074896,G,N,1922-01-05,G,,N,,x,,x,,,x,,x,,x,,x,
"Gilcrest Reservoir, L.L.C.",GilcrestRes,G,20081646900,G,N,2008-12-13,G,,N,,x,,x,39.621009,-104.891916,G2,Greenwood Village,G,Metro,,,x,
Gipe Ditch Company,,x,19871166385,G,N,1963-05-07,G,,N,,x,,x,,,x,,x,,x,,x,
Glen Creighton Mutual Ditch And Reservoir Company,,x,19871077074,G,N,1923-02-10,G,,N,,x,,x,,,x,,x,,x,,x,
Glenwood Ditch LLC,,x,19961051278,G,N,1996-04-15,G,2000-09-25,G,,x,,x,39.545969,-107.325551,G2,Glenwood Springs,G,Colorado,G1,,x,
GMDD Ditch Company,,x,20011106934,G,N,2001-05-25,G,,N,,x,,x,37.955943,-104.772769,G2,Pueblo,G,Arkansas,G1,,x,
Godding Ditch Company,GoddingDC,G,19871053541,G,N,1911-01-23,G,,N,,x,,x,39.685592,-104.971324,G2,Denver,G,Metro,G1,,x,
Godfrey Ditch Company,GodfreyDC,G,19871051186,G,Y,1910-02-05,G,,N,,x,,x,40.347161,-104.746804,G2,La Salle,G,South Platte,G1,,x,
Golden Canal And Reservoir Company,GoldenCRC,G,19871053933,G,N,1911-03-20,G,,N,,x,,x,39.754825,-105.141023,G2,Lakewood,G,Metro,,,x,
Gonzales Ditch Company,,x,19871077466,G,N,1923-04-11,G,,N,,x,,x,,,x,,x,,x,,x,
Good Enough Reservoir Company,,x,19871080530,G,N,1924-11-29,G,,N,,x,,x,,,x,,x,,x,,x,
Goodale Mutual Ditch Company,,x,19871072169,G,N,1920-06-24,G,,N,,x,,x,,,x,,x,,x,,x,
Goodhue Ditch & Reservoir Company,GoodhueDRC,G,19871115861,G,Y,1949-02-04,G,,N,,x,,x,39.973646,-105.169120,G2,Louisville,G,South Platte,G1,,x,
Goodnight Avenue Irrigation Company,,x,19871064279,G,N,1917-02-27,G,,N,,x,,x,38.259192,-104.664060,G2,Pueblo,G,Arkansas,G1,,x,
Gore Lateral Co.,,x,19871120426,G,N,1951-07-19,G,,N,,x,,x,,,x,,x,,x,,x,
Grable Lateral Association,,x,19871116664,G,N,1949-06-28,G,,N,,x,,x,,,x,,x,,x,,x,
Grable Lateral Company,,x,19871090242,G,N,1929-07-16,G,,N,,x,,x,,,x,,x,,x,,x,
Graham Ditch Company,,x,19871009876,G,N,1884-01-17,G,,N,,x,,x,,,x,,x,,x,,x,
Graham Drainage Ditch Company,,x,19871047679,G,N,1908-08-05,G,,N,,x,,x,,,x,,x,,x,,x,
Graham Lateral Company,,x,19871070076,G,N,1919-09-04,G,,N,,x,,x,,,x,,x,,x,,x,
Granada Irrigation Company,,x,19871110387,G,N,1946-03-09,G,,N,,x,,x,38.087108,-102.420093,G2,Lamar,G,Arkansas,G1,,x,
Granby Ditch And Reservoir Company,,x,19871016928,G,N,1894-04-16,G,,N,,x,,x,,,x,,x,,x,,x,
Grand County Irrigated Land Company,,x,19871057099,G,N,1912-11-12,G,,N,,x,,x,40.085441,-105.934716,G2,Granby,G,Colorado,G1,,x,
Grand County Mutual Ditch And Reservoir Company,,x,20081042682,G,N,2008-01-22,G,,N,,x,,x,39.895108,-105.768527,G2,Winter Park,G,Colorado,G1,,x,
Grand Mesa Water Users Association,,x,,x,Y,,x,,N,,x,,x,,,x,Cedaredge,G,,x,,x,
Grand River Ditch Company,,x,19871064301,G,N,1917-03-01,G,,N,,x,,x,,,x,,x,,x,,x,
Grand Valley Irrigation Company,,x,19871016509,G,Y,1894-01-29,G,,N,,x,,x,39.104005,-108.570782,G2,Grand Junction,G,Colorado,G1,,x,
Grand Valley Irrigation Company Shareholder/Owners,,x,19871683383,G,N,1986-07-30,G,,N,,x,,x,39.068715,-108.566211,G2,Grand Junction,G,Colorado,G1,,x,
Grand Valley Water Users Association,,x,,x,Y,,x,,N,,x,,x,,,x,Grand Junction,G,,x,,x,
Grand View Canal Irrigation Company,,x,19871032923,G,N,1922-07-25,G,,N,,x,,x,38.703877,-107.608947,G2,Crawford,G,Gunnison,G1,,x,
Grand View Irrigation Company,,x,19871039429,G,Y,1904-10-28,G,,N,,x,,x,38.439927,-105.187865,G2,Canyon City,G,Arkansas,G1,,x,
Grant Ditch Company,,x,19871035267,G,N,1902-09-08,G,,N,,x,,x,,,x,,x,,x,,x,
Grant Reservoir Company,GrantRC,G,19871285769,G,N,1975-04-24,G,,N,,x,,x,39.630000,-105.320000,G2,Evergreen,G,Metro,,,x,
Grapevine Lateral Ditch Company,GrapevineLDC,G,19871005616,G,N,1883-04-27,G,,N,,x,,x,40.424654,-104.715577,G2,Greeley,G,South Platte,G1,,x,
Gray Lateral Ditch Company,GrayLDC,G,19871067167,G,N,1918-04-09,G,,N,,x,,x,40.279547,-104.941604,G2,Johnstown,G,South Platte,G1,,x,
Great Western Reservoir And Canal Company,,x,19871073577,G,N,1921-03-17,G,,N,,x,,x,,,x,,x,,x,,x,
"Greeley Amalgamated Drainage Ditch Company, LLC",GreeleyAmalgamatedDrainageDC,G,20111690094,G,N,2011-12-15,G,2017-08-01,G,,x,,x,40.148848,-105.101728,G2,Longmont,G,South Platte,G1,,x,
Greeley and Loveland Irrigation Company,GreeleyLovelandIC,G,19871029757,G,N,1900-02-01,G,,N,,x,,x,40.424654,-104.715577,G2,Greeley,G,South Platte,G1,,x,
Greeley Irrigation Company,GreeleyIC,G,19871005059,G,Y,1882-08-02,G,,N,,x,,x,40.389487,-104.727947,G2,Greeley,G,South Platte,G1,,x,
Green Acres Irrigation Company,GreenAcresIC,G,19871261990,G,N,1973-08-31,G,,N,,x,,x,40.421887,-104.770772,G2,Greeley,G,South Platte,G1,,x,
Green Ditch Company,GreenDC,G,19721238635,G,N,1972-02-14,G,,N,,x,,x,40.163019,-105.105514,G2,Longmont,G,South Platte,G1,,x,
Green Lawn Reservoir Company,,x,19871051444,G,N,1910-03-08,G,,N,,x,,x,,,x,,x,,x,,x,
Green Meadows Water & Ditch Inc.,,x,20051324068,G,N,2005-09-22,G,,N,,x,,x,38.031623,-104.945099,G2,Beulah,G,Arkansas,G1,,x,
Green Mountain Irrigation Company,GreenMtnIC,G,19871107830,G,N,1943-05-22,G,,N,,x,,x,39.721827,-105.103830,G2,Lakewood,G,Metro,G1,,x,
Green Valley Ditch Company,,x,19871043419,G,N,1906-10-08,G,,N,,x,,x,,,x,,x,,x,,x,
Greenwood Reservoir Company,,x,19871133023,G,N,1956-07-09,G,,N,,x,,x,,,x,,x,,x,,x,
Grimes-Brooks Reservoir Company,,x,19871126362,G,N,1954-07-22,G,,N,,x,,x,39.914611,-106.725963,G2,Mc Coy,G,Colorado,,,x,
Grove Creek Reservoir Company,,x,19881079064,G,N,1988-08-11,G,,N,,x,,x,38.741800,-108.072000,G2,Delta,G,Gunnison,,,x,
Guadalupe Main Ditch Company,,x,19871003833,G,N,1881-06-03,G,,N,,x,,x,,,x,,x,,x,,x,
H. H. Ditch Company,,x,19871055262,G,Y,1911-11-16,G,,N,,x,,x,37.167711,-108.145270,G2,Hesperus,G,Southwest,G1,,x,
"Hadley Number Two Ditch Co. , Inc.",,x,19991145521,G,N,1999-08-03,G,,N,,x,,x,38.824414,-107.621011,G2,Paonia,G,Gunnison,G1,,x,
Hairpin Lateral Ditch Company,,x,19871054775,G,N,1911-08-17,G,,N,,x,,x,,,x,,x,,x,,x,
Haldi Ditch Company,HaldiDC,G,19871473041,G,N,1982-04-23,G,,N,,x,,x,40.113914,-105.282409,G2,Boulder,G,South Platte,G1,,x,
Hall Ditch Company,,x,19961116044,G,N,1996-09-05,G,,N,,x,,x,39.190100,-108.065781,G2,Molina,G,Colorado,G1,,x,
Hallenbeck No.2 Reservoir Co.,,x,19871111983,G,N,1947-01-18,G,,N,,x,,x,,,x,,x,,x,,x,
Handy Ditch Company,HandyDC,G,19871001590,G,Y,1878-01-04,G,,N,,x,,x,40.308317,-105.081092,G2,Berthoud,G,South Platte,G1,,x,
Hannah Mutual Ditch Company,,x,20031142212,G,N,2003-05-02,G,,N,,x,,x,39.227379,-107.996805,G2,Colbran,G,Colorado,G1,,x,
Hanson Reservoir Company,,x,19871947643,G,N,1908-07-29,G,,N,,x,,x,,,x,,x,,x,,x,
Hardscrabble No. 1 Ditch Company,,x,20051323301,G,N,2005-08-25,G,,N,,x,,x,38.327279,-105.060562,G2,Florence,G,Arkansas,G1,,x,
Hardtack Ditch Company,,x,19871077184,G,N,1923-02-26,G,,N,,x,,x,,,x,,x,,x,,x,
Harmony Ditch Company,,x,19871045461,G,N,1907-08-13,G,,N,,x,,x,,,x,,x,,x,,x,
Harriman Ditch Company,HarrimanDC,G,19871013094,G,N,1892-02-23,G,,N,,x,,x,39.732937,-105.009534,G2,Denver,G,Metro,G1,,x,
Harriman Mutual Reservoir Company,HarrimanMutualRC,G,20041446294,G,N,2004-12-22,G,,N,,x,,x,39.597061,-105.137186,G2,Littleton,G,Metro,,,x,
Harris And Reed Ditch Company,,x,19891041138,G,N,1989-04-26,G,,N,,x,,x,39.373911,-107.083054,G2,Basalt,G,Colorado,G1,,x,
Harris Park Irrigation Company,HarrisParkIC,G,19871035503,G,N,1902-10-25,G,2014-02-01,G,,x,,x,39.856827,-105.069645,G2,Westminster,G,Metro,G1,,x,
Harris Reservoir LLC,,x,20031056573,G,N,2003-02-19,G,2011-04-26,G,,x,,x,39.532564,-107.326113,G2,Glenwood Springs,G,Colorado,,,x,
Harry Lateral Ditch Company,HarryLDC,G,19871157284,G,N,1961-11-24,G,,N,,x,,x,40.350184,-104.958025,G2,Johnstown,G,South Platte,G1,,x,
Harry Lateral East Extension Ditch Company,HarryEastExtensionLDC,G,19871114202,G,N,1948-03-08,G,2004-01-01,G,,x,,x,40.478291,-104.986622,G2,Fort Collins,G,South Platte,G1,,x,
Hart & Kelly Lateral Company,,x,19871088119,G,N,1928-06-23,G,,N,,x,,x,,,x,,x,,x,,x,
Hartland Ditch Company,,x,19871024119,G,N,1883-02-07,G,,N,,x,,x,,,x,,x,,x,,x,
Hawkeye Lateral Ditch Company,,x,19871039954,G,N,1905-02-06,G,,N,,x,,x,,,x,,x,,x,,x,
"Hay Gulch Ditch, Inc",,x,19871126287,G,N,1954-07-13,G,,N,,x,,x,,,x,,x,,x,,x,
Hayden Ditch Company,,x,19871032630,G,N,1901-05-14,G,,N,,x,,x,,,x,,x,,x,,x,
Hayes Teague Ditch Company,,x,20031279058,G,N,2003-08-29,G,,N,,x,,x,38.020604,-107.673563,G2,Ridgway,G,Gunnison,G1,,x,
Headgate 10 Ditch Company,,x,20051153089,G,N,2005-04-12,G,,N,,x,,x,39.560410,-107.652393,G2,Silt,G,Colorado,G1,,x,
Headgate 135 Lateral Inc.,,x,,x,Y,,x,,N,,x,,x,,,x,Grand Junction,G,,x,,x,
Headgate 19 Ditch Company,,x,20051153078,G,N,2005-04-12,G,,N,,x,,x,39.562201,-107.652401,G2,Silt,G,Colorado,G1,,x,
Headgate 83 Ditch Inc,,x,20041046547,G,N,2004-02-09,G,,N,,x,,x,39.554451,-107.689512,G2,Rifle,G,Colorado,G1,,x,
Hek Headgate #22 Lateral Ditch LLC,HekHeadgateNo22LDC,G,20101307255,G,N,2010-05-28,G,,N,,x,,x,39.793550,-105.146426,G2,Arvada,G,Metro,G1,,x,
Henry Bolen Ditch Company,,x,20031218819,G,N,2003-07-08,G,,N,,x,,x,37.311672,-108.361935,G2,Mancos,G,Southwest,G1,,x,
"Henry Lee Lateral Ditch, Inc.",,x,19871096811,G,N,1933-07-31,G,,N,,x,,x,,,x,,x,,x,,x,
Hermosa Company Ditch,,x,20091547255,G,N,2010-03-27,G,,N,,x,,x,37.414266,-107.839504,G2,Durango,G,Southwest,G1,,x,
Hickory Jackson Ditch Company,,x,19871008757,G,N,1888-06-11,G,,N,,x,,x,37.473279,-105.849933,G2,Alamosa,G,Rio Grande,G1,,x,
Hieland Ditch Company,,x,19871216402,G,N,1970-02-26,G,,N,,x,,x,38.350428,-107.796940,G2,Montrose,G,Gunnison,G1,,x,
High Country Ditch Specialists LLC,,x,20051304285,G,N,2005-08-09,G,2008-09-12,G,,x,,x,39.210884,-107.961328,G2,Colbran,G,Colorado,G1,,x,
Highland Ditch Company,HighlandDC,G,19871000986,G,Y,1874-04-13,G,,N,,x,,x,40.205150,-104.973853,G2,Longmont,G,South Platte,G1,,x,
Highland Irrigation Company,,x,19871059573,G,N,1914-04-28,G,2002-08-01,G,,x,,x,,,x,,x,,x,,x,
Highland Lake Lateral Ditch Company,HighlandLakeLDC,G,19871008105,G,Y,1887-07-11,G,,N,,x,,x,40.203186,-104.973308,G2,Longmont,G,South Platte,G1,,x,
Highland Lake Reservoir Company,HighlandLakeRC,G,19871029541,G,N,1900-01-02,G,,N,,x,,x,40.196935,-105.108250,G2,Longmont,G,South Platte,,,x,
Highland Lateral Company,,x,19871059294,G,N,1914-02-28,G,,N,,x,,x,,,x,,x,,x,,x,
Highland Park Lateral Ditch And Drainage Company,,x,19871121314,G,N,1952-02-08,G,,N,,x,,x,,,x,,x,,x,,x,
Highline Ditch & Enlargement Company,,x,19871042552,G,N,1906-04-30,G,,N,,x,,x,,,x,,x,,x,,x,
Highline-Buzzard Ditch Company,,x,19901073108,G,Y,1990-07-06,G,,N,,x,,x,39.247018,-107.976512,G2,Colbran,G,Colorado,G1,,x,
Hill & Brush Ditch Company,,x,19871961221,G,N,1915-06-22,G,,N,,x,,x,,,x,,x,,x,,x,
Hillcrest Ditch And Reservoir Company,HillcrestDRC,G,19871067501,G,N,1918-05-27,G,,N,,x,,x,39.751282,-104.994437,G2,Denver,G,Metro,G1,,x,
Hillcrest Ditch Company,,x,19871111722,G,N,1946-12-02,G,,N,,x,,x,39.086154,-108.569067,G2,Grand Junction,G,Colorado,G1,,x,
Hillsborough Extension Ditch Co.,HillsboroughExtensionDC,G,19871113483,G,N,1947-10-30,G,,N,,x,,x,40.335838,-104.913300,G2,Johnstown,G,South Platte,G1,,x,
Hillside Estates Irrigation Co. LLC,HillsideEstatesIC,G,20071444994,G,N,2007-09-27,G,,N,,x,,x,40.094909,-105.164435,G2,Niwot,G,South Platte,G1,,x,
Hillside Irrigation Company,,x,19871405548,G,N,1980-06-20,G,,N,,x,,x,39.104536,-108.682300,G2,Grand Junction,G,Colorado,G1,,x,
Hillside Lateral Company,,x,19871061116,G,N,1915-05-26,G,,N,,x,,x,,,x,,x,,x,,x,
Hilltop Ditch Company,,x,19871431656,G,N,1981-04-09,G,,N,,x,,x,39.099573,-108.547596,G2,Grand Junction,G,Colorado,G1,,x,
Hodgson Ditch Operating Association,HodgsonDA,G,19871108852,G,N,1944-10-11,G,,N,,x,,x,39.732937,-105.009534,G2,Denver,G,Metro,G1,,x,
Hoehne Ditch Company,,x,19871050852,G,N,1909-12-20,G,,N,,x,,x,37.282640,-104.353304,G2,Trinidad,G,Arkansas,G1,,x,
Holbrook Mutual Irrigating Company,,x,19871124609,G,N,1953-11-06,G,,N,,x,,x,38.082821,-103.588081,G2,Rocky Ford,G,Arkansas,G1,,x,
Holita Ditch And Reservoir Company,,x,19871105238,G,N,1940-04-18,G,,N,,x,,x,,,x,,x,,x,,x,
Holland Ditch Company,,x,19871024729,G,N,1897-06-01,G,,N,,x,,x,,,x,,x,,x,,x,
Holly Lateral Ditch Company,,x,19871051526,G,N,1910-03-17,G,,N,,x,,x,,,x,,x,,x,,x,
Holy Terror Reservoir And Ditch Company,,x,19871005469,G,N,1940-07-22,G,,N,,x,,x,,,x,,x,,x,,x,
Home Supply Ditch Company Inc.,,x,20081228232,G,N,2008-04-25,G,,N,,x,,x,39.362068,-107.027915,G2,Basalt,G,Colorado,G1,,x,
Home Supply Extension Ditch Company,HomeSupplyExtensionDC,G,19871059650,G,N,1914-05-18,G,,N,,x,,x,40.335838,-104.913300,G2,Johnstown,G,South Platte,G1,,x,
Home Supply Extension Ditch Company,,x,19871959650,G,N,1914-05-18,G,2001-06-11,G,,x,,x,,,x,,x,,x,,x,
Hope Ditch Company,HopeDC,G,19931068895,G,N,1993-07-02,G,,N,,x,,x,39.995693,-104.956775,G2,Brighton,G,Metro,G1,,x,
Horse Mountain Ditch Company LLC,,x,20101373403,G,N,2010-07-01,G,,N,,x,,x,38.442840,-107.871887,G2,Montrose,G,Gunnison,G1,,x,
Horse Mountain Irrigation Company,,x,20101370128,G,N,2010-06-30,G,,N,,x,,x,38.477184,-107.873757,G2,Montrose,G,Gunnison,G1,,x,
Hot Spring Ditch Company,,x,20041326737,G,N,2004-09-20,G,,N,,x,,x,40.474494,-106.825617,G2,Steamboat Springs,G,Yampa,G1,,x,
Howard Ditch Company,HowardDC,G,19871018151,G,N,1895-02-16,G,,N,,x,,x,40.167998,-105.101547,G2,Longmont,G,South Platte,G1,,x,
Howard Lateral Ditch Company,HowardLDC,G,19871068939,G,N,1919-03-05,G,,N,,x,,x,39.685592,-104.971324,G2,Denver,G,Metro,G1,,x,
Hudson Ditch And Reservoir Company,HudsonDRC,G,19871059876,G,N,1914-07-14,G,,N,,x,,x,39.985791,-104.790846,G2,Brighton,G,Metro,G1,,x,
Hudson Ditch And Reservoir Company,,x,19871009187,G,N,1889-01-14,G,,N,,x,,x,,,x,,x,,x,,x,
Huerfano-Cucharas Irrigation Company,HuerfanoCucharasIC,G,19871109488,G,Y,1944-02-17,G,,N,,x,,x,39.661734,-104.860168,G2,Aurora,G,Metro,G1,,x,
Huerfano-Nepesta Ditch & Reservoir Company,,x,19871096313,G,N,1933-03-27,G,,N,,x,,x,,,x,,x,,x,,x,
Huston Reservoir Company,,x,19871079328,G,N,1924-04-10,G,,N,,x,,x,,,x,,x,,x,,x,
"Idaho And Central Ditch And Pipeline Company, Inc.",,x,19911043958,G,N,1991-06-11,G,2000-04-01,G,,x,,x,,,x,,x,,x,,x,
Ide & Starbird Reservoir Company,IdeStarbirdRC,G,19871041409,G,N,1905-11-13,G,,N,,x,,x,39.685592,-104.971324,G2,Denver,G,Metro,,,x,
Iliff & Platte Valley Ditch Company,,x,19871006386,G,N,1884-05-23,G,,N,,x,,x,,,x,,x,,x,,x,
Independent Lateral Ditch Company,,x,19871067213,G,N,1918-04-15,G,,N,,x,,x,,,x,,x,,x,,x,
Independent Reservoir Company,,x,19871040238,G,N,1905-03-23,G,,N,,x,,x,,,x,,x,,x,,x,
"Indian Village Irrigation Company And Homeowners Association, Inc.",,x,19941098164,G,N,1994-08-31,G,,N,,x,,x,39.076579,-108.528415,G2,Grand Junction,G,Colorado,G1,,x,
"Interlocken Irrigation Company, Inc.",InterlockenIC,G,20161176726,G,N,2016-03-09,G,,N,,x,,x,39.898042,-105.054279,G2,Westminster,G,Metro,G1,,x,
Ish Reservoir Company,IshRC,G,19871040442,G,N,1905-04-27,G,,N,,x,,x,40.336927,-104.912197,G2,Johnstown,G,South Platte,,,x,
Island Ditch Company,,x,19971164480,G,N,1997-10-14,G,,N,,x,,x,39.402262,-107.115757,G2,Carbondale,G,Colorado,G1,,x,
I-V-A View Subdivision Homeowners Association And Ditch Company,,x,20051125785,G,N,2005-03-24,G,,N,,x,,x,39.243447,-107.952339,G2,Colbran,G,Colorado,G1,,x,
J. & M. Hughes Ditch Company,,x,19931041154,G,N,1993-04-19,G,,N,,x,,x,39.539603,-107.325866,G2,Glenwood Springs,G,Colorado,G1,,x,
J. B. Ditch Company,,x,19871971723,G,N,1920-04-21,G,,N,,x,,x,,,x,,x,,x,,x,
Jackson Ditch Company,JacksonDC,G,19871017028,G,N,1894-05-08,G,,N,,x,,x,40.580760,-105.034579,G2,Fort Collins,G,South Platte,G1,,x,
Jackson Lake Reservoir And Irrigation Company,JacksonLakeRIC,G,19871505748,G,N,1983-01-21,G,,N,,x,,x,40.249755,-103.798785,G2,Fort Morgan,G,South Platte,G1,,x,
James Ditch Company,JamesDC,G,19871001049,G,N,1874-10-12,G,,N,,x,,x,39.685592,-104.971324,G2,Denver,G,Metro,G1,,x,
"James Ditch Minority Shareholders Association, LLC",JamesDitchMinoritySA,G,20091223531,G,N,2009-04-21,G,,N,,x,,x,40.160371,-105.183496,G2,Longmont,G,South Platte,G1,,x,
Jaroso Mutual Ditch Company,,x,19871126083,G,Y,1954-06-21,G,,N,,x,,x,,,x,,x,,x,,x,
Jebe Reservoir And Irrigation Company,JebeRIC,G,19871343559,G,N,1978-03-17,G,2004-09-23,G,,x,,x,40.417583,-104.761388,G2,Greeley,G,South Platte,G1,,x,
Jefferson Lake Ditch Company,,x,19871009728,G,N,1889-07-22,G,,N,,x,,x,,,x,,x,,x,,x,
Jesse Ditch Co.,,x,20011023677,G,N,2001-02-01,G,,N,,x,,x,38.808847,-107.744460,G2,Hotchkiss,G,Gunnison,G1,,x,
Jim Eglin Ditch Co,JimEglinDC,G,20151842280,G,N,2015-12-31,G,,N,,x,,x,40.278649,-105.087495,G2,Berthoud,G,South Platte,G1,,x,
Joe Freed Ditch And Reservoir Company,,x,19871057899,G,N,1913-03-31,G,,N,,x,,x,37.167711,-108.145270,G2,Hesperus,G,Southwest,G1,,x,
Johnson And Edwards Ditch Company,JohnsonEdwardsDC,G,19871379505,G,N,1979-08-10,G,,N,,x,,x,39.677688,-105.125944,G2,Lakewood,G,Metro,G1,,x,
Johnson Ditch Company,,x,19871050472,G,N,1909-10-19,G,,N,,x,,x,,,x,,x,,x,,x,
Johnson Mutual Ditch Company,JohnsonMutualDC,G,19991011833,G,N,1999-01-21,G,,N,,x,,x,39.596475,-105.065830,G2,Littleton,G,Metro,G1,,x,
Johnson-Wolverton Ditch Company,,x,19871496149,G,N,1982-11-01,G,,N,,x,,x,39.576302,-107.441948,G2,Glenwood Springs,G,Colorado,G1,,x,
Jones And Donnelly Ditch Company,JonesDonnellyDC,G,19871254009,G,N,1973-02-15,G,,N,,x,,x,40.163019,-105.105514,G2,Longmont,G,South Platte,G1,,x,
Jones Lateral Ditch Company,,x,19871030722,G,N,1900-06-15,G,,N,,x,,x,,,x,,x,,x,,x,
"Jones, Hinman, Redmond Ditch Company",,x,20031229502,G,N,2003-07-16,G,2015-03-05,G,,x,,x,40.167536,-107.010310,G2,Yampa,G,Yampa,G1,,x,
Joseph W. Bowles Reservoir Company,JosephWBowlesRC,G,19871043169,G,N,1906-08-18,G,,N,,x,,x,39.661495,-105.352535,G2,Evergreen,G,Metro,,,x,
Josh Ames Irrigation Ditch Company,,x,19871028638,G,N,1899-08-01,G,,N,,x,,x,,,x,,x,,x,,x,
Juniata Ditch Company,,x,19871059785,G,N,1914-06-22,G,,N,,x,,x,,,x,,x,,x,,x,
Juniata Reservoir Company,,x,19871103140,G,N,1938-04-29,G,,N,,x,,x,,,x,,x,,x,,x,
Kalcevic Mutual Reservoir Association,,x,19871085248,G,N,1917-05-31,G,,N,,x,,x,,,x,,x,,x,,x,
Kannah Creek Extension Ditch #2,,x,19901080395,G,N,1990-08-09,G,,N,,x,,x,39.058586,-108.555516,G2,Grand Junction,G,Colorado,G1,,x,
Kannah Creek Highline Ditch Company,,x,19871046907,G,N,1908-04-06,G,,N,,x,,x,,,x,,x,,x,,x,
Kawanee Gardens Irrigation Company,KawaneeGardensIC,G,19871037932,G,N,1928-05-22,G,,N,,x,,x,39.753832,-105.102389,G2,Lakewood,G,Metro,G1,,x,
Kayser Mutual Ditch Company,,x,19871036527,G,N,1903-04-06,G,,N,,x,,x,39.917211,-106.724065,G2,Mc Coy,G,Colorado,G1,,x,
Kelton Heights Lateral Ditch Association,KeltonHeightsLDA,G,20161165763,G,N,2016-03-03,G,,N,,x,,x,39.698356,-105.060452,G2,Lakewood,G,Metro,G1,,x,
Kelton Heights Lateral Ditch Company,,x,19871099909,G,N,1935-11-25,G,,N,,x,,x,,,x,,x,,x,,x,
Kern Reservoir And Ditch Company,KernRDC,G,20021166398,G,N,2002-06-18,G,,N,,x,,x,40.477995,-104.901063,G2,Windsor,G,South Platte,G1,,x,
Kershaw Ditch Company,KershawDC,G,19871040279,G,N,1905-03-27,G,,N,,x,,x,39.862276,-105.048549,G2,Westminstser,G,Metro,G1,,x,
Kester Ditch Company,,x,20001102054,G,N,2000-05-19,G,,N,,x,,x,39.368658,-107.031414,G2,Basalt,G,Colorado,G1,,x,
"Kiggins And Salisbury Ditch, Inc.",,x,19871121001,G,N,1951-12-10,G,,N,,x,,x,39.212292,-107.895182,G2,Colbran,G,Colorado,G1,,x,
King Consolidated Ditch Company,,x,19871032536,G,N,1901-04-27,G,,N,,x,,x,37.177362,-107.725111,G2,Ignacio,G,Southwest,G1,,x,
King Ditch #6 Mesa Creek Ditch,,x,19901082330,G,N,1990-08-20,G,,N,,x,,x,39.070582,-108.569144,G2,Grand Junction,G,Colorado,G1,,x,
Kirtz Ditch Company,,x,19871108644,G,N,1944-06-16,G,,N,,x,,x,,,x,,x,,x,,x,
Kitchell Reservoir Company,KitchellRC,G,19871081576,G,N,1915-09-27,G,,N,,x,,x,40.575180,-104.984519,G2,Fort Collins,G,South Platte,,,x,
Kx4 Ditch Company,,x,19971006740,G,N,1997-01-15,G,,N,,x,,x,39.195541,-108.775024,G2,Loma,G,Colorado,G1,,x,
La Garita Reservoir Company,,x,20141655778,G,N,2014-10-27,G,,N,,x,,x,37.734407,-106.724008,G2,South Fork,G,Rio Grande,,,x,
La Jara Gardens Irrigation Company,,x,19871054387,G,N,1911-05-31,G,,N,,x,,x,,,x,,x,,x,,x,
La Junta Gardens Irrigation Company,,x,20011189122,G,N,2001-10-01,G,,N,,x,,x,38.005636,-103.561740,G2,La Junta,G,Arkansas,G1,,x,
La Plata River And Cherry Creek Ditch Company,,x,19871010875,G,N,1890-06-30,G,,N,,x,,x,,,x,,x,,x,,x,
La Vega Ditch Company,LaVegaDC,G,19871954013,G,N,1911-04-04,G,,N,,x,,x,39.689085,-105.113825,G2,Lakewood,G,Metro,G1,,x,
Lake Canal Company,,x,,x,Y,,x,,N,,x,,x,,,x,Lucerne,G,,x,,x,
Lake Canal Reservoir Company,,x,19871003984,G,N,1902-01-25,G,,N,,x,,x,38.674700,-108.039000,G2,Delta,G,Gunnison,,,x,
Lake Creek Water Users Mutual Ditch Company,,x,19981096339,G,N,1998-05-26,G,,N,,x,,x,38.309086,-105.633522,G2,Cotopaxi,G,Arkansas,G1,,x,
Lake Ditch Company,,x,19871105273,G,N,1940-05-01,G,,N,,x,,x,,,x,,x,,x,,x,
Lake Erie Reservoir Company,,x,19871105394,G,N,1940-06-17,G,,N,,x,,x,,,x,,x,,x,,x,
Lake Fork Ditch Company,,x,19871001795,G,N,1878-11-18,G,,N,,x,,x,38.908024,-107.946858,G2,Cedaredge,G,Gunnison,G1,,x,
Lake Henry Reservoir Company,,x,19871117874,G,N,1950-03-16,G,,N,,x,,x,38.218825,-103.756501,G2,Ordway,G,Arkansas,,,x,
Lake Idlewild Reservoir Company,,x,19871046820,G,N,1908-03-26,G,,N,,x,,x,,,x,,x,,x,,x,
Lake McIntosh Reservoir Company,LakeMcIntoshRC,G,20011156788,G,Y,2001-08-09,G,,N,,x,,x,40.205150,-104.973853,G2,Longmont,G,South Platte,G1,,x,
Lake Meredith Reservoir Company,,x,19871045112,G,N,1907-06-17,G,,N,,x,,x,38.218825,-103.756501,G2,Ordway,G,Arkansas,,,x,
Lakeside Lateral Ditch Company,LakesideLDC,G,19871028921,G,N,1899-07-12,G,,N,,x,,x,40.546252,-104.773335,G2,Eaton,G,South Platte,G1,,x,
Lakewood Acres Irrigation Company,LakewoodAcresIC,G,19871107662,G,N,1943-03-05,G,,N,,x,,x,39.728752,-105.103087,G2,Lakewood,G,Metro,G1,,x,
Lakewood Lateral Ditch Company,,x,19871081387,G,N,1925-04-09,G,,N,,x,,x,,,x,,x,,x,,x,
Lamar Canal And Irrigation Company,,x,19871045277,G,N,1907-07-13,G,,N,,x,,x,38.086153,-102.621874,G2,Lamar,G,Arkansas,G1,,x,
Lamar Mutual Ditch Company,,x,19871057918,G,N,1913-04-02,G,,N,,x,,x,,,x,,x,,x,,x,
Lane Ditch Company,LaneDC,G,19871052344,G,N,1910-07-07,G,2016-06-22,G,,x,,x,39.747956,-104.989046,G2,Denver,G,Metro,G1,,x,
Lariat Irrigation Company,,x,19871947550,G,N,1908-07-11,G,,N,,x,,x,,,x,,x,,x,,x,
Larimer And Weld Irrigation Company,LarimerWeldIC,G,19871001881,G,Y,1879-03-12,G,,N,,x,,x,40.526291,-104.712969,G2,Eaton,G,South Platte,G1,http://eatonditch.com/lwi/about-us/,G,
Larimer And Weld Reservoir Company,LarimerWeldRC,G,19871011041,G,N,1890-08-25,G,,N,,x,,x,40.526291,-104.712969,G2,Eaton,G,South Platte,,http://eatonditch.com/lwi/about-us/,G,
Larimer County Canal Number Two Irrigating Company,,x,19871001644,G,N,1878-03-06,G,,N,,x,,x,38.674700,-108.039000,G2,Delta,G,Gunnison,G1,,x,
Larkin Irrigation Company,,x,19871022377,G,N,1896-05-26,G,,N,,x,,x,39.287001,-108.229497,G2,De Beque,G,Colorado,G1,,x,
Las Animas Consolidated Canal Company,,x,,x,Y,,x,,N,,x,,x,,,x,Las Animas,G,,x,,x,
Las Animas Ditch Company,,x,19871028026,G,N,1899-03-29,G,,N,,x,,x,,,x,,x,,x,,x,
Last Chance Ditch Company,LastChanceDC,G,19871000693,G,Y,1872-04-15,G,,N,,x,,x,40.166069,-105.102917,G2,Longmont,G,South Platte,G1,,x,
Last Chance Ditch Company #2,LastChanceDCNo2,G,19871008710,G,N,1888-05-25,G,,N,,x,,x,39.732937,-105.009534,G2,Denver,G,Metro,G1,,x,
"Lateral B Shroeder Ditch Assoc, Lca",,x,20121615528,G,N,2012-11-02,G,,N,,x,,x,37.222770,-107.597560,G2,Bayfield,G,Southwest,G1,,x,
"Lateral Ditch ML47, Inc.",,x,20111426107,G,Y,2011-07-27,G,,N,,x,,x,39.091926,-108.448978,G2,Clifton,G,Colorado,G1,,x,
Layton Lateral Ditch Company,LaytonLDC,G,20091666355,G,N,2009-12-22,G,,N,,x,,x,40.248948,-103.798625,G2,Fort Morgan,G,South Platte,G1,,x,
Lee & Baugh Ditch Company,LeeBaughDC,G,20031264306,G,N,2003-08-15,G,,N,,x,,x,39.776297,-105.131106,G2,Wheat Ridge,G,Metro,G1,,x,
Lee Lateral Ditch Company,LeeLDC,G,19871085800,G,N,1927-06-02,G,,N,,x,,x,39.763319,-105.094167,G2,Wheat Ridge,G,Metro,G1,,x,
Left Hand Ditch Company,LeftHandDC,G,19871010925,G,N,1890-07-16,G,,N,,x,,x,40.016490,-105.282720,G2,Boulder,G,South Platte,G1,,x,
Legacy Ditch Association,LegacyDA,G,20121688636,G,N,2012-12-14,G,2017-03-06,G,,x,,x,40.310485,-104.752952,G2,La Salle,G,South Platte,G1,,x,
Leggett Ditch And Reservoir Company,LeggettDRC,G,19871024397,G,N,1897-04-07,G,,N,,x,,x,40.130984,-105.046625,G2,Longmont,G,South Platte,G1,,x,
Leon Lake Ditch And Reservoir Company,,x,19871030662,G,N,1900-06-07,G,,N,,x,,x,,,x,,x,,x,,x,
Leon Park Reservoir Company,,x,19871052477,G,N,1910-08-22,G,,N,,x,,x,,,x,,x,,x,,x,
Leroux Ditch And Enlargement Company,,x,19871036492,G,N,1903-03-27,G,,N,,x,,x,,,x,,x,,x,,x,
Lewelling Mccormick Ditch Company,,x,19871107667,G,N,1943-03-09,G,,N,,x,,x,,,x,,x,,x,,x,
Leyner-Cottonwood Consolidated Ditch Co.,LeynerCottonwoodConsolidatedDC,G,19871030595,G,Y,1900-05-24,G,,N,,x,,x,40.040068,-105.106931,G2,Lafayette,G,South Platte,G1,,x,
Liddle Ditch Co.,LiddleDC,G,19871273530,G,N,1974-06-07,G,,N,,x,,x,40.982593,-102.367333,G2,Ovid,G,South Platte,G1,,x,
Lilylands Canal And Reservoir Company,,x,19871042367,G,N,1906-03-08,G,,N,,x,,x,,,x,,x,,x,,x,
Lincoln Park Crooked Ditch Company,,x,,x,Y,,x,,N,,x,,x,,,x,Canon City,G,,x,,x,
Lincoln Park Pump Ditch Company,,x,19871011547,G,N,1891-01-14,G,,N,,x,,x,,,x,,x,,x,,x,
Linda Vista Irrigation Company,,x,19871114749,G,N,1948-06-14,G,,N,,x,,x,,,x,,x,,x,,x,
Little Alfalfa Ditch Company,,x,19871102404,G,N,1937-09-29,G,,N,,x,,x,,,x,,x,,x,,x,
Little Blanco Highline Ditch,,x,,x,Y,,x,,N,,x,,x,,,x,Pagosa Springs,G,,x,,x,
Little Elk Creek Ditch Company,,x,19871501666,G,N,1982-12-17,G,,N,,x,,x,39.300828,-107.009424,G2,Snowmass,G,Colorado,G1,,x,
"Little Stick Ditch Company, Inc.",,x,19991068075,G,N,1999-04-12,G,,N,,x,,x,37.195855,-108.093242,G2,Hesperus,G,Southwest,G1,,x,
Lodge Pole Lake Reservoir Co.,,x,19971041072,G,N,1997-03-17,G,,N,,x,,x,,,x,,x,,x,,x,
Loesch And Crann Ditch Company,,x,19871096063,G,Y,1913-03-06,G,,N,,x,,x,39.534702,-107.783120,G2,Rifle,G,Colorado,G1,,x,
Loloff Lateral Ditch Company,,x,19871062368,G,N,1916-03-13,G,,N,,x,,x,,,x,,x,,x,,x,
Loma Ditch & Lateral Co.,,x,,x,Y,,x,,N,,x,,x,,,x,Loma,G,,x,,x,
Loma Padra-Archuleta Ditch Company,,x,19871077330,G,N,1923-03-19,G,,N,,x,,x,,,x,,x,,x,,x,
Lone Cabin Ditch & Reservoir Company,,x,19871041424,G,N,1905-11-15,G,,N,,x,,x,38.841479,-107.570337,G2,Paonia,G,Gunnison,G1,,x,
Lone Cone Ditch And Reservoir Company,,x,19871171554,G,N,1888-10-21,G,,N,,x,,x,,,x,,x,,x,,x,
Lone Pine Ditch And Reservoir Company,,x,19871032860,G,N,1901-06-22,G,,N,,x,,x,,,x,,x,,x,,x,
Lone Rock Ditch Company,,x,19871224156,G,N,1970-11-12,G,,N,,x,,x,38.718022,-107.553491,G2,Crawford,G,Gunnison,G1,,x,
Lone Star Ditches Company,,x,19871079344,G,N,1924-04-14,G,,N,,x,,x,,,x,,x,,x,,x,
Lone Tree Ditch And Lateral Company,LoneTreeDLC,G,19871004155,G,N,1882-09-04,G,,N,,x,,x,40.455470,-104.584131,G2,Greeley,G,South Platte,G1,,x,
Lone Tree Lateral Company,,x,19871081381,G,N,1925-04-07,G,,N,,x,,x,,,x,,x,,x,,x,
Long Branch Lateral Ditch & Reservoir Company,,x,19871075350,G,N,1922-03-20,G,,N,,x,,x,,,x,,x,,x,,x,
Long Island Ditch Company,,x,19871104954,G,N,1940-01-29,G,,N,,x,,x,,,x,,x,,x,,x,
Long Lake Reservoirs Inc.,,x,19871094055,G,N,1931-08-27,G,,N,,x,,x,,,x,,x,,x,,x,
Longmont Reservoir LLC,LongmontRes,G,19981214575,G,N,1998-12-04,G,2000-02-04,G,,x,,x,39.633824,-104.916732,G2,Englewood,G,Metro,,,x,
Longmont Supply Ditch Company,LongmontSupplyDC,G,19871070430,G,Y,1919-11-04,G,,N,,x,,x,39.685592,-104.971324,G2,Denver,G,Metro,G1,,x,
Los Pinos Ditch Company,,x,19871053470,G,N,1911-01-09,G,,N,,x,,x,,,x,,x,,x,,x,
Los Pinos Irrigating Ditch Company,,x,19871146559,G,N,1960-01-21,G,,N,,x,,x,,,x,,x,,x,,x,
Los Rincones Ditch Company,,x,19871005468,G,N,1883-02-21,G,,N,,x,,x,,,x,,x,,x,,x,
Los Sauces Ditch Company,,x,19871076986,G,N,1923-02-01,G,,N,,x,,x,37.254322,-105.751927,G2,Sanford,G,Rio Grande,G1,,x,
Louden Extension Canal And Reservoir Company,LoudenExtensionCRC,G,19871073767,G,N,1921-04-26,G,,N,,x,,x,40.421434,-105.074088,G2,Loveland,G,South Platte,,,x,
Louden Irrigating Canal & Reservoir Company,LoudenICRC,G,19871051568,G,Y,1878-01-28,G,,N,,x,,x,40.421434,-105.074088,G2,Loveland,G,South Platte,G1,,x,
Loup Reservoir Company,,x,19871038347,G,N,1904-03-15,G,,N,,x,,x,,,x,,x,,x,,x,
Loveland Drain And Ditch Company,,x,19871074478,G,N,1921-10-11,G,,N,,x,,x,,,x,,x,,x,,x,
Loveland Lake and Ditch Company,LovelandLakeDC,G,19871027502,G,N,1898-12-19,G,,N,,x,,x,40.308559,-105.065943,G2,Berthoud,G,South Platte,G1,,x,
Low Line Ditch Company,,x,19871006511,G,Y,1884-08-14,G,,N,,x,,x,,,x,,x,,x,,x,
Lower Arkansas Valley Super Ditch Company,,x,20081251550,G,N,2008-05-07,G,,N,,x,,x,38.055464,-103.720770,G2,Rocky Ford,G,Arkansas,G1,,x,
Lower Arkansas Valley Super Ditch Pilot Program,,x,20121163375,G,N,2012-03-19,G,,N,,x,,x,38.055464,-103.720770,G2,Rocky Ford,G,Arkansas,G1,,x,
Lower Beaver Creek Ditch Company,,x,19871060987,G,N,1915-04-24,G,,N,,x,,x,,,x,,x,,x,,x,
Lower Boulder Extension Reservoir Company,,x,19871012775,G,N,1891-12-21,G,,N,,x,,x,,,x,,x,,x,,x,
Lower Clear Creek Ditch Company,LowerClearCrkDC,G,19871000657,G,Y,1871-12-23,G,,N,,x,,x,39.922276,-104.958477,G2,Eastlake,G,Metro,G1,,x,
Lower Kelso Ditch Co.,,x,19871261664,G,N,1973-08-24,G,,N,,x,,x,39.413497,-107.189887,G2,Carbondale,G,Colorado,G1,,x,
Lower Latham Ditch Company,LowerLathamDC,G,19871000624,G,N,1871-08-19,G,,N,,x,,x,40.409410,-104.811654,G2,Greeley,G,South Platte,G1,,x,
Lower Latham Extension Ditch Company,LowerLathamExtensionDC,G,19871009130,G,N,1888-12-20,G,,N,,x,,x,40.400420,-104.732135,G2,Greeley,G,South Platte,G1,,x,
Lower Latham Reservoir Company,LowerLathamRC,G,19871027097,G,N,1898-08-22,G,,N,,x,,x,40.409410,-104.811654,G2,Greeley,G,South Platte,,,x,
Lower Oligarchy Ditch Company,LowerOligarchyDC,G,19871013590,G,N,1892-04-29,G,,N,,x,,x,39.685592,-104.971324,G2,Denver,G,Metro,G1,,x,
Lower Wilson Ditch Association LLC,,x,20141596325,G,N,2014-09-29,G,,N,,x,,x,37.312260,-108.644598,G2,Cortez,G,Southwest,G1,,x,
Lowland Overflow Ditch Company,,x,19871054973,G,N,1911-09-26,G,,N,,x,,x,,,x,,x,,x,,x,
Lucas Lateral Ditch Company,LucasLDC,G,19871056157,G,N,1912-04-12,G,,N,,x,,x,40.526291,-104.712969,G2,Eaton,G,South Platte,G1,,x,
Lucero Ditch Company,,x,19871138700,G,N,1958-03-13,G,,N,,x,,x,,,x,,x,,x,,x,
Luchini Lateral Ditch Users Association,,x,20041384036,G,N,2004-11-01,G,,N,,x,,x,37.014033,-107.456075,G2,Arboles,G,Southwest,G1,,x,
Lupton Bottom Ditch Company,LuptonBottomDC,G,19871017126,G,Y,1894-05-26,G,,N,,x,,x,40.160888,-104.845623,G2,Fort Lupton,G,South Platte,G1,,x,
Lupton Meadows Ditch Company,LuptonMeadowsDC,G,19871061968,G,N,1916-01-06,G,,N,,x,,x,40.160888,-104.845623,G2,Fort Lupton,G,South Platte,G1,,x,
Lyons Ditch Company,LyonsDC,G,19871121197,G,Y,1952-01-18,G,,N,,x,,x,40.228748,-105.273597,G2,Lyons,G,South Platte,G1,,x,
Manassa Ditch Company,,x,19871005466,G,N,1883-02-21,G,,N,,x,,x,,,x,,x,,x,,x,
Manassa Land And Irrigation Company,,x,19871036202,G,N,1903-02-14,G,,N,,x,,x,,,x,,x,,x,,x,
Mancos Valley Beaver Ditch Company,,x,20031218822,G,N,2003-07-08,G,,N,,x,,x,37.344996,-108.289249,G2,Mancos,G,Southwest,G1,,x,
Mandalay Irrigation Company,MandalayIC,G,19871077033,G,N,1923-02-07,G,2013-03-06,G,,x,,x,40.017649,-105.264001,G2,Boulder,G,South Platte,G1,,x,
Manhart Ditch Company,,x,19871087783,G,Y,1928-05-01,G,,N,,x,,x,,,x,,x,,x,,x,
Manvel Canal And Irrigation Company,,x,19871056000,G,N,1912-03-18,G,2002-08-01,G,,x,,x,38.087108,-102.420093,G2,Lamar,G,Arkansas,G1,,x,
Marcot Park Ditch And Reservoir Company,,x,19871039744,G,N,1905-01-03,G,,N,,x,,x,,,x,,x,,x,,x,
Marshallville Ditch Co.,MarshallvilleDC,G,19871103264,G,Y,1938-06-08,G,,N,,x,,x,39.977763,-105.131930,G2,Louisville,G,South Platte,G1,,x,
"Martin Lateral Ditch Company, Inc.",,x,19871709688,G,N,1987-02-06,G,,N,,x,,x,37.185784,-107.643313,G2,Ignacio,G,Southwest,G1,,x,
Martinez Ditch Company,,x,19871077315,G,N,1923-03-16,G,,N,,x,,x,,,x,,x,,x,,x,
Masonville Union Ditch And Reservoir Company,MasonvilleUnionDRC,G,19871056894,G,N,1912-09-21,G,,N,,x,,x,40.466713,-105.204650,G2,Loveland,G,South Platte,G1,,x,
"Matthews Farms Estates Irrigation Water Company, LLC",MatthewsFarmsEstatesIWC,G,20061176082,G,N,2006-04-27,G,,N,,x,,x,40.131397,-105.117959,G2,Longmont,G,South Platte,G1,,x,
Maybell Mutual Ditch Company,,x,19871075316,G,N,1922-03-13,G,,N,,x,,x,,,x,,x,,x,,x,
Mc Broom Ditch Company,McBroomDC,G,19871080432,G,N,1924-11-08,G,,N,,x,,x,39.654701,-104.999158,G2,Englewood,G,Metro,G1,,x,
Mc Intyre Lateral Ditch Company,McIntyreLDC,G,19871967376,G,N,1918-05-06,G,,N,,x,,x,40.305929,-105.075789,G2,Berthoud,G,South Platte,G1,,x,
Mc Mahon No. 2 Reservoir Company,,x,19871116114,G,N,1949-03-23,G,,N,,x,,x,39.207386,-106.932211,G2,Snowmass Village,G,Colorado,,,x,
McCanne Ditch And Reservoir Company,McCanneDRC,G,19871017854,G,N,1894-12-22,G,,N,,x,,x,39.800726,-104.969202,G2,Denver,G,Metro,G1,,x,
McClellan Reservoir Company,,x,19871076092,G,N,1922-08-08,G,,N,,x,,x,,,x,,x,,x,,x,
McDonald Ditch Company,,x,19871074855,G,N,1921-12-30,G,,N,,x,,x,,,x,,x,,x,,x,
McDonald Ditch Irrigation Company,,x,19871104615,G,N,1939-10-03,G,,N,,x,,x,38.374509,-107.803937,G2,Montrose,G,Gunnison,G1,,x,
McGinn Ditch Company,McGinnDC,G,19871000557,G,Y,1871-03-03,G,,N,,x,,x,40.000851,-105.183986,G2,Boulder,G,South Platte,G1,,x,
McKay Lateral Ditch Company,McKayLDC,G,19871088319,G,N,1928-08-06,G,,N,,x,,x,39.685592,-104.971324,G2,Denver,G,Metro,G1,,x,
Mckenzie-Wildcat Ditch Company,,x,19911016111,G,N,1991-03-13,G,,N,,x,,x,39.278949,-106.957765,G2,Snowmass,G,Colorado,G1,,x,
Meadow Ditch Company,MeadowDC,G,19921087253,G,N,1992-09-04,G,,N,,x,,x,40.215604,-105.272188,G2,Lyons,G,South Platte,G1,,x,
Meadow Glen Ditch LLC,,x,20151584683,G,N,2015-09-09,G,,N,,x,,x,37.705684,-106.441427,G2,Del Norte,G,Rio Grande,G1,,x,
Meadow Island Ditch Company No. 2,MeadowIslandNo2DC,G,19871036320,G,N,1903-03-02,G,,N,,x,,x,40.203465,-104.846538,G2,Platteville,G,South Platte,G1,,x,
Meadow Island Irrigation Company,,x,19871032896,G,N,1901-06-28,G,,N,,x,,x,,,x,,x,,x,,x,
Meadowview Mutual Reservoir Company,MeadowviewMutualRC,G,19991134324,G,N,1999-07-16,G,,N,,x,,x,39.673809,-105.081958,G2,Denver,G,Metro,,,x,
Mecitas Ditch Company,,x,19871077977,G,N,1923-07-17,G,,N,,x,,x,,,x,,x,,x,,x,
Merritt Ditch Company,MerrittDC,G,19871070045,G,N,1919-08-28,G,,N,,x,,x,39.749381,-105.109263,G2,Lakewood,G,Metro,G1,,x,
Mesa Creek Ditch Co 2,,x,20121212194,G,N,2012-04-12,G,,N,,x,,x,39.169855,-108.126926,G2,Mesa,G,Colorado,G1,,x,
Mesa Creek Reservoir And Canal Company,,x,19871011561,G,N,1891-01-21,G,,N,,x,,x,39.166164,-108.138915,G2,Mesa,G,Colorado,,,x,
Mesa Ditch Company,,x,19871488800,G,N,1982-08-23,G,,N,,x,,x,37.308768,-106.988188,G2,Pagosa Springs,G,Southwest,G1,,x,
Mesa Mckenna Mutual Ditch Company,,x,19951036036,G,N,1995-03-20,G,,N,,x,,x,38.825156,-106.146395,G2,Buena Vista,G,Arkansas,G1,,x,
Meses Y Company Ditch Association,,x,20081251556,G,N,2008-05-07,G,,N,,x,,x,38.222291,-104.548338,G2,Pueblo,G,Arkansas,G1,,x,
Midland Ditch Company,,x,19871000104,G,N,1887-07-18,G,,N,,x,,x,,,x,,x,,x,,x,
Military Park Reservoir Company,,x,19871010464,G,N,1905-04-29,G,,N,,x,,x,38.900829,-107.933949,G2,Cedaredge,G,Gunnison,,,x,
Miller Creek Ditch Company,,x,19871156903,G,N,1961-10-31,G,,N,,x,,x,40.037953,-107.914059,G2,Meeker,G,Yampa,G1,,x,
Miller Ditch Company,,x,19871016775,G,N,1908-03-20,G,,N,,x,,x,,,x,,x,,x,,x,
Minnesota Canal & Reservoir Company,,x,19871036698,G,Y,1903-05-01,G,,N,,x,,x,38.858000,-107.591000,G2,Paonia,G,Gunnison,,,x,
Missouri Heights - Mountain Meadows Irrigation Company,,x,19991085572,G,N,1999-05-05,G,,N,,x,,x,39.190774,-106.818524,G2,Aspen,G,Colorado,G1,,x,
Missouri Park Ditch Company,,x,,x,Y,,x,,N,,x,,x,,,x,Poncha Springs,G,,x,,x,
Mitchell-Cooper Ditch And Pipeline Company,,x,19871125858,G,N,1954-05-21,G,,N,,x,,x,39.544608,-107.324530,G2,Glenwood Springs,G,Colorado,G1,,x,
Model Land & Irrigation Company,,x,19871047243,G,N,1908-05-25,G,,N,,x,,x,37.185868,-104.481166,G2,Trinidad,G,Arkansas,G1,,x,
Model Land & Irrigation Company,,x,19921056098,G,N,1992-06-03,G,2000-07-17,G,,x,,x,37.372237,-104.244974,G2,Model,G,Arkansas,G1,,x,
Mogote Northeastern Consolidated Ditch Company,,x,19871051843,G,N,1910-04-22,G,,N,,x,,x,,,x,,x,,x,,x,
Monarch Ditch Company,,x,20011214201,G,N,2001-11-07,G,,N,,x,,x,39.456667,-107.085906,G2,Carbondale,G,Colorado,G1,,x,
Monitor Ditch Company,,x,19111054652,G,N,1911-07-24,G,,N,,x,,x,38.798078,-107.725133,G3,Hotchkiss,G,Gunnison,G1,,x,
"Montez Ditch Acequia, Inc.",,x,20151288715,G,N,2015-04-27,G,,N,,x,,x,37.200848,-105.423901,G2,San Luis,G,Rio Grande,G1,,x,
Montezuma Valley Irrigation Company,,x,19871072724,G,N,1920-10-18,G,,N,,x,,x,37.377152,-108.608437,G2,Cortez,G,Southwest,G1,,x,
Montgomery Lateral Ditch Company,MontgomeryLDC,G,20061159272,G,N,2006-04-13,G,,N,,x,,x,40.526291,-104.712969,G2,Eaton,G,South Platte,G1,,x,
Monument Reservoir Company,,x,19871131853,G,N,1956-03-12,G,2005-08-31,G,,x,,x,39.220261,-107.874571,G2,Colbran,G,Colorado,,,x,
Monument Village Combined Irrigation Company,,x,19991077826,G,N,1999-04-24,G,,N,,x,,x,39.068715,-108.566211,G2,Grand Junction,G,Colorado,G1,,x,
Moonlight  Ditch Association,,x,20091450683,G,N,2009-08-24,G,,N,,x,,x,37.499714,-108.669264,G2,Lewis,G,Southwest,G1,,x,
Moore Ditch And Reservoir Company,,x,19871044703,G,N,1907-04-22,G,,N,,x,,x,,,x,,x,,x,,x,
Morgan Ditch Company,,x,19871018506,G,N,1895-04-26,G,,N,,x,,x,,,x,,x,,x,,x,
Morgan-Prewitt Reservoir Company,MorganPrewittRC,G,19871077076,G,N,1923-02-10,G,,N,,x,,x,40.249935,-103.798902,G2,Fort Morgan,G,South Platte,,,x,
Morin Mutual Ditch Company,,x,19871062581,G,N,1916-04-15,G,,N,,x,,x,,,x,,x,,x,,x,
Morman Mesa Ditch Company,,x,19871071551,G,N,1920-03-27,G,,N,,x,,x,,,x,,x,,x,,x,
Morrison Consolidated Ditch Company,,x,19871051382,G,N,1910-02-28,G,,N,,x,,x,37.177362,-107.725111,G2,Ignacio,G,Southwest,G1,,x,
Morrison Lateral Ditch Company,,x,19871034737,G,N,1902-05-20,G,,N,,x,,x,,,x,,x,,x,,x,
Mountain Mutual Reservoir Company,MtnMutualRC,G,19871393847,G,N,1980-03-03,G,,N,,x,,x,39.590284,-105.310802,G2,Evergreen,G,Metro,,,x,
"Mountain View Water And Ditch, Inc.",,x,20001049704,G,N,2000-03-09,G,,N,,x,,x,38.031623,-104.945099,G2,Beulah,G,Arkansas,G1,,x,
"Muddy Creek Ditch Company, Inc.",,x,19961092095,G,N,1996-07-12,G,,N,,x,,x,37.939091,-107.812469,G2,Telluride,G,Southwest,G1,,x,
Munn Addition Lateral Ditch And Water Company,,x,19871067845,G,N,1918-08-02,G,,N,,x,,x,,,x,,x,,x,,x,
"Munson Ditching, Inc.",,x,19971081074,G,N,1997-05-21,G,,N,,x,,x,39.012356,-104.700704,G2,Colorado Springs,G,Arkansas,G1,,x,
Muskrat Lateral Ditch Company,,x,19871099149,G,N,1935-04-05,G,,N,,x,,x,,,x,,x,,x,,x,
Mutual Carey Ditch And Reservoir Company,,x,19871080870,G,N,1925-01-26,G,,N,,x,,x,,,x,,x,,x,,x,
Mutual Hyde Ditch Company,,x,19871062490,G,N,1916-04-04,G,,N,,x,,x,38.114244,-102.543907,G2,Lamar,G,Arkansas,G1,,x,
Mutual Lateral Irrigation Company,,x,19871017835,G,N,1894-12-18,G,,N,,x,,x,,,x,,x,,x,,x,
N. S. Lateral Number Five Company,,x,19871057718,G,N,1913-03-01,G,,N,,x,,x,,,x,,x,,x,,x,
Naturita Canal And Reservoir Company,,x,19871011177,G,N,1887-03-12,G,,N,,x,,x,,,x,,x,,x,,x,
Naugle Lateral Ditch Company,,x,19871069064,G,N,1919-03-25,G,,N,,x,,x,,,x,,x,,x,,x,
Nauman Lake Reservoir Company,NaumanLakeRC,G,19871016811,G,N,1894-03-19,G,,N,,x,,x,40.458246,-104.741917,G2,Greeley,G,South Platte,,,x,
Navajo Diversion Ditch,,x,19871132348,G,N,1956-05-02,G,,N,,x,,x,,,x,,x,,x,,x,
Navajo River Ranch Ditch Company,,x,19971179508,G,N,1997-11-10,G,,N,,x,,x,37.037747,-106.790521,G2,Chromo,G,Southwest,G1,,x,
Nazarenus Lateral Ditch Company,,x,19871062655,G,N,1916-04-28,G,,N,,x,,x,,,x,,x,,x,,x,
Needham Ditch Company,,x,19871188088,G,N,1966-07-27,G,,N,,x,,x,39.402205,-107.211163,G2,Carbondale,G,Colorado,G1,,x,
Needle Rock Ditch Company,,x,19871010660,G,N,1890-04-30,G,,N,,x,,x,38.718022,-107.553491,G2,Crawford,G,Gunnison,G1,,x,
Nelson Lateral Ditch Company,,x,19871093571,G,N,1931-05-05,G,,N,,x,,x,,,x,,x,,x,,x,
Neumeister Lateral Ditch Company,,x,19871034367,G,N,1902-03-20,G,,N,,x,,x,,,x,,x,,x,,x,
Nevada Ditch Holding Company,NevadaDC,G,19871061872,G,Y,1915-12-16,G,,N,,x,,x,39.732937,-105.009534,G2,Denver,G,Metro,G1,,x,
New Brantner Extension Ditch Company,NewBrantnerExtensionDC,G,19871030067,G,N,1904-03-02,G,,N,,x,,x,39.986290,-104.818267,G2,Brighton,G,Metro,G1,,x,
New Cache La Poudre Irrigating Company,NewCacheLaPoudreIC,G,19871026302,G,N,1898-03-01,G,,N,,x,,x,40.482582,-104.698750,G2,Lucerne,G,South Platte,G1,,x,
New Cenicero Ditch Company,,x,19871038264,G,N,1904-03-02,G,,N,,x,,x,,,x,,x,,x,,x,
New Cenicero Ditch Company Corp.,,x,20081587131,G,N,2008-11-05,G,,N,,x,,x,37.089726,-105.946881,G2,Antonito,G,Rio Grande,G1,,x,
New Coal Ridge Ditch Company,NewCoalRidgeDC,G,19961036819,G,N,1996-03-15,G,,N,,x,,x,40.158337,-104.904994,G2,Longmont,G,South Platte,G1,,x,
New Consolidated Lower Boulder Reservoir And Ditch Company,NewConsolidatedLowerBoulderRDC,G,19961036817,G,Y,1996-03-15,G,,N,,x,,x,39.685592,-104.971324,G2,Denver,G,Metro,G1,,x,
New Dry Creek Ditch Company,,x,19871121290,G,N,1952-02-04,G,,N,,x,,x,,,x,,x,,x,,x,
New Hinman Ditch Company,NewHinmanDC,G,19871060896,G,N,1915-04-05,G,,N,,x,,x,40.096317,-105.204187,G2,Longmont,G,South Platte,G1,,x,
New John Flood Ditch Company,,x,20011095431,G,N,2001-05-10,G,,N,,x,,x,37.285686,-104.383674,G2,Trinidad,G,Arkansas,G1,,x,
New Kellogg Lateral Ditch Company,,x,19871095267,G,N,1932-05-25,G,,N,,x,,x,,,x,,x,,x,,x,
New Mercer Ditch Company,,x,19871001630,G,Y,1878-02-19,G,,N,,x,,x,38.674700,-108.039000,G2,Delta,G,Gunnison,G1,,x,
New Multa Trina Ditch Company,,x,19871099322,G,N,1935-05-17,G,,N,,x,,x,39.561184,-107.653193,G2,Silt,G,Colorado,G1,,x,
New Red Top Valley Ditch Company,,x,19871086369,G,N,1927-09-26,G,,N,,x,,x,40.187807,-105.892510,G2,Granby,G,Colorado,G1,,x,
New Salida Ditch Company,,x,19871123063,G,N,1953-01-23,G,,N,,x,,x,,,x,,x,,x,,x,
New Sand Creek Lateral Irrigation Company,NewSandCrkLIC,G,19871077770,G,N,1923-06-08,G,,N,,x,,x,40.427891,-104.688137,G2,Greeley,G,South Platte,G1,,x,
New Table Mountain Ditch Company,NewTableMtnDC,G,19871011774,G,N,1891-02-28,G,,N,,x,,x,40.123451,-105.230579,G2,Longmont,G,South Platte,G1,,x,
New Union Community Ditch Company,NewUnionCommunityDC,G,19871049709,G,N,1909-06-14,G,2009-01-29,G,,x,,x,39.921906,-104.977299,G2,Thornton,G,Metro,G1,,x,
New Von Gohren Lateral Ditch Co.,NewVonGohrenLDC,G,20101588346,G,N,1908-05-26,G,,N,,x,,x,40.470183,-104.725390,G2,Greeley,G,South Platte,G1,,x,
Newcomb Irrigating Company,,x,19871130631,G,N,1955-10-28,G,,N,,x,,x,,,x,,x,,x,,x,
"Newton Gulch Reservoir Co.,Inc.",,x,19871139861,G,N,1958-07-02,G,,N,,x,,x,,,x,,x,,x,,x,
Ni Wot Ditch Company,,x,19871000184,G,N,1866-02-01,G,3766-02-01,G,,x,,x,,,x,,x,,x,,x,
Niwot Ditch Company,NiwotDC,G,19871042573,G,N,1906-05-02,G,,N,,x,,x,40.146397,-105.114470,G2,Longmont,G,South Platte,G1,,x,
No. 10 Ditch Company,No10DC,G,19871037556,G,N,1903-10-17,G,,N,,x,,x,40.588194,-105.029533,G2,Fort Collins,G,South Platte,G1,,x,
No. 280 Lateral Ditch Company,No280LDC,G,19871194423,G,N,1967-06-29,G,,N,,x,,x,39.729347,-105.084255,G2,Lakewood,G,Metro,G1,,x,
No. 3 Outlet Ditch Company,No3OutletDC,G,19871013296,G,N,1892-03-16,G,,N,,x,,x,40.233317,-104.998590,G2,Mead,G,South Platte,G1,,x,
North Boulder Farmers Ditch Company,NorthBoulderFarmersDC,G,19871000558,G,Y,1871-03-07,G,,N,,x,,x,40.174536,-105.101688,G2,Longmont,G,South Platte,G1,,x,
North Delta Irrigation Company,,x,19921022547,G,N,1992-03-04,G,,N,,x,,x,38.773500,-108.065000,G2,Delta,G,Gunnison,G1,,x,
"North Eastern Colorado Irrigation Company, LLC",NorthEasternColoradoIC,G,20151756086,G,N,2015-11-24,G,,N,,x,,x,40.411217,-105.015067,G2,Loveland,G,South Platte,G1,,x,
North Fork Ditch Company,,x,20161346129,G,N,2016-05-20,G,,N,,x,,x,38.534719,-105.998902,G2,Salida,G,Arkansas,G1,,x,
North Fork Farmer's Ditch Association,,x,19871010301,G,Y,1890-02-07,G,,N,,x,,x,38.885845,-107.582377,G2,Paonia,G,Gunnison,G1,,x,
North Fork Lateral Ditch Company,,x,19871059788,G,N,1914-06-23,G,,N,,x,,x,38.811900,-107.706000,G2,Hotchkiss,G,Gunnison,G1,,x,
North Loudon Ditch And Reservoir Company,,x,19871009632,G,N,1889-06-11,G,,N,,x,,x,,,x,,x,,x,,x,
North Mesa Ditch And Reservoir Company,,x,19871067568,G,N,1918-06-08,G,,N,,x,,x,,,x,,x,,x,,x,
North Pawnee Lateral Ditch Company,,x,19871018388,G,N,1895-04-02,G,,N,,x,,x,,,x,,x,,x,,x,
North Poudre Irrigation Company,NPIC,G,19871033067,G,N,1901-08-01,G,,N,,x,,x,40.703679,-105.006283,G2,Wellington,G,South Platte,G1,https://npicwater.com/,G,
"North Poudre Irrigation Company, Lower Ditch #10, Headgate #9 Irrigators' Association LLC",NPICLowerDitchNo10HeadgateNo9IA,G,20141627915,G,Y,2014-10-31,G,2015-12-24,G,,x,,x,40.641174,-105.054565,G2,Fort Collins,G,South Platte,G1,,x,
North Star Irrigation Company,NorthStarIC,G,20101075459,G,N,2010-02-04,G,,N,,x,,x,40.724060,-105.083954,G2,Fort Collins,G,South Platte,G1,,x,
North Tollgate Ditch Company,NorthTollgateDC,G,20041107008,G,N,2004-03-23,G,,N,,x,,x,40.170095,-105.166700,G2,Longmont,G,South Platte,G1,,x,
Northcrestone Community Ditch Inc.,,x,20021063149,G,N,2002-03-13,G,2004-09-23,G,,x,,x,37.995250,-105.697972,G2,Crestone,G,Rio Grande,G1,,x,
Norvell Ditch Company,,x,20021246086,G,N,2002-09-06,G,,N,,x,,x,40.152484,-106.908658,G2,Yampa,G,Yampa,G1,,x,
Nunn-Mcgrew Ditch Company,,x,19871077349,G,N,1923-03-21,G,,N,,x,,x,,,x,,x,,x,,x,
Nyberg Ditch And Reservoir Company,,x,19871058491,G,N,1913-08-11,G,,N,,x,,x,,,x,,x,,x,,x,
Oak Mesa Ditch And Reservoir Company,,x,19871104889,G,N,1940-01-15,G,,N,,x,,x,,,x,,x,,x,,x,
Oak Ridge Park Ditch Company,,x,19871206442,G,N,1969-02-10,G,,N,,x,,x,40.028143,-107.779928,G2,Meeker,G,Yampa,G1,,x,
Oasis Irrigation Company,,x,19971187642,G,N,1998-01-01,G,,N,,x,,x,39.633085,-106.414550,G2,Vail,G,Colorado,G1,,x,
O'Brien Ditch Lateral Corporation,,x,20161103295,G,N,2016-02-11,G,,N,,x,,x,37.384922,-108.634592,G2,Cortez,G,Southwest,G1,,x,
Ogilvy Irrigating and Land Company,OgilvyIC,G,19871004001,G,N,1881-07-16,G,,N,,x,,x,40.425370,-104.692071,G2,Greeley,G,South Platte,G1,,x,
Old Brantner Ditch Company,OldBrantnerDC,G,20101017602,G,N,2010-01-11,G,2011-05-10,G,,x,,x,39.928351,-104.875307,G2,Brighton,G,Metro,G1,,x,
Oligarchy And Longmont Branch Ditch Company,,x,19871001106,G,N,1915-04-19,G,,N,,x,,x,,,x,,x,,x,,x,
Oligarchy Extension Ditch Company,OligarchyExtensionDC,G,19871073316,G,N,1921-02-07,G,,N,,x,,x,39.685592,-104.971324,G2,Denver,G,Metro,G1,,x,
Oligarchy Irrigation Company,OligarchyIC,G,19871073315,G,Y,1907-02-07,G,,N,,x,,x,39.685592,-104.971324,G2,Denver,G,Metro,G1,,x,
Oliver Ditch Company,,x,19871082228,G,N,1925-09-08,G,,N,,x,,x,,,x,,x,,x,,x,
Olsen Mutual Ditch Company,OlsenMutualDC,G,19871252081,G,N,1972-12-22,G,,N,,x,,x,40.476971,-104.585186,G2,Greeley,G,South Platte,G1,,x,
Orchard Mesa Heights Irrigation Ditch Co.,,x,20081329767,G,N,2008-06-18,G,,N,,x,,x,39.039387,-108.544792,G2,Grand Junction,G,Colorado,G1,,x,
Orchard Mesa Irrigation District,,x,,x,Y,,x,,N,,x,,x,,,x,Palisade,G,,x,,x,
Orchard Mesa Mutual Waste Ditch Company,,x,19871062867,G,N,1916-06-05,G,,N,,x,,x,,,x,,x,,x,,x,
Orchard Ranch Ditch Company,,x,19871061454,G,N,1915-08-20,G,,N,,x,,x,38.843100,-107.982000,G2,Eckert,G,Gunnison,G1,,x,
Ordway-Rocky Ford Mutual Canal And Reservoir Co,,x,19871058876,G,N,1913-12-01,G,,N,,x,,x,,,x,,x,,x,,x,
Original Cottonwood Ditch Company,OriginalCottonwoodDC,G,19871010536,G,N,1890-03-25,G,,N,,x,,x,40.014306,-105.175880,G2,Boulder,G,South Platte,G1,,x,
"Orlando Reservoir No. 2 Company, LLC",OrlandoNo2RC,G,20051178399,G,N,2005-05-03,G,,N,,x,,x,39.661734,-104.860168,G2,Aurora,G,Metro,,,x,
Osborn And Caywood Ditch,OsbornCaywoodDC,G,19871217888,G,N,1970-04-20,G,,N,,x,,x,39.708226,-105.143740,G2,Lakewood,G,Metro,G1,,x,
Osborn Lateral Ditch Company,OsbornLDC,G,19871062547,G,N,1916-04-12,G,,N,,x,,x,40.278694,-105.057464,G2,Berthoud,G,South Platte,G1,,x,
Oulette Ditch Company,OuletteDC,G,19871322285,G,N,1977-04-21,G,,N,,x,,x,39.776819,-105.106055,G2,Wheat Ridge,G,Metro,G1,,x,
Ouray Ditch Company,,x,19871016197,G,N,1893-11-11,G,,N,,x,,x,,,x,,x,,x,,x,
Ouray Mutual Ditch Company,,x,20161650159,G,N,2016-09-26,G,,N,,x,,x,38.531305,-106.040425,G2,Salida,G,Arkansas,G1,,x,
Overland Ditch And Reservoir Company,,x,19871018950,G,Y,1895-08-26,G,,N,,x,,x,38.872971,-107.797444,G2,Hotchkiss,G,Gunnison,G1,,x,
Ovid Reservoir Company,OvidRC,G,20041406192,G,N,2004-11-24,G,,N,,x,,x,40.986698,-102.262147,G2,Julesburg,G,South Platte,,,x,
Owl Creek Reservoir Company,OwlCrkRC,G,19871664337,G,N,1986-03-27,G,,N,,x,,x,40.523564,-104.862083,G2,Windsor,G,South Platte,,,x,
Owl Creek Supply and Irrigation Company,OwlCrkSupplyIC,G,19871040666,G,N,1905-06-05,G,,N,,x,,x,40.526291,-104.712969,G2,Eaton,G,South Platte,G1,,x,
Oxford Farmers Ditch Company,,x,19871009007,G,N,1888-10-12,G,,N,,x,,x,38.077754,-104.005192,G2,Fowler,G,Arkansas,G1,,x,
"Oxford Lateral Ditch, Inc.",,x,19931058656,G,N,1993-06-07,G,,N,,x,,x,37.167408,-107.702444,G2,Ignacio,G,Southwest,G1,,x,
Palisade Irrigation District,,x,,x,Y,,x,,N,,x,,x,,,x,Palisade,G,,x,,x,
Palmerton Consolidated Ditch Company,PalmertonConsolidatedDC,G,19871088639,G,N,1928-10-15,G,,N,,x,,x,40.206359,-105.199147,G2,Longmont,G,South Platte,G1,,x,
Palomino Acres Ditch And Water Company,,x,19871307380,G,N,1976-07-02,G,,N,,x,,x,38.487530,-107.900371,G2,Montrose,G,Gunnison,G1,,x,
Paonia Ditch Company,,x,19871075382,G,N,1922-03-24,G,,N,,x,,x,38.850000,-107.625000,G2,Paonia,G,Gunnison,G1,,x,
Park Ditch And Reservoir Company,,x,19871094151,G,N,1931-09-14,G,,N,,x,,x,,,x,,x,,x,,x,
Park Ditch Company,,x,19891032074,G,N,1989-04-07,G,,N,,x,,x,37.283043,-106.976363,G2,Pagosa Springs,G,Southwest,G1,,x,
Patrick/Bennett Reservoir Company,PatrickBennettRC,G,20021212932,G,N,2002-08-05,G,,N,,x,,x,39.618495,-105.044791,G2,Littleton,G,Metro,,,x,
Patterson Cummins Ditch Association,,x,20091345498,G,N,2009-06-26,G,,N,,x,,x,39.402420,-107.117664,G2,Carbondale,G,Colorado,G1,,x,
"PC Reservoir, LLC",,x,20081129213,G,N,2008-03-06,G,,N,,x,,x,38.838550,-104.826481,G2,Colorado Springs,G,Arkansas,,,x,
Peck Ditch Company,PeckDC,G,19871083068,G,N,1926-02-11,G,,N,,x,,x,40.152903,-105.145342,G2,Longmont,G,South Platte,G1,,x,
Peery Ditch Company,PeeryDC,G,20151436125,G,N,2015-07-02,G,,N,,x,,x,40.753167,-104.964751,G2,Wellington,G,South Platte,G1,,x,
Pella Ditch Company,PellaDC,G,19871036987,G,N,1903-06-29,G,,N,,x,,x,40.173812,-105.169588,G2,Longmont,G,South Platte,G1,,x,
Pennock Lateral Ditch Company,PennockLDC,G,19871042791,G,N,1906-06-08,G,,N,,x,,x,39.685592,-104.971324,G2,Denver,G,Metro,G1,,x,
People'S Ditch Company,,x,19871038297,G,N,1904-03-07,G,,N,,x,,x,,,x,,x,,x,,x,
Peterson Canal And Reservoir Company,,x,19871018596,G,N,1895-05-20,G,,N,,x,,x,,,x,,x,,x,,x,
"Phoenix Reservoir, LLC",PhoenixRes,G,20151600759,G,N,2015-09-19,G,,N,,x,,x,39.768294,-104.902097,G2,Denver,G,Metro,,,x,
"Picketwire Ditch Co., Inc.",,x,19871197881,G,N,1968-01-08,G,,N,,x,,x,37.182739,-104.475805,G2,Trinidad,G,Arkansas,G1,,x,
Piedra Falls Ditch Company,,x,19871124780,G,N,1953-12-11,G,,N,,x,,x,37.272497,-107.101199,G2,Pagosa Springs,G,Southwest,G1,,x,
Pine Ridge Ditch Company,,x,19871027396,G,N,1898-11-21,G,,N,,x,,x,,,x,,x,,x,,x,
Pine River - Bayfield Ditch Company,,x,19871061273,G,Y,1915-07-06,G,,N,,x,,x,37.160612,-107.556284,G2,Bayfield,G,Southwest,G1,,x,
Pine River Southwestern Ditch Company,,x,19871122425,G,N,1952-09-04,G,,N,,x,,x,,,x,,x,,x,,x,
Pinnacle Park Irrigation Company,PinnacleParkIC,G,19891088636,G,N,1989-08-24,G,,N,,x,,x,40.482279,-104.738151,G2,Greeley,G,South Platte,G1,,x,
Pinon Ditch Company,,x,19871085945,G,N,1927-06-27,G,,N,,x,,x,,,x,,x,,x,,x,
Pinon Mesa Ditch Company,,x,19871062492,G,N,1916-04-04,G,,N,,x,,x,,,x,,x,,x,,x,
Pioneer Ditch Company,,x,19871080997,G,N,1925-02-10,G,,N,,x,,x,37.299953,-107.879707,G2,Durango,G,Southwest,G1,,x,
Pisgah Reservoir And Ditch Company,,x,19871077722,G,N,1923-05-26,G,,N,,x,,x,38.054035,-103.719527,G2,Rocky Ford,G,Arkansas,G1,,x,
"Plains Irrigation Company, Inc.",PlainsIC,G,19871244125,G,N,1972-06-27,G,,N,,x,,x,40.623250,-103.200129,G2,Sterling,G,South Platte,G1,,x,
Plano Vista Ditch Company,,x,19871007722,G,N,1887-01-17,G,,N,,x,,x,,,x,,x,,x,,x,
Platte Avenue Lateral Company,,x,19871026911,G,N,1898-06-28,G,,N,,x,,x,,,x,,x,,x,,x,
Platte Valley Ditch And Reservoir Company,,x,19871936053,G,N,1903-01-27,G,,N,,x,,x,,,x,,x,,x,,x,
Platte Valley Irrigation Company,PlatteVlyIC,G,19871005954,G,Y,1883-10-14,G,,N,,x,,x,40.414039,-104.734350,G2,Greeley,G,South Platte,G1,,x,
Platteville Extension Ditch Company,,x,19871080474,G,N,1928-09-10,G,,N,,x,,x,,,x,,x,,x,,x,
Platteville Irrigating And Milling Company,PlattevilleIC,G,19921009641,G,Y,1992-02-03,G,,N,,x,,x,40.187699,-104.810543,G2,Platteville,G,South Platte,G1,,x,
Pleasant Valley Extension Ditch Company,,x,19871079038,G,N,1924-02-23,G,,N,,x,,x,,,x,,x,,x,,x,
Pleasant Valley Mutual Irrigating Company,,x,19871002812,G,N,1880-06-28,G,,N,,x,,x,,,x,,x,,x,,x,
Pleasant Valley Reservoir Fish And Ditch Company,PleasantVlyRFDC,G,19871004610,G,N,1882-02-08,G,,N,,x,,x,39.685592,-104.971324,G2,Denver,G,Metro,G1,,x,
Pleasant View Waste Ditch Company,,x,19871076791,G,N,1923-01-04,G,,N,,x,,x,,,x,,x,,x,,x,
Plumb And Dailey Ditch Company,PlumbDaileyDC,G,19871056068,G,N,1912-03-28,G,,N,,x,,x,39.685592,-104.971324,G2,Denver,G,Metro,G1,,x,
Plumb Irrigation Company,,x,19871061912,G,N,1915-12-18,G,1981-01-01,G,,x,,x,40.399428,-104.508098,G2,Greeley,G,South Platte,G1,,x,
Plumb Irrigation Company,,x,20031142714,G,Y,2003-05-05,G,,N,,x,,x,40.417206,-104.587606,G2,Greeley,G,South Platte,G1,,x,
Porter Ditch And Reservoir Company,,x,19871008290,G,N,1887-01-17,G,,N,,x,,x,,,x,,x,,x,,x,
Porter Reservoir LLC,,x,20041455399,G,N,2004-12-30,G,,N,,x,,x,39.530441,-107.480989,G2,New Castle,G,Colorado,,,x,
Poudre Prairie Mutual Reservoir & Irrigation Company,,x,19961161032,G,N,1996-12-11,G,2004-06-01,G,,x,,x,,,x,,x,,x,,x,
Prairie Ditch Company (The) (Water),,x,19871007885,G,N,1887-03-28,G,,N,,x,,x,37.649454,-105.869853,G2,Mosca,G,Rio Grande,G1,,x,
Prather South Ditch Company,,x,20081488960,G,N,2008-09-11,G,2010-01-15,G,,x,,x,39.248836,-108.187749,G2,De Beque,G,Colorado,G1,,x,
Preisser And Preisser Reservoir Company LLC,,x,20071114018,G,N,2007-03-06,G,,N,,x,,x,38.837867,-104.823684,G2,Colorado Springs,G,Arkansas,,,x,
Price Ditch LLC,,x,20171010720,G,N,2017-01-04,G,,N,,x,,x,39.225731,-108.782115,G2,Loma,G,Colorado,G1,,x,
Price/Felix Borgi Combined Ditch Company,,x,20071358639,G,N,2007-08-03,G,,N,,x,,x,40.485775,-106.978417,G2,Steamboat Springs,G,Yampa,G1,,x,
Primrose Irrigation Company,,x,19871080874,G,N,1925-01-27,G,,N,,x,,x,,,x,,x,,x,,x,
Prospect 55 Lateral Ditch Company,Prospect55LDC,G,19911028126,G,N,1991-04-23,G,,N,,x,,x,39.770082,-105.105147,G2,Wheat Ridge,G,Metro,G1,,x,
Putnam Ditch Co.,,x,19871073484,G,N,1921-03-04,G,,N,,x,,x,,,x,,x,,x,,x,
R & R Ditching LLC,,x,20071452287,G,N,2007-10-01,G,,N,,x,,x,38.892583,-104.820146,G2,Colorado Springs,G,Arkansas,G1,,x,
"R & R Ditching, Inc.",,x,19901001557,G,N,1990-01-09,G,,N,,x,,x,38.892583,-104.820146,G2,Colorado Springs,G,Arkansas,G1,,x,
R. V. T. Ditch Company,,x,19871420935,G,N,1980-12-29,G,1997-10-01,G,,x,,x,,,x,,x,,x,,x,
Rankin Reservoir Company,RankinRC,G,19871075757,G,N,1922-05-25,G,2006-08-10,G,,x,,x,39.921906,-104.977299,G2,Thornton,G,Metro,,,x,
Red Cliffs Ditch Company,,x,19871546707,G,N,1983-11-18,G,,N,,x,,x,37.322429,-107.841563,G2,Durango,G,Southwest,G1,,x,
Red Feather Storage and Irrigation Company,RedFeatherStorageIC,G,19871114071,G,N,1948-02-17,G,,N,,x,,x,40.802349,-105.590070,G2,Red Feather Lakes,G,South Platte,G1,,x,
Red Mountain Ditch Company,,x,19871321490,G,N,1977-04-11,G,,N,,x,,x,39.367562,-107.034516,G2,Basalt,G,Colorado,G1,,x,
Redlands Mesa Water Users,,x,,x,Y,,x,,N,,x,,x,,,x,Hotchkiss,G,,x,,x,
Redlands Village Acres Ditch Company,,x,19871227445,G,N,1971-03-15,G,,N,,x,,x,39.085364,-108.633066,G2,Grand Junction,G,Colorado,G1,,x,
Redlands Village Ditch Company,,x,19871178444,G,N,1965-03-09,G,,N,,x,,x,39.086658,-108.638246,G2,Grand Junction,G,Colorado,G1,,x,
Redlands Water and Power Company,,x,,x,Y,,x,,N,,x,,x,,,x,Grand Junction,G,,x,,x,
Redmesa Reservoir And Ditch Company,,x,19871078163,G,Y,1923-08-27,G,,N,,x,,x,37.167711,-108.145270,G2,Hesperus,G,Southwest,G1,,x,
Reed Lateral Ditch And Pipe Line Company,ReedLDPC,G,19871013346,G,N,1892-03-22,G,,N,,x,,x,39.685592,-104.971324,G2,Denver,G,Metro,G1,,x,
Relief Ditch Company,,x,19871001109,G,N,1890-09-15,G,,N,,x,,x,,,x,,x,,x,,x,
Reorganized Farmers' Ditch Company,ReorganizedFarmersDC,G,19871509111,G,N,1983-02-18,G,,N,,x,,x,40.421434,-105.074088,G2,Loveland,G,South Platte,G1,,x,
Re-Organized Revival Ditch Company,,x,19871116025,G,N,1949-03-04,G,,N,,x,,x,,,x,,x,,x,,x,
Revival Ditch Company,,x,19871059393,G,N,1914-03-19,G,,N,,x,,x,,,x,,x,,x,,x,
Reynolds And Cain Ditch Company,,x,19871405238,G,N,1980-06-13,G,,N,,x,,x,39.545969,-107.325551,G2,Glenwood Springs,G,Colorado,G1,,x,
Rhone Lateral Ditch Company,,x,19871174793,G,N,1964-08-06,G,2007-11-17,G,,x,,x,39.133263,-108.648065,G2,Grand Junction,G,Colorado,G1,,x,
Rice Ditch,,x,20081372516,G,N,2008-07-11,G,,N,,x,,x,38.503481,-107.910411,G2,Montrose,G,Gunnison,G1,,x,
Ridge Ditch Inc.,,x,20141608013,G,N,2014-10-02,G,,N,,x,,x,37.183137,-107.719169,G2,Ignacio,G,Southwest,G1,,x,
Rifle Creek Canon Ditch Company,,x,20091317743,G,N,2009-06-09,G,,N,,x,,x,39.362757,-107.190302,G2,Carbondale,G,Colorado,G1,,x,
Rifle Creek Canon Mutual Ditch Company,,x,19871068793,G,N,1919-02-13,G,,N,,x,,x,,,x,,x,,x,,x,
Rifle Creek Ditch Company,,x,19871092382,G,N,1930-09-22,G,,N,,x,,x,,,x,,x,,x,,x,
Rio Grande And Piedra Valley Ditch Company,,x,19911011652,G,N,1991-02-25,G,,N,,x,,x,37.675305,-106.363544,G2,Del Norte,G,Rio Grande,G1,,x,
Rio Grande And San Luis Irrigation Company,,x,19871053637,G,N,1911-03-15,G,,N,,x,,x,,,x,,x,,x,,x,
Rio Grande Canal Water Users Association,,x,,x,Y,,x,,N,,x,,x,,,x,Monte Vista,G,,x,,x,
Rio Grande Ditch No. 1 Company,,x,19871119780,G,N,1951-03-21,G,,N,,x,,x,37.670941,-106.651924,G2,South Fork,G,Rio Grande,G1,,x,
Rio Grande Ditch No. 4 Company,,x,19871127956,G,N,1955-02-07,G,,N,,x,,x,,,x,,x,,x,,x,
Rising Sun Ditch Company,,x,20071168425,G,N,2007-04-05,G,,N,,x,,x,39.531393,-107.691037,G2,Silt,G,Colorado,G1,,x,
Rist And Benson Reservoir Company,,x,19871037166,G,N,1903-08-05,G,,N,,x,,x,,,x,,x,,x,,x,
Riverside Ditch And Allen Extension Company,,x,19911034461,G,Y,1991-05-14,G,,N,,x,,x,38.879639,-106.155677,G2,Buena Vista,G,Arkansas,G1,,x,
Riverside Irrigation District,,x,,x,Y,,x,,N,,x,,x,,,x,Fort Morgan,G,,x,,x,
Riverside Reservoir And Land Company,RiversideRC,G,19871038709,G,N,1904-05-19,G,,N,,x,,x,40.249935,-103.798902,G2,Fort Morgan,G,South Platte,,,x,
Rixey Mutual Lateral Ditch Company,,x,19871099411,G,N,1935-06-18,G,,N,,x,,x,,,x,,x,,x,,x,
Roaring Fork River--Robertson Ditch Company,,x,19911061031,G,N,1991-08-05,G,1996-06-01,G,,x,,x,,,x,,x,,x,,x,
Roberson Manor Irrigation Company,,x,19871395308,G,N,1980-03-17,G,,N,,x,,x,39.167729,-108.735169,G2,Fruita,G,Colorado,G1,,x,
Roberta Ditch Company,,x,19871077639,G,N,1923-05-07,G,,N,,x,,x,,,x,,x,,x,,x,
Roberts-Stucker Ditch Association,,x,20071219327,G,N,2007-05-07,G,,N,,x,,x,38.863289,-107.635619,G2,Hotchkiss,G,Gunnison,G1,,x,
Robinson Ditch Company,,x,19871291936,G,N,1975-09-11,G,,N,,x,,x,39.391163,-107.082368,G2,Carbondale,G,Colorado,G1,,x,
"Rockford Ditch Association, Inc.",,x,19871133564,G,N,1956-09-12,G,,N,,x,,x,39.408456,-107.229634,G2,Carbondale,G,Colorado,G1,,x,
Rockwell Ditch Company,RockwellDC,G,19871006573,G,N,1884-10-09,G,,N,,x,,x,40.287475,-105.039097,G2,Berthoud,G,South Platte,G1,,x,
Rocky Ford Ditch Company,,x,19871005047,G,N,1882-07-27,G,,N,,x,,x,38.098509,-103.748564,G2,Rocky Ford,G,Arkansas,G1,,x,
Rocky Ford Irrigation Company,,x,20151396697,G,N,2015-06-19,G,,N,,x,,x,38.834184,-104.823209,G2,Colorado Springs,G,Arkansas,G1,,x,
"Rocky Ford Lateral No. 2, Inc.",,x,19871149070,G,N,1960-07-05,G,,N,,x,,x,,,x,,x,,x,,x,
Rogers Mesa Water Distribution Association,,x,,x,Y,,x,,N,,x,,x,,,x,Hotchkiss,G,,x,,x,
Romero Irrigation Company,,x,19871030855,G,N,1900-07-07,G,,N,,x,,x,,,x,,x,,x,,x,
Root And Ratliff Ditch Company,,x,19871112677,G,N,1947-05-14,G,,N,,x,,x,37.312519,-108.317646,G2,Mancos,G,Southwest,G1,,x,
Roseman Ditch Company,,x,20131213823,G,N,2013-04-02,G,,N,,x,,x,39.556653,-107.614479,G2,Silt,G,Colorado,G1,,x,
Roseman Ditch Company,,x,19871452324,G,N,1981-10-19,G,1989-01-01,G,,x,,x,39.978960,-107.618865,G2,New Castle,G,Yampa,G1,,x,
Ross Brothers Ditch Company,,x,19871117914,G,N,1950-08-24,G,,N,,x,,x,,,x,,x,,x,,x,
Rough And Ready Irrigating Ditch Company,RoughAndReadyIDC,G,19871011688,G,Y,1891-02-17,G,,N,,x,,x,39.685592,-104.971324,G2,Denver,G,Metro,G1,,x,
Runyan Ditch Company,RunyanDC,G,20051136783,G,N,2005-03-31,G,,N,,x,,x,39.685592,-104.971324,G2,Denver,G,Metro,G1,,x,
Rural Ditch Company,RuralDC,G,19871000673,G,Y,1873-02-13,G,,N,,x,,x,39.685592,-104.971324,G2,Denver,G,Metro,G1,,x,
Russell And Thatcher Ditch And Reservor Company,,x,19871044292,G,N,1907-02-23,G,,N,,x,,x,,,x,,x,,x,,x,
Ryan Gulch Reservoir Company,RyanGulchRC,G,19871039882,G,N,1905-01-26,G,,N,,x,,x,40.373978,-105.098299,G2,Loveland,G,South Platte,,,x,
Sackett Reservoir Company,,x,19871070464,G,N,1919-11-10,G,,N,,x,,x,,,x,,x,,x,,x,
Saddle Mountain High Line Enlargement And Extension Ditch Company,,x,19871055556,G,N,1912-01-15,G,,N,,x,,x,38.687800,-107.578000,G2,Crawford,G,Gunnison,G1,,x,
Saguache Drainage And Irrigation Company,,x,19871054137,G,N,1911-04-21,G,,N,,x,,x,,,x,,x,,x,,x,
Salida Ditch Company,,x,19871971702,G,N,1920-04-17,G,,N,,x,,x,,,x,,x,,x,,x,
Salisbury Lateral Ditch Company,SalisburyLDC,G,19871032346,G,N,1901-03-23,G,,N,,x,,x,39.732937,-105.009534,G2,Denver,G,Metro,G1,,x,
Sampson & Frasier Ditch Company,,x,20151211912,G,N,2015-03-25,G,,N,,x,,x,38.492817,-107.908570,G2,Montrose,G,Gunnison,G1,,x,
San Francisco Ditch Company,,x,19871210565,G,N,1969-07-23,G,,N,,x,,x,37.200848,-105.423901,G2,San Luis,G,Rio Grande,G1,,x,
San Isabel Water Users' Association,,x,19871119976,G,N,1951-04-19,G,,N,,x,,x,,,x,,x,,x,,x,
San Luis Peoples Ditch Company,,x,19871192920,G,N,1967-04-20,G,,N,,x,,x,,,x,,x,,x,,x,
San Pedro Mutual Ditch Company,,x,19871124120,G,N,1953-07-28,G,,N,,x,,x,,,x,,x,,x,,x,
Sanborn Reservoir and Ditch Company,SanbornRDC,G,19871026863,G,Y,1898-06-20,G,,N,,x,,x,40.204662,-104.919495,G2,Platteville,G,South Platte,G1,,x,
Sanchez Ditch And Reservoir Company,,x,19871127962,G,N,1955-02-07,G,,N,,x,,x,37.213903,-105.564458,G3,San Acacio,G,Rio Grande,G1,,x,
Sand Dike Ditch Company,SandDikeDC,G,19941078740,G,N,1994-07-13,G,,N,,x,,x,40.544948,-104.995944,G2,Fort Collins,G,South Platte,G1,,x,
Sanders Ditch Company LLC,,x,20131065253,G,N,2013-01-28,G,,N,,x,,x,37.306075,-107.863109,G2,Durango,G,Southwest,G1,,x,
Sanford Lateral Ditch Company,,x,19871087899,G,N,1928-05-16,G,,N,,x,,x,,,x,,x,,x,,x,
Santa Fe Reservoir Company,,x,19871993437,G,N,1931-04-10,G,,N,,x,,x,,,x,,x,,x,,x,
Santa Maria Reservoir Company,,x,19871093437,G,Y,1931-04-10,G,,N,,x,,x,37.579592,-106.148380,G2,Monte Vista,G,Rio Grande,,,x,
Scandinavian Ditch Company,,x,19871026582,G,N,1898-04-16,G,,N,,x,,x,,,x,,x,,x,,x,
Schneider Ditch Company,SchneiderDC,G,19871001462,G,N,1877-05-05,G,,N,,x,,x,40.625542,-103.207709,G2,Sterling,G,South Platte,G1,,x,
School Lateral Ditch Company,SchoolLDC,G,19871083411,G,N,1926-03-26,G,,N,,x,,x,39.729231,-105.059943,G2,Lakewood,G,Metro,G1,,x,
Schroder Irrigating Ditch Company,,x,19871007326,G,N,1886-04-10,G,,N,,x,,x,,,x,,x,,x,,x,
Seaman Syndicate Ditch Company,,x,19871052961,G,N,1910-11-01,G,,N,,x,,x,,,x,,x,,x,,x,
Second Creek Lateral Ditch And Reservoir Company,,x,19871075787,G,N,1922-06-11,G,,N,,x,,x,,,x,,x,,x,,x,
Security Lateral Company,,x,19871142822,G,N,1959-03-30,G,,N,,x,,x,,,x,,x,,x,,x,
Sellman Mutual Lateral Ditch Company,,x,19871067232,G,N,1918-04-18,G,,N,,x,,x,,,x,,x,,x,,x,
Servietta Ditch Company,,x,19871047751,G,N,1908-03-21,G,,N,,x,,x,,,x,,x,,x,,x,
Seven Lakes Irrigation Company,,x,19871106835,G,N,1942-01-26,G,,N,,x,,x,,,x,,x,,x,,x,
Seven Lakes Reservoir Company,SevenLakesRC,G,19871030487,G,N,1900-05-09,G,,N,,x,,x,40.424654,-104.715577,G2,Greeley,G,South Platte,,,x,
"Shamrock Irrigation Company, Inc.",ShamrockIC,G,19941023386,G,Y,1994-02-28,G,,N,,x,,x,40.570379,-105.063777,G2,Fort Collins,G,South Platte,G1,,x,
Shavano Valley Ditch Company,,x,19901053050,G,N,1990-05-18,G,,N,,x,,x,38.417746,-107.934998,G2,Montrose,G,Gunnison,G1,,x,
Shaw Reservoir Company,,x,19871128251,G,N,1955-03-07,G,,N,,x,,x,37.695331,-106.558585,G2,South Fork,G,Rio Grande,,,x,
Sheaffer Ditch Company,,x,19871408608,G,N,1980-07-31,G,,N,,x,,x,39.457116,-107.212451,G2,Carbondale,G,Colorado,G1,,x,
Sheek Ditch Company,,x,20041022232,G,N,2004-01-20,G,,N,,x,,x,37.327005,-108.343117,G2,Mancos,G,Southwest,G1,,x,
Shelton Mutual Ditch Company,,x,19871079190,G,N,1924-03-18,G,,N,,x,,x,,,x,,x,,x,,x,
Sheridan Blvd. Lateral Ditch Company,,x,19871108807,G,N,1944-09-15,G,,N,,x,,x,,,x,,x,,x,,x,
Sherwood Reservoir Company,,x,19871255727,G,N,1973-03-27,G,,N,,x,,x,38.674700,-108.039000,G2,Delta,G,Gunnison,,,x,
"Shippee Ditch Company, Inc.",,x,20071451730,G,N,2007-10-01,G,,N,,x,,x,39.364644,-107.085104,G2,Basalt,G,Colorado,G1,,x,
Short Ditch Company,,x,19871030955,G,N,1900-07-25,G,,N,,x,,x,38.810542,-107.687077,G2,Hotchkiss,G,Gunnison,G1,,x,
Short Ditch Extension Company,,x,19871109202,G,N,1945-02-28,G,,N,,x,,x,38.810542,-107.687077,G2,Hotchkiss,G,Gunnison,G1,,x,
Short Line Ditch Company,,x,19871005123,G,N,1882-09-05,G,,N,,x,,x,,,x,,x,,x,,x,
Si Johnson Ditch Company,,x,20091619088,G,N,2009-11-25,G,,N,,x,,x,39.189758,-106.817995,G2,Aspen,G,Colorado,G1,,x,
Signal Ditch Company,,x,19871006953,G,N,1885-06-02,G,,N,,x,,x,,,x,,x,,x,,x,
Silver Lake Ditch And Reservoir Company,SilverLakeDRC,G,19871009050,G,Y,1888-11-07,G,,N,,x,,x,40.034149,-105.281012,G2,Boulder,G,South Platte,G1,,x,
Silver Ridge Homeowners And Ditch Association,,x,19871366612,G,N,1979-03-07,G,,N,,x,,x,38.497357,-107.945166,G2,Montrose,G,Gunnison,G1,,x,
Simon Mutual Ditch And Reservoir Company,,x,19871071176,G,N,1920-02-13,G,,N,,x,,x,,,x,,x,,x,,x,
Simonton Ditch Company,SimontonDC,G,19871060462,G,N,1915-01-08,G,,N,,x,,x,39.732937,-105.009534,G2,Denver,G,Metro,G1,,x,
Skyline Ditch Company LLC,SkylineDC,G,20171561981,G,N,2017-07-24,G,,N,,x,,x,40.429305,-104.812469,G2,Greeley,G,South Platte,G1,,x,
Slade Irrigation Company,,x,19871044167,G,N,1907-02-07,G,,N,,x,,x,37.143770,-108.119053,G2,Hesperus,G,Southwest,G1,,x,
Slate Ditch Company,SlateDC,G,19871036898,G,N,1903-06-11,G,,N,,x,,x,40.097227,-104.850432,G2,Fort Lupton,G,South Platte,G1,,x,
Sloan'S Lake Lateral Ditch Company,,x,19871109353,G,N,1945-05-01,G,,N,,x,,x,,,x,,x,,x,,x,
Smith And Emmons Ditch Company,SmithEmmonsDC,G,19871110958,G,N,1946-06-25,G,,N,,x,,x,39.685592,-104.971324,G2,Denver,G,Metro,G1,,x,
Smith And Goss Ditch Company,SmithGossDC,G,19701223851,G,N,1970-11-02,G,1990-01-01,G,,x,,x,40.009237,-105.267939,G2,Boulder,G,South Platte,G1,,x,
Smith Irrigation Ditch,,x,19971076500,G,N,1997-05-13,G,,N,,x,,x,,,x,,x,,x,,x,
Smith Mutual Ditch Company,,x,19871057836,G,N,1913-03-19,G,,N,,x,,x,,,x,,x,,x,,x,
Smith-Mcknight Ditch Company,,x,19871103675,G,N,1938-11-14,G,,N,,x,,x,,,x,,x,,x,,x,
Snowmass Canyon Last Chance Ditch Company,,x,20001047009,G,N,2000-03-06,G,,N,,x,,x,39.368658,-107.031414,G2,Basalt,G,Colorado,G1,,x,
Snowmass Ditch Company,,x,19911031392,G,N,1991-05-01,G,,N,,x,,x,39.188243,-106.816929,G2,Aspen,G,Colorado,G1,,x,
Snowy Range Reservoir Company,,x,20021273346,G,N,2002-10-02,G,,N,,x,,x,37.428290,-105.045951,G2,La Veta,G,Arkansas,,,x,
Snyder-Smith Ditch Co.,SnyderSmithDC,G,19871216156,G,N,1970-01-20,G,,N,,x,,x,40.250043,-103.605482,G2,Brush,G,South Platte,G1,,x,
Soda Creek Ditch Company,,x,20031335117,G,N,2003-10-23,G,,N,,x,,x,40.484977,-106.831716,G3,Steamboat Springs,G,Yampa,G1,,x,
Soda Lakes Reservoir And Mineral Water Company,SodaLakesResMineralWC,G,19871017673,G,N,1894-10-05,G,,N,,x,,x,39.732937,-105.009534,G2,Denver,G,Metro,,,x,
Sooner Ditch Company,,x,19871051261,G,N,1910-02-15,G,,N,,x,,x,,,x,,x,,x,,x,
Sorrel Hills Mutual Ditch And Reservoir Company,,x,20131537152,G,N,2013-09-19,G,,N,,x,,x,39.688904,-106.810338,G2,Eagle,G,Colorado,G1,,x,
South Boulder And Bear Creek Ditch Company,SouthBoulderBearCrkDC,G,19871011714,G,N,1891-02-21,G,,N,,x,,x,39.987457,-105.089983,G2,Lafayette,G,South Platte,G1,,x,
South Boulder And Coal Creek 1st Extension Ditch Company,SouthBoulderCoalCrk1stExtensionDC,G,19871060656,G,N,1915-02-19,G,,N,,x,,x,39.977561,-105.132545,G2,Louisville,G,South Platte,G1,,x,
South Boulder And Coal Creek Irrigating Ditch Comp,SouthBoulderCoalCrkIDC,G,19871000725,G,N,1872-08-31,G,,N,,x,,x,39.977561,-105.132545,G2,Louisville,G,South Platte,G1,,x,
South Boulder And Foot Hills Irrigating Company,,x,19871082510,G,N,1925-11-05,G,,N,,x,,x,,,x,,x,,x,,x,
South Boulder Canon Ditch Company,,x,19871000554,G,N,1871-02-24,G,,N,,x,,x,,,x,,x,,x,,x,
South Canon Ditch Company,,x,19871002489,G,Y,1880-03-12,G,,N,,x,,x,38.433143,-105.259492,G2,Canyon City,G,Arkansas,G1,,x,
South Cheyenne Irrigating Ditch Co.,,x,19871002169,G,N,1879-10-18,G,,N,,x,,x,,,x,,x,,x,,x,
South Flat Ditch Company,SouthFlatDC,G,19871477995,G,N,1982-05-25,G,,N,,x,,x,40.173812,-105.169588,G2,Longmont,G,South Platte,G1,,x,
South Ledge Ditch Company,SouthLedgeDC,G,19871080910,G,N,1925-01-30,G,,N,,x,,x,40.210565,-105.233612,G2,Longmont,G,South Platte,G1,,x,
South Platte Ditch Company,SouthPlatteDC,G,19871003826,G,N,1881-06-01,G,,N,,x,,x,40.461208,-103.326959,G2,Merino,G,South Platte,G1,,x,
"South Platte Ditch Well Users, Inc.",SouthPlatteDWellUsers,G,20041121794,G,N,2004-04-02,G,,N,,x,,x,40.446422,-103.355031,G2,Merino,G,South Platte,G1,,x,
South Reservation Ditch Corporation,SouthReservationDC,G,19871261262,G,N,1973-08-15,G,,N,,x,,x,40.912550,-102.248324,G2,Julesburg,G,South Platte,G1,,x,
South Side Arroya Ditch Company,,x,19871075398,G,N,1922-03-27,G,,N,,x,,x,,,x,,x,,x,,x,
South Side Ditch Company,SouthSideDC,G,19871041929,G,Y,1906-01-31,G,,N,,x,,x,40.363900,-105.099534,G2,Loveland,G,South Platte,G1,,x,
South Side Ditch Extension Company,SouthSideExtensionDC,G,19871003518,G,N,1881-03-15,G,,N,,x,,x,40.363900,-105.099534,G2,Loveland,G,South Platte,G1,,x,
South Side Lateral Company,,x,19871104741,G,N,1939-12-04,G,,N,,x,,x,,,x,,x,,x,,x,
South Side Reservoir Company,SouthSideRC,G,20021354433,G,N,2002-12-20,G,,N,,x,,x,40.363900,-105.099534,G2,Loveland,G,South Platte,,,x,
SPL Ditch Company,SPLDC,G,19981225605,G,N,1998-12-21,G,,N,,x,,x,40.422014,-104.696852,G2,Greeley,G,South Platte,G1,,x,
Spring Canon Reservoir And Canal Company,,x,19871097008,G,N,1885-08-06,G,,N,,x,,x,,,x,,x,,x,,x,
Spring Creek Extension Ditch Company,,x,19871952508,G,Y,1901-04-22,G,,N,,x,,x,37.177362,-107.725111,G2,Ignacio,G,Southwest,G1,,x,
Spring Dale Ditch Company,,x,19871007471,G,N,1886-07-19,G,,N,,x,,x,,,x,,x,,x,,x,
Spring Park Irrigation Company,,x,19871073516,G,N,1921-03-10,G,,N,,x,,x,,,x,,x,,x,,x,
St. Vrain Land And Irrigation Company,,x,19871006557,G,N,1884-06-02,G,,N,,x,,x,,,x,,x,,x,,x,
St. Vrain Mutual Reservoir And Water Company,StVrainMutualRWC,G,19871589226,G,N,1984-10-01,G,1995-08-01,G,,x,,x,40.203156,-105.182664,G2,Longmont,G,South Platte,,,x,
St. Vrain Reservoir And Fish Company,StVrainRFC,G,19871013912,G,N,1892-06-13,G,,N,,x,,x,39.685592,-104.971324,G2,Denver,G,Metro,,,x,
Starbird Lateral Ditch Company,,x,19871001676,G,N,1878-04-27,G,,N,,x,,x,,,x,,x,,x,,x,
Stark - Volkman Ditch Company,,x,19871169729,G,N,1962-04-24,G,,N,,x,,x,38.433501,-107.880625,G2,Montrose,G,Gunnison,G1,,x,
Sterling Irrigation Company,SterlingIC,G,19871060781,G,N,1915-03-11,G,,N,,x,,x,40.625008,-103.219370,G2,Sterling,G,South Platte,G1,,x,
"Sterling No. 2, Ditch Company",,x,19871007027,G,N,1885-08-24,G,,N,,x,,x,,,x,,x,,x,,x,
Stevens And Linder Ditch Company,,x,20141241610,G,N,2014-04-16,G,,N,,x,,x,38.904339,-107.935979,G2,Cedaredge,G,Gunnison,G1,,x,
Stewart Ditch And Reservoir Company,,x,19871099363,G,Y,1935-06-01,G,,N,,x,,x,38.836366,-107.613796,G2,Paonia,G,Gunnison,G1,,x,
Stewart Ditch Extension Company,,x,19871026109,G,N,1898-02-07,G,,N,,x,,x,38.819424,-107.664093,G2,Paonia,G,Gunnison,G1,,x,
Stewart No. 1 Ditch Company,,x,20041380915,G,N,2004-10-29,G,,N,,x,,x,39.312473,-106.976255,G2,Snowmass,G,Colorado,G1,,x,
Stillwater Ditch And Reservoirs Company,,x,19871042578,G,N,1906-05-02,G,,N,,x,,x,,,x,,x,,x,,x,
Storm Ditch Company,StormDC,G,19871055125,G,N,1911-10-26,G,,N,,x,,x,39.921906,-104.977299,G2,Thornton,G,Metro,G1,,x,
Stransky Lateral Ditch Company,,x,19871104013,G,N,1939-02-21,G,,N,,x,,x,,,x,,x,,x,,x,
"Strauss Freeman Irrigation Company, LLC",StraussFreemanIC,G,20011160353,G,N,2001-08-15,G,,N,,x,,x,39.642843,-104.933945,G2,Englewood,G,Metro,G1,,x,
"Stremme-Gates Ditch Operations, Inc.",,x,20091230246,G,N,2009-04-24,G,,N,,x,,x,39.650175,-106.925429,G2,Gypsum,G,Colorado,G1,,x,
Stull Ditch Co,,x,19871022919,G,N,1896-09-04,G,,N,,x,,x,38.856600,-107.829000,G2,Hotchkiss,G,Gunnison,G1,,x,
Stumpf Lateral Ditch Company,StumpfLDC,G,20121129095,G,N,2012-02-28,G,,N,,x,,x,39.708226,-105.143740,G2,Lakewood,G,Metro,G1,,x,
Suburban Ditch Company,,x,19871112000,G,N,1947-01-21,G,,N,,x,,x,,,x,,x,,x,,x,
Suburban Lateral Ditch Co.,,x,19871152544,G,N,1961-02-17,G,,N,,x,,x,38.273590,-104.612148,G2,Pueblo,G,Arkansas,G1,,x,
Sullivan Ditch Company,,x,20161706775,G,N,2016-10-21,G,,N,,x,,x,37.278123,-107.614267,G2,Bayfield,G,Southwest,G1,,x,
"Sullivan-Wallace Ditch Company, Inc.",,x,19981140449,G,N,1998-08-03,G,,N,,x,,x,37.442147,-107.802185,G2,Durango,G,Southwest,G1,,x,
Summit Reservoir And Irrigation Company,,x,19871043485,G,Y,1906-10-19,G,,N,,x,,x,37.378797,-108.428577,G2,Mancos,G,Southwest,G1,,x,
Sunny Slope Reservoir Company,SunnySlopeRC,G,19871077831,G,N,1923-06-20,G,,N,,x,,x,40.312275,-105.055698,G2,Berthoud,G,South Platte,,,x,
Sunnyside Acres Lateral Ditch Company,,x,19871109416,G,N,1945-05-23,G,,N,,x,,x,,,x,,x,,x,,x,
Sunnyside Lateral Ditch Company,,x,19871115323,G,N,1948-10-19,G,,N,,x,,x,,,x,,x,,x,,x,
Sunnyside Park Ditch Company,,x,19871012902,G,N,1892-01-19,G,,N,,x,,x,38.573870,-106.036861,G2,Salida,G,Arkansas,G1,,x,
Sunrise Ditch Owners Association,,x,20091265068,G,N,2009-05-12,G,,N,,x,,x,38.936600,-107.968000,G2,Cedaredge,G,Gunnison,G1,,x,
"Sunrise Ditch, Inc.",,x,19871133661,G,N,1964-08-04,G,2001-06-18,G,,x,,x,,,x,,x,,x,,x,
"Sunrise Ditch, Inc.",,x,19871174831,G,N,1964-08-04,G,,N,,x,,x,,,x,,x,,x,,x,
Sunset Lake Feeder Ditch Co.,,x,19871123862,G,N,1953-06-11,G,,N,,x,,x,,,x,,x,,x,,x,
Supply Irrigating Ditch Company,SupplyIDC,G,19871049034,G,Y,1909-03-20,G,,N,,x,,x,39.685592,-104.971324,G2,Denver,G,Metro,G1,,x,
Supply Lateral Ditch Company,,x,19871075598,G,N,1922-05-01,G,,N,,x,,x,,,x,,x,,x,,x,
Surface Creek Ditch & Reservoir Company,,x,20141553666,G,N,2014-09-10,G,,N,,x,,x,38.908024,-107.946858,G2,Cedaredge,G,Gunnison,G1,,x,
Surface Creek Ditch And Reservoir Company,,x,19871097603,G,N,1886-10-23,G,,N,,x,,x,38.908024,-107.946858,G2,Cedaredge,G,Gunnison,G1,,x,
Suttle Ditch Company,,x,20091276106,G,N,2009-05-19,G,,N,,x,,x,40.486131,-106.834088,G2,Steamboat Springs,G,Yampa,G1,,x,
Swan View Irrigation Company,,x,19941043130,G,N,1994-04-13,G,,N,,x,,x,39.073488,-108.451371,G2,Clifton,G,Colorado,G1,,x,
Swede Ditch Company,,x,19871076562,G,N,1922-11-29,G,,N,,x,,x,,,x,,x,,x,,x,
Swede Lateral Ditch Company,,x,19871072188,G,N,1920-06-29,G,,N,,x,,x,,,x,,x,,x,,x,
Sweet-Jessup Canal Company,,x,19871035917,G,N,1903-01-08,G,,N,,x,,x,,,x,,x,,x,,x,
Swink Ditch And Reservoir Company,,x,19871539401,G,N,1983-09-26,G,,N,,x,,x,38.152075,-102.718766,G2,Wiley,G,Arkansas,G1,,x,
Sylvan Ditch And Reservoir Company,,x,19871054738,G,N,1911-08-09,G,,N,,x,,x,,,x,,x,,x,,x,
T. T. & C. Ditch Company,,x,19871367849,G,N,1979-03-23,G,,N,,x,,x,37.449868,-107.194989,G2,Pagosa Springs,G,Southwest,G1,,x,
Tailholt Irrigation Company,TailholtIC,G,20121718300,G,N,2012-12-28,G,2014-12-09,G,,x,,x,40.515471,-104.829957,G2,Eaton,G,South Platte,G1,,x,
Talbott Lateral Ditch LLC,TalbottLDC,G,20061458869,G,N,2006-11-09,G,,N,,x,,x,39.922475,-104.960996,G2,Eastlake,G,Metro,G1,,x,
Talley Ditch Company,,x,19871124008,G,N,1953-07-07,G,,N,,x,,x,,,x,,x,,x,,x,
Talmadge And Gibson Ditch And Reservoir Company,,x,19871078507,G,N,1923-11-20,G,,N,,x,,x,,,x,,x,,x,,x,
Taylor & Gill Ditch Company,TaylorGillDC,G,19871011691,G,N,1891-02-17,G,,N,,x,,x,40.626277,-105.138492,G2,Laporte,G,South Platte,G1,,x,
Tenassee Ditch Associates,,x,20141675714,G,N,2014-11-03,G,,N,,x,,x,38.572046,-106.041861,G2,Salida,G,Arkansas,G1,,x,
Tenth Avenue Lateral Ditch Company,,x,19871098357,G,N,1934-09-17,G,,N,,x,,x,,,x,,x,,x,,x,
Terrace Irrigation Company,,x,19871106361,G,N,1941-07-11,G,,N,,x,,x,37.579170,-106.148084,G2,Monte Vista,G,Rio Grande,G1,,x,
Terror Ditch And Reservoir Company,,x,19871081960,G,N,1925-07-16,G,,N,,x,,x,38.868320,-107.592002,G2,Paonia,G,Gunnison,G1,,x,
Terry Lake Reservoir Company,TerryLakeRC,G,20101437890,G,N,2010-08-05,G,2013-08-29,G,,x,,x,40.526291,-104.712969,G2,Eaton,G,South Platte,,,x,
Terry Lateral Ditch Company,TerryLDC,G,19871006379,G,N,1884-05-19,G,,N,,x,,x,39.685592,-104.971324,G2,Denver,G,Metro,G1,,x,
Thompson Glen Ditch Company,,x,19871032238,G,N,1901-03-09,G,,N,,x,,x,39.495104,-107.300346,G2,Glenwood Springs,G,Colorado,G1,,x,
"Thompson Rivers Storage And Irrigation Company, LLC",ThompsonRiversStorageIC,G,20061072931,G,N,2006-02-17,G,,N,,x,,x,40.395749,-105.073364,G2,Loveland,G,South Platte,G1,,x,
Thompson-Epperson Ditch Company,,x,19871092748,G,Y,1930-12-08,G,,N,,x,,x,37.177362,-107.725111,G2,Ignacio,G,Southwest,G1,,x,
Three Draw Ditch LLC,,x,20151325891,G,N,2015-05-17,G,,N,,x,,x,39.304181,-106.259763,G2,Leadvillle,G,Arkansas,G1,,x,
Tiffany Park Ditch Company,,x,19871169015,G,N,1963-09-20,G,,N,,x,,x,,,x,,x,,x,,x,
Tijeras Irrigating Ditch Company,,x,19871919703,G,N,1951-03-22,G,,N,,x,,x,,,x,,x,,x,,x,
Townsite Ditch Company,,x,19871044182,G,N,1907-02-11,G,,N,,x,,x,37.143770,-108.119053,G2,Hesperus,G,Southwest,G1,,x,
Treanor-Enterprise Ditch Company,,x,19871198780,G,N,1968-02-26,G,,N,,x,,x,37.127782,-108.103406,G2,Hesperus,G,Southwest,G1,,x,
Tremont Mutual Ditch Company,,x,19871048627,G,Y,1909-01-26,G,,N,,x,,x,,,x,,x,,x,,x,
Trial Ditch Company,,x,19871032162,G,N,1901-02-28,G,,N,,x,,x,,,x,,x,,x,,x,
Trickle Ditch Company,,x,20151156079,G,N,2015-03-02,G,,N,,x,,x,38.900829,-107.933949,G2,Cedaredge,G,Gunnison,G1,,x,
Trilby Lateral Ditch Company,TrilbyLDC,G,19871023925,G,N,1897-02-09,G,,N,,x,,x,40.507079,-105.089624,G2,Fort Collins,G,South Platte,G1,,x,
Trinchera Irrigation Company,,x,19871108360,G,N,1944-02-08,G,,N,,x,,x,37.435313,-105.512967,G2,Blanca,G,Rio Grande,G1,,x,
Tropic Ditch Company,,x,19871015734,G,N,1893-06-08,G,,N,,x,,x,38.868320,-107.592002,G2,Paonia,G,Gunnison,G1,,x,
Turner Ditch Company,,x,19871075461,G,N,1922-04-05,G,,N,,x,,x,38.862147,-107.595371,G2,Paonia,G,Gunnison,G1,,x,
"Twenty Mile Reservoir Water Company, LLC",,x,19971188248,G,N,1997-11-24,G,2008-08-25,G,,x,,x,39.545969,-107.325551,G2,Glenwood Springs,G,Colorado,,,x,
Twin Lakes Reservoir And Canal Company,,x,19871024801,G,N,1897-06-15,G,,N,,x,,x,38.218825,-103.756501,G2,Ordway,G,Arkansas,,,x,
Uncompahgre Valley Water Users Association,,x,,x,Y,,x,,N,,x,,x,,,x,Montrose,G,,x,,x,
Union Ditch And Water Company,,x,19871059015,G,N,1914-01-05,G,,N,,x,,x,38.393906,-105.117496,G2,Florence,G,Arkansas,G1,,x,
Union Ditch Company,UnionDC,G,19871000977,G,Y,1874-04-01,G,,N,,x,,x,40.389487,-104.727947,G2,Greeley,G,South Platte,G1,,x,
Union Lateral Irrigating Company,,x,19871067375,G,N,1918-05-06,G,,N,,x,,x,,,x,,x,,x,,x,
Union Mutual Ditch Company,UnionMutualDC,G,19871056308,G,N,1912-05-16,G,,N,,x,,x,40.255124,-103.617457,G2,Rush,G,South Platte,G1,,x,
Union Reservoir Company,UnionRC,G,19871035494,G,N,1902-10-24,G,,N,,x,,x,40.389487,-104.727947,G2,Greeley,G,South Platte,,,x,
Upper Baldwin Ditch Company,UpperBaldwinDC,G,19871036206,G,N,1903-02-16,G,,N,,x,,x,40.132825,-105.111719,G2,Longmont,G,South Platte,G1,,x,
Upper Harmony Ditch Company,,x,19871045460,G,N,1907-08-13,G,,N,,x,,x,,,x,,x,,x,,x,
"Upper Hight Ditch Company, Inc.",,x,20011044787,G,N,2001-03-02,G,,N,,x,,x,39.256233,-107.964908,G2,Colbran,G,Colorado,G1,,x,
Upper Platte and Beaver Canal Company,,x,,x,Y,,x,,N,,x,,x,,,x,Fort Morgan,G,,x,,x,
Upper Walker Ditch Company,,x,20091275433,G,N,2009-05-19,G,,N,,x,,x,40.501731,-107.204829,G2,Hayden,G,Yampa,G1,,x,
"Ute Tree Ditch, Inc.",,x,19891004109,G,N,1989-01-20,G,,N,,x,,x,38.753600,-108.075000,G2,Delta,G,Gunnison,G1,,x,
Valley Ditch Company,,x,19871000873,G,N,1873-06-02,G,,N,,x,,x,,,x,,x,,x,,x,
Vernal Mesa Ditch And Reservoir Company,,x,19871037948,G,N,1904-01-08,G,,N,,x,,x,,,x,,x,,x,,x,
Victory Irrigating Canal Company,,x,19871096385,G,N,1933-04-10,G,,N,,x,,x,,,x,,x,,x,,x,
Vineland Lateral Ditch Company,,x,19871077769,G,N,1923-06-08,G,,N,,x,,x,,,x,,x,,x,,x,
Virginia Mutual Ditch Company Inc.,,x,20101185766,G,N,2010-03-29,G,,N,,x,,x,38.678357,-107.575824,G2,Crawford,G,Gunnison,G1,,x,
Vista Irrigation Company,VistaIC,G,19871131728,G,N,1956-02-29,G,,N,,x,,x,39.751995,-105.120482,G2,Lakewood,G,Metro,G1,,x,
Von Hagen Ditch And Reservoir Co.,,x,19871293138,G,N,1975-10-10,G,,N,,x,,x,38.023670,-107.672531,G2,Ouray,G,Gunnison,G1,,x,
Vouga Reservoir Association,,x,19871129859,G,N,1955-08-08,G,,N,,x,,x,,,x,,x,,x,,x,
"W. R. Blower Mutual Ditch Company, Inc.",WRBlowerMutualDC,G,19871574470,G,N,1984-06-04,G,,N,,x,,x,40.254776,-105.159996,G2,Longmont,G,South Platte,G1,,x,
W. R. Jones Ditch Company,,x,19871108799,G,N,1944-09-13,G,,N,,x,,x,,,x,,x,,x,,x,
Wade And Hightower Ditch Company,,x,19871088888,G,N,1928-12-05,G,,N,,x,,x,38.856766,-107.592084,G2,Paonia,G,Gunnison,G1,,x,
Wadsworth Ditch Company,WadsworthDC,G,19871015009,G,N,1893-02-04,G,,N,,x,,x,39.802563,-105.083212,G2,Arvada,G,Metro,G1,,x,
Wagner Lateral Ditch Company,,x,19871047341,G,N,1908-06-06,G,,N,,x,,x,,,x,,x,,x,,x,
Walden Reservoir Company,WaldenRC,G,19871126264,G,N,1954-07-12,G,,N,,x,,x,40.727838,-106.280605,G2,Cowdrey,G,North Platte,,,x,
Walker Ditch Company,,x,20061224462,G,N,2006-06-02,G,,N,,x,,x,40.492030,-107.259011,G2,Hayden,G,Yampa,G1,,x,
Walsenburg Ditch Company,,x,19871105239,G,N,1940-04-18,G,,N,,x,,x,,,x,,x,,x,,x,
Ward Reynolds Ditch Company,,x,19871409610,G,N,1980-08-14,G,,N,,x,,x,39.554307,-107.562653,G2,New Castle,G,Colorado,G1,,x,
Ware And Hinds Ditch Association,,x,20101092615,G,N,2010-02-15,G,,N,,x,,x,39.548592,-107.656171,G2,Silt,G,Colorado,G1,,x,
Warren Lake Reservoir Company,,x,19871002280,G,N,1879-12-26,G,,N,,x,,x,38.674700,-108.039000,G2,Delta,G,Gunnison,,,x,
Warrior Ditch Company,WarriorDC,G,19871006958,G,N,1885-06-30,G,,N,,x,,x,39.732937,-105.009534,G2,Denver,G,Metro,G1,,x,
"Water-Users Of Lateral Ditch 110, Incorporated",,x,19991064389,G,Y,1999-04-07,G,,N,,x,,x,39.078243,-108.504187,G2,Grand Junction,G,Colorado,G1,,x,
Watrous Lateral Ditch Company,,x,19871156728,G,N,1961-10-24,G,,N,,x,,x,,,x,,x,,x,,x,
Webber Ditch Company,,x,19871123693,G,N,1953-05-18,G,,N,,x,,x,37.310105,-108.289804,G2,Mancos,G,Southwest,G1,,x,
Weber Reservoir Company,,x,19871039627,G,N,1904-12-08,G,,N,,x,,x,,,x,,x,,x,,x,
Weir And Johnson Ditch And Reservoir Company,,x,19871042370,G,N,1906-04-02,G,,N,,x,,x,,,x,,x,,x,,x,
Welch Ditch Users Association,,x,20151223327,G,N,2015-03-30,G,,N,,x,,x,39.736410,-105.151269,G2,Golden,G,Metro,G1,,x,
"Welch Ditch Users Association, Inc.",,x,19961117462,G,N,1996-09-06,G,,N,,x,,x,39.734332,-105.145881,G2,Golden,G,Metro,G1,,x,
Welch Lateral Ditch Company,,x,19871049236,G,N,1909-04-13,G,,N,,x,,x,,,x,,x,,x,,x,
Weldon Valley Ditch Company,WeldonVlyDC,G,19871009068,G,N,1888-11-17,G,,N,,x,,x,40.361163,-103.968838,G2,Weldona,G,South Platte,G1,,x,
Wellington Reservoir Company,WellingtonRC,G,19871970994,G,N,1920-01-22,G,,N,,x,,x,39.985791,-104.790846,G2,Brighton,G,Metro,G1,,x,
Wellman Ditch Company,,x,19871001714,G,N,1878-06-13,G,,N,,x,,x,,,x,,x,,x,,x,
West 56th Avenue Ditch Company,West56AveDC,G,19871112923,G,N,1947-06-27,G,,N,,x,,x,39.798350,-105.011114,G2,Denver,G,Metro,G1,,x,
West End Irrigation Company,,x,19871101902,G,N,1937-05-03,G,,N,,x,,x,,,x,,x,,x,,x,
West Gunnison Ditch Association,,x,19981144307,G,N,1998-08-07,G,2003-06-01,G,,x,,x,,,x,,x,,x,,x,
West Irrigation Company,WestIC,G,19871046071,G,N,1907-12-06,G,,N,,x,,x,40.526291,-104.712969,G2,Eaton,G,South Platte,G1,,x,
West Lateral Ditch Company,,x,19871078638,G,N,1923-12-18,G,,N,,x,,x,,,x,,x,,x,,x,
West Meadows Mutual Ditch Company,,x,19981207984,G,N,1998-11-23,G,,N,,x,,x,37.936562,-107.809508,G2,Telluride,G,Southwest,G1,,x,
West Pueblo Ditch And Reservoir Company,,x,19871008572,G,N,1888-03-15,G,,N,,x,,x,38.271336,-104.611301,G2,Pueblo,G,Arkansas,G1,,x,
West Reservoir And Ditch Company,,x,19871048230,G,N,1908-11-18,G,,N,,x,,x,38.889839,-107.658591,G2,Hotchkiss,G,Gunnison,G1,,x,
West Rhone Lateral Ditch Company,,x,20001027666,G,N,2000-02-09,G,,N,,x,,x,39.137264,-108.668320,G2,Fruita,G,Colorado,G1,,x,
West Ridge Irrigation Association,,x,,x,Y,,x,,N,,x,,x,,,x,Greeley,G,,x,,x,
"West South Platte Water & Reservoir Company, LLLP",WestSouthPlatteWRC,G,20161110070,G,N,2016-02-16,G,,N,,x,,x,39.573517,-104.881907,G2,Centennial,G,Metro,,,x,
Western Mutual Ditch Company,WesternMutualDC,G,19871049007,G,N,1909-03-15,G,,N,,x,,x,40.310485,-104.752952,G2,La Salle,G,South Platte,G1,,x,
Westmoor Acres Irrigation Company,,x,19871086245,G,N,1927-09-02,G,,N,,x,,x,,,x,,x,,x,,x,
Wheat Ridge Mutual Lateral Ditch Company,,x,19871015312,G,N,1893-03-14,G,,N,,x,,x,,,x,,x,,x,,x,
Whipple Lateral Ditch Company,WhippleLDC,G,19871194170,G,N,1967-06-20,G,,N,,x,,x,40.323378,-105.110277,G2,Berthoud,G,South Platte,G1,,x,
"White Ditch No. 2, Incorporated",,x,19981172148,G,N,1998-09-23,G,,N,,x,,x,38.522578,-106.010825,G2,Salida,G,Arkansas,G1,,x,
"White Ditch No. 3, Incorporated",,x,19971027634,G,N,1997-02-24,G,,N,,x,,x,38.523659,-105.999777,G2,Salida,G,Arkansas,G1,,x,
White River Highland Ditch Company,,x,19921070888,G,N,1992-07-17,G,,N,,x,,x,40.033556,-107.832836,G2,Meeker,G,Yampa,G1,,x,
Whitewater Mutual Ditch Company,,x,19871255449,G,N,1973-03-21,G,,N,,x,,x,,,x,,x,,x,,x,
Whitney Irrigating Ditch Company,,x,19871003685,G,N,1881-04-28,G,,N,,x,,x,,,x,,x,,x,,x,
Wide Acres Mutual Ditch Company,,x,19871075418,G,N,1922-03-29,G,2008-11-12,G,,x,,x,,,x,,x,,x,,x,
Widefield Ditch Company,,x,19871064076,G,N,1917-01-27,G,,N,,x,,x,,,x,,x,,x,,x,
Wight Lateral Ditch Company,WightLDC,G,19871051937,G,N,1910-05-05,G,,N,,x,,x,39.732718,-105.092170,G2,Lakewood,G,Metro,G1,,x,
Wildcat Reservoir Company,,x,19911016112,G,N,1991-03-13,G,,N,,x,,x,39.276021,-106.936867,G2,Snowmass Village,G,Colorado,,,x,
Wilkins Ditch Company,WilkinsDC,G,19871956110,G,N,1912-04-03,G,,N,,x,,x,39.802208,-105.082768,G2,Arvada,G,Metro,G1,,x,
Willerup'S Sub-Division Supply Ditch Company,,x,19871116243,G,N,1949-04-16,G,,N,,x,,x,,,x,,x,,x,,x,
Williams And Hamm Ditch Company,,x,19871091035,G,N,1936-09-22,G,,N,,x,,x,,,x,,x,,x,,x,
Williamson Ditch Company,WilliamsonDC,G,19871068569,G,N,1919-01-10,G,,N,,x,,x,40.113359,-105.183339,G2,Longmont,G,South Platte,G1,,x,
Willow Creek Ditch And Herrick Ditch Company,,x,20021154821,G,N,2002-06-07,G,,N,,x,,x,39.368658,-107.031414,G2,Basalt,G,Colorado,G1,,x,
Willow Heights Irrigation Company,,x,19941134289,G,N,1994-12-05,G,,N,,x,,x,38.799707,-107.719503,G2,Hotchkiss,G,Gunnison,G1,,x,
Willow Park Ditch Company,,x,19991026863,G,N,1999-02-10,G,,N,,x,,x,37.672407,-106.610423,G2,South Fork,G,Rio Grande,G1,,x,
"Willow Wood Village Irrigation & Drainage Company, Inc.",,x,20091290285,G,N,2009-05-27,G,,N,,x,,x,39.027081,-108.460037,G2,Grand Junction,G,Colorado,G1,,x,
Windmill Ranch Mutual Lateral Ditch Company,,x,20041223198,G,N,2004-06-28,G,,N,,x,,x,38.534719,-105.998902,G2,Salida,G,Arkansas,G1,,x,
Windsor Reservoir & Canal Company,WindsorRCC,G,19871010673,G,N,1890-05-02,G,,N,,x,,x,40.526291,-104.712969,G2,Eaton,G,South Platte,,,x,
Wisconsin Ditch Company,,x,19871111757,G,N,1946-12-10,G,,N,,x,,x,,,x,,x,,x,,x,
Wiswall Ditch Company,,x,19871041868,G,N,1906-01-25,G,,N,,x,,x,,,x,,x,,x,,x,
Wolfer Ditch Company,,x,19871058840,G,N,1904-06-13,G,,N,,x,,x,,,x,,x,,x,,x,
Wolff And Coulehan Lateral Ditch Company,,x,19871044983,G,N,1907-05-28,G,,N,,x,,x,,,x,,x,,x,,x,
Wolff Ditch Company,WolffDC,G,20101191416,G,N,2010-03-31,G,,N,,x,,x,39.787816,-105.094216,G2,Arvada,G,Metro,G1,,x,
Wood Lake Mutual Water & Irrigation Co.,,x,19871138522,G,N,1958-02-21,G,,N,,x,,x,,,x,,x,,x,,x,
Woodchuck Ditch Company,,x,19901061625,G,N,1990-06-01,G,,N,,x,,x,40.474494,-106.825617,G2,Steamboat Springs,G,Yampa,G1,,x,
Wood-Perry Ditch Company,,x,19871405641,G,N,1980-06-23,G,,N,,x,,x,38.181954,-107.752680,G2,Ridgway,G,Gunnison,G1,,x,
Y & S Reservoir Company,,x,19871132515,G,N,1956-05-18,G,,N,,x,,x,,,x,,x,,x,,x,
Yeager Subdivision Ii Ditch Corporation,,x,19951129171,G,N,1995-10-19,G,,N,,x,,x,37.111514,-107.897825,G2,Durango,G,Southwest,G1,,x,
Yellowstone Lateral Ditch Company,YellowstoneLDC,G,20061310555,G,N,2006-07-31,G,,N,,x,,x,40.247321,-105.082727,G2,Longmont,G,South Platte,G1,,x,
Young Creek Reservoir Company,,x,19871023667,G,N,1897-01-07,G,,N,,x,,x,,,x,,x,,x,,x,
Zweck And Turner Ditch Company,ZweckTurnerDC,G,20131681303,G,N,2013-11-26,G,,N,,x,,x,40.173812,-105.169588,G2,Longmont,G,South Platte,G1,,x,
